{
"type": "FeatureCollection",
"name": "stations_23",
"crs": { "type": "name", "properties": { "name": "urn:ogc:def:crs:OGC:1.3:CRS84" } },
"features": [
{ "type": "Feature", "properties": { "id": "BK-A3", "start_count": 1225, "end_count": 1014, "combined_count": 2239, "name": "College Ave at Alcatraz Ave", "lat": 37.8513755, "long": -122.2525233 }, "geometry": { "type": "Point", "coordinates": [ -122.2525233, 37.8513755 ] } },
{ "type": "Feature", "properties": { "id": "BK-A7", "start_count": 1604, "end_count": 1519, "combined_count": 3123, "name": "Vine St at Shattuck Ave", "lat": 37.880222445906789, "long": -122.26959228515624 }, "geometry": { "type": "Point", "coordinates": [ -122.269592285156236, 37.880222445906789 ] } },
{ "type": "Feature", "properties": { "id": "BK-B7", "start_count": 977, "end_count": 989, "combined_count": 1966, "name": "Virginia St at Shattuck Ave", "lat": 37.876572549106847, "long": -122.26952791213988 }, "geometry": { "type": "Point", "coordinates": [ -122.269527912139878, 37.876572549106847 ] } },
{ "type": "Feature", "properties": { "id": "BK-C1", "start_count": 783, "end_count": 1084, "combined_count": 1867, "name": "Fifth St at Delaware St", "lat": 37.870407115465376, "long": -122.29967594146729 }, "geometry": { "type": "Point", "coordinates": [ -122.299675941467285, 37.870407115465376 ] } },
{ "type": "Feature", "properties": { "id": "BK-C5", "start_count": 1394, "end_count": 1405, "combined_count": 2799, "name": "North Berkeley BART Station", "lat": 37.873558, "long": -122.283093 }, "geometry": { "type": "Point", "coordinates": [ -122.283093, 37.873558 ] } },
{ "type": "Feature", "properties": { "id": "BK-C6", "start_count": 1366, "end_count": 1545, "combined_count": 2911, "name": "MLK Jr Way at University Ave", "lat": 37.8717192, "long": -122.2730677 }, "geometry": { "type": "Point", "coordinates": [ -122.2730677, 37.8717192 ] } },
{ "type": "Feature", "properties": { "id": "BK-C7", "start_count": 1189, "end_count": 1174, "combined_count": 2363, "name": "Shattuck Ave at Hearst Ave", "lat": 37.873676214598248, "long": -122.26848721504211 }, "geometry": { "type": "Point", "coordinates": [ -122.268487215042114, 37.873676214598248 ] } },
{ "type": "Feature", "properties": { "id": "BK-C8", "start_count": 1304, "end_count": 1318, "combined_count": 2622, "name": "University Ave at Oxford St", "lat": 37.8723555, "long": -122.2664467 }, "geometry": { "type": "Point", "coordinates": [ -122.2664467, 37.8723555 ] } },
{ "type": "Feature", "properties": { "id": "BK-C9", "start_count": 1662, "end_count": 817, "combined_count": 2479, "name": "Hearst Ave at Euclid Ave", "lat": 37.8753207, "long": -122.2601554 }, "geometry": { "type": "Point", "coordinates": [ -122.2601554, 37.8753207 ] } },
{ "type": "Feature", "properties": { "id": "BK-D1", "start_count": 1318, "end_count": 1884, "combined_count": 3202, "name": "Addison St at Fourth St", "lat": 37.866249, "long": -122.2993708 }, "geometry": { "type": "Point", "coordinates": [ -122.2993708, 37.866249 ] } },
{ "type": "Feature", "properties": { "id": "BK-D10", "start_count": 2581, "end_count": 1384, "combined_count": 3965, "name": "Bancroft Way at College Ave", "lat": 37.8693603, "long": -122.2543374 }, "geometry": { "type": "Point", "coordinates": [ -122.2543374, 37.8693603 ] } },
{ "type": "Feature", "properties": { "id": "BK-D2", "start_count": 540, "end_count": 897, "combined_count": 1437, "name": "10th St at University Ave", "lat": 37.869060475453928, "long": -122.29339957237242 }, "geometry": { "type": "Point", "coordinates": [ -122.293399572372422, 37.869060475453928 ] } },
{ "type": "Feature", "properties": { "id": "BK-D4", "start_count": 692, "end_count": 858, "combined_count": 1550, "name": "West St at University Ave", "lat": 37.869966707604043, "long": -122.28653311729433 }, "geometry": { "type": "Point", "coordinates": [ -122.286533117294326, 37.869966707604043 ] } },
{ "type": "Feature", "properties": { "id": "BK-D5", "start_count": 573, "end_count": 731, "combined_count": 1304, "name": "California St at University Ave", "lat": 37.870555329057453, "long": -122.27972030639648 }, "geometry": { "type": "Point", "coordinates": [ -122.279720306396484, 37.870555329057453 ] } },
{ "type": "Feature", "properties": { "id": "BK-D7-1", "start_count": 4062, "end_count": 4016, "combined_count": 8078, "name": "Downtown Berkeley BART", "lat": 37.870139, "long": -122.268422 }, "geometry": { "type": "Point", "coordinates": [ -122.268422, 37.870139 ] } },
{ "type": "Feature", "properties": { "id": "BK-D7-2", "start_count": 1388, "end_count": 1512, "combined_count": 2900, "name": "Berkeley Civic Center", "lat": 37.8690599, "long": -122.270556 }, "geometry": { "type": "Point", "coordinates": [ -122.270556, 37.8690599 ] } },
{ "type": "Feature", "properties": { "id": "BK-E10", "start_count": 1254, "end_count": 487, "combined_count": 1741, "name": "Haste St at College Ave", "lat": 37.86641794050319, "long": -122.25379943847656 }, "geometry": { "type": "Point", "coordinates": [ -122.253799438476562, 37.86641794050319 ] } },
{ "type": "Feature", "properties": { "id": "BK-E3", "start_count": 93, "end_count": 139, "combined_count": 232, "name": "Channing Way at San Pablo Ave", "lat": 37.862817106708022, "long": -122.2902952903697 }, "geometry": { "type": "Point", "coordinates": [ -122.290295290369698, 37.862817106708022 ] } },
{ "type": "Feature", "properties": { "id": "BK-E7", "start_count": 1771, "end_count": 1810, "combined_count": 3581, "name": "Channing Way at Shattuck Ave", "lat": 37.8658466, "long": -122.2674431 }, "geometry": { "type": "Point", "coordinates": [ -122.2674431, 37.8658466 ] } },
{ "type": "Feature", "properties": { "id": "BK-E8", "start_count": 1196, "end_count": 1072, "combined_count": 2268, "name": "Fulton St at Bancroft Way", "lat": 37.8677892, "long": -122.2658964 }, "geometry": { "type": "Point", "coordinates": [ -122.2658964, 37.8677892 ] } },
{ "type": "Feature", "properties": { "id": "BK-E9-1", "start_count": 3934, "end_count": 3127, "combined_count": 7061, "name": "Bancroft Way at Telegraph Ave", "lat": 37.8689109, "long": -122.2587857 }, "geometry": { "type": "Point", "coordinates": [ -122.2587857, 37.8689109 ] } },
{ "type": "Feature", "properties": { "id": "BK-E9-2", "start_count": 1784, "end_count": 1306, "combined_count": 3090, "name": "Haste St at Telegraph Ave", "lat": 37.8660431, "long": -122.2588044 }, "geometry": { "type": "Point", "coordinates": [ -122.2588044, 37.8660431 ] } },
{ "type": "Feature", "properties": { "id": "BK-F10", "start_count": 1092, "end_count": 681, "combined_count": 1773, "name": "Derby St at College Ave", "lat": 37.8618037, "long": -122.2535687 }, "geometry": { "type": "Point", "coordinates": [ -122.2535687, 37.8618037 ] } },
{ "type": "Feature", "properties": { "id": "BK-F2", "start_count": 936, "end_count": 1099, "combined_count": 2035, "name": "Ninth St at Parker St", "lat": 37.8588682, "long": -122.2912095 }, "geometry": { "type": "Point", "coordinates": [ -122.2912095, 37.8588682 ] } },
{ "type": "Feature", "properties": { "id": "BK-F7", "start_count": 1272, "end_count": 1238, "combined_count": 2510, "name": "Milvia St at Derby St", "lat": 37.860124599116851, "long": -122.2693844139576 }, "geometry": { "type": "Point", "coordinates": [ -122.269384413957596, 37.860124599116851 ] } },
{ "type": "Feature", "properties": { "id": "BK-F8", "start_count": 1779, "end_count": 1908, "combined_count": 3687, "name": "Parker St at Fulton St", "lat": 37.8624644, "long": -122.2647911 }, "geometry": { "type": "Point", "coordinates": [ -122.2647911, 37.8624644 ] } },
{ "type": "Feature", "properties": { "id": "BK-F9", "start_count": 1346, "end_count": 1208, "combined_count": 2554, "name": "Telegraph Ave at Carleton St", "lat": 37.8623199, "long": -122.258801 }, "geometry": { "type": "Point", "coordinates": [ -122.258801, 37.8623199 ] } },
{ "type": "Feature", "properties": { "id": "BK-G4", "start_count": 893, "end_count": 1372, "combined_count": 2265, "name": "San Pablo Park", "lat": 37.855783320301988, "long": -122.28312671184538 }, "geometry": { "type": "Point", "coordinates": [ -122.283126711845384, 37.855783320301988 ] } },
{ "type": "Feature", "properties": { "id": "BK-G7", "start_count": 2041, "end_count": 2174, "combined_count": 4215, "name": "Oregon St at Adeline St", "lat": 37.8575672, "long": -122.2675583 }, "geometry": { "type": "Point", "coordinates": [ -122.2675583, 37.8575672 ] } },
{ "type": "Feature", "properties": { "id": "BK-G8", "start_count": 888, "end_count": 732, "combined_count": 1620, "name": "Ellsworth St at Russell St", "lat": 37.857607747399882, "long": -122.26160466670989 }, "geometry": { "type": "Point", "coordinates": [ -122.261604666709886, 37.857607747399882 ] } },
{ "type": "Feature", "properties": { "id": "BK-H10", "start_count": 1827, "end_count": 1601, "combined_count": 3428, "name": "Russell St at College Ave", "lat": 37.8584732, "long": -122.2532529 }, "geometry": { "type": "Point", "coordinates": [ -122.2532529, 37.8584732 ] } },
{ "type": "Feature", "properties": { "id": "BK-H3", "start_count": 1444, "end_count": 1649, "combined_count": 3093, "name": "Ninth St at Heinz Ave", "lat": 37.853906961643801, "long": -122.2896981239319 }, "geometry": { "type": "Point", "coordinates": [ -122.289698123931899, 37.853906961643801 ] } },
{ "type": "Feature", "properties": { "id": "BK-H6", "start_count": 2525, "end_count": 2592, "combined_count": 5117, "name": "Ashby BART Station", "lat": 37.8524766, "long": -122.2702132 }, "geometry": { "type": "Point", "coordinates": [ -122.2702132, 37.8524766 ] } },
{ "type": "Feature", "properties": { "id": "BK-H8", "start_count": 862, "end_count": 797, "combined_count": 1659, "name": "Fulton St at Ashby Ave", "lat": 37.855573661828792, "long": -122.2635653614998 }, "geometry": { "type": "Point", "coordinates": [ -122.263565361499801, 37.855573661828792 ] } },
{ "type": "Feature", "properties": { "id": "BK-H9", "start_count": 1147, "end_count": 1044, "combined_count": 2191, "name": "Telegraph Ave at Ashby Ave", "lat": 37.8559558, "long": -122.2597949 }, "geometry": { "type": "Point", "coordinates": [ -122.2597949, 37.8559558 ] } },
{ "type": "Feature", "properties": { "id": "BK-I5", "start_count": 1278, "end_count": 1461, "combined_count": 2739, "name": "Woolsey St at Sacramento St", "lat": 37.8505777, "long": -122.2781754 }, "geometry": { "type": "Point", "coordinates": [ -122.2781754, 37.8505777 ] } },
{ "type": "Feature", "properties": { "id": "BK-I6", "start_count": 696, "end_count": 772, "combined_count": 1468, "name": "Harmon St at Adeline St", "lat": 37.849735, "long": -122.270582 }, "geometry": { "type": "Point", "coordinates": [ -122.270582, 37.849735 ] } },
{ "type": "Feature", "properties": { "id": "EM-1", "start_count": 0, "end_count": 1, "combined_count": 1, "name": "Emeryville Depot", "lat": 37.830296182687, "long": -122.2894299030304 }, "geometry": { "type": "Point", "coordinates": [ -122.289429903030396, 37.830296182687 ] } },
{ "type": "Feature", "properties": { "id": "EM-A1", "start_count": 690, "end_count": 763, "combined_count": 1453, "name": "59th St at Horton St", "lat": 37.8409452, "long": -122.2913604 }, "geometry": { "type": "Point", "coordinates": [ -122.2913604, 37.8409452 ] } },
{ "type": "Feature", "properties": { "id": "EM-A2", "start_count": 743, "end_count": 923, "combined_count": 1666, "name": "Doyle St at 59th St", "lat": 37.8419238, "long": -122.2880451 }, "geometry": { "type": "Point", "coordinates": [ -122.2880451, 37.8419238 ] } },
{ "type": "Feature", "properties": { "id": "EM-B0-2", "start_count": 209, "end_count": 276, "combined_count": 485, "name": "2100 Powell St", "lat": 37.839543082665628, "long": -122.2987177222967 }, "geometry": { "type": "Point", "coordinates": [ -122.298717722296701, 37.839543082665628 ] } },
{ "type": "Feature", "properties": { "id": "EM-B1", "start_count": 566, "end_count": 788, "combined_count": 1354, "name": "Emeryville Public Market", "lat": 37.840521166949692, "long": -122.29352831840517 }, "geometry": { "type": "Point", "coordinates": [ -122.293528318405166, 37.840521166949692 ] } },
{ "type": "Feature", "properties": { "id": "EM-B2", "start_count": 417, "end_count": 442, "combined_count": 859, "name": "Stanford Ave at Hollis St", "lat": 37.8384435, "long": -122.2886647 }, "geometry": { "type": "Point", "coordinates": [ -122.2886647, 37.8384435 ] } },
{ "type": "Feature", "properties": { "id": "EM-C1", "start_count": 593, "end_count": 798, "combined_count": 1391, "name": "65th St at Hollis St", "lat": 37.8467842, "long": -122.2913761 }, "geometry": { "type": "Point", "coordinates": [ -122.2913761, 37.8467842 ] } },
{ "type": "Feature", "properties": { "id": "EM-C2", "start_count": 267, "end_count": 351, "combined_count": 618, "name": "53rd St at Hollis St", "lat": 37.8361823, "long": -122.2871801 }, "geometry": { "type": "Point", "coordinates": [ -122.2871801, 37.8361823 ] } },
{ "type": "Feature", "properties": { "id": "EM-C3", "start_count": 462, "end_count": 610, "combined_count": 1072, "name": "47th St at San Pablo Ave", "lat": 37.8356703, "long": -122.2811258 }, "geometry": { "type": "Point", "coordinates": [ -122.2811258, 37.8356703 ] } },
{ "type": "Feature", "properties": { "id": "EM-D2", "start_count": 630, "end_count": 847, "combined_count": 1477, "name": "Horton St at 40th St", "lat": 37.8297046, "long": -122.2876102 }, "geometry": { "type": "Point", "coordinates": [ -122.2876102, 37.8297046 ] } },
{ "type": "Feature", "properties": { "id": "EM-D3", "start_count": 298, "end_count": 516, "combined_count": 814, "name": "Emeryville Town Hall", "lat": 37.8312752, "long": -122.2856333 }, "geometry": { "type": "Point", "coordinates": [ -122.2856333, 37.8312752 ] } },
{ "type": "Feature", "properties": { "id": "EM-D4", "start_count": 628, "end_count": 697, "combined_count": 1325, "name": "Adeline St at 40th St", "lat": 37.8312769, "long": -122.2782669 }, "geometry": { "type": "Point", "coordinates": [ -122.2782669, 37.8312769 ] } },
{ "type": "Feature", "properties": { "id": "OK-A2", "start_count": 747, "end_count": 695, "combined_count": 1442, "name": "Telegraph Ave at Alcatraz Ave", "lat": 37.850221874496789, "long": -122.26017236709596 }, "geometry": { "type": "Point", "coordinates": [ -122.260172367095961, 37.850221874496789 ] } },
{ "type": "Feature", "properties": { "id": "OK-A4", "start_count": 797, "end_count": 633, "combined_count": 1430, "name": "62nd St at Claremont Ave", "lat": 37.8494355, "long": -122.2525406 }, "geometry": { "type": "Point", "coordinates": [ -122.2525406, 37.8494355 ] } },
{ "type": "Feature", "properties": { "id": "OK-B1", "start_count": 581, "end_count": 663, "combined_count": 1244, "name": "Alcatraz Ave at Shattuck Ave", "lat": 37.849594967776646, "long": -122.26556897163393 }, "geometry": { "type": "Point", "coordinates": [ -122.265568971633925, 37.849594967776646 ] } },
{ "type": "Feature", "properties": { "id": "OK-B2", "start_count": 592, "end_count": 559, "combined_count": 1151, "name": "Bushrod Park", "lat": 37.8465156, "long": -122.2653043 }, "geometry": { "type": "Point", "coordinates": [ -122.2653043, 37.8465156 ] } },
{ "type": "Feature", "properties": { "id": "OK-B3", "start_count": 432, "end_count": 409, "combined_count": 841, "name": "Telegraph Ave at 58th St", "lat": 37.8444927, "long": -122.261351 }, "geometry": { "type": "Point", "coordinates": [ -122.261351, 37.8444927 ] } },
{ "type": "Feature", "properties": { "id": "OK-B4", "start_count": 2837, "end_count": 2282, "combined_count": 5119, "name": "Rockridge BART Station", "lat": 37.844278753990672, "long": -122.251900434494 }, "geometry": { "type": "Point", "coordinates": [ -122.251900434494004, 37.844278753990672 ] } },
{ "type": "Feature", "properties": { "id": "OK-B5", "start_count": 548, "end_count": 387, "combined_count": 935, "name": "College Ave at Taft Ave", "lat": 37.8417999, "long": -122.2515349 }, "geometry": { "type": "Point", "coordinates": [ -122.2515349, 37.8417999 ] } },
{ "type": "Feature", "properties": { "id": "OK-C2", "start_count": 779, "end_count": 750, "combined_count": 1529, "name": "Dover St at 57th St", "lat": 37.8426295, "long": -122.267738 }, "geometry": { "type": "Point", "coordinates": [ -122.267738, 37.8426295 ] } },
{ "type": "Feature", "properties": { "id": "OK-C3", "start_count": 552, "end_count": 614, "combined_count": 1166, "name": "55th St at Telegraph Ave", "lat": 37.8401858, "long": -122.2618225 }, "geometry": { "type": "Point", "coordinates": [ -122.2618225, 37.8401858 ] } },
{ "type": "Feature", "properties": { "id": "OK-C4", "start_count": 674, "end_count": 824, "combined_count": 1498, "name": "Miles Ave at Cavour St", "lat": 37.8388, "long": -122.258732 }, "geometry": { "type": "Point", "coordinates": [ -122.258732, 37.8388 ] } },
{ "type": "Feature", "properties": { "id": "OK-C5", "start_count": 556, "end_count": 499, "combined_count": 1055, "name": "College Ave at Bryant Ave", "lat": 37.8381269, "long": -122.2512714 }, "geometry": { "type": "Point", "coordinates": [ -122.2512714, 37.8381269 ] } },
{ "type": "Feature", "properties": { "id": "OK-D2", "start_count": 1305, "end_count": 1318, "combined_count": 2623, "name": "Genoa St at 55th St", "lat": 37.8396488, "long": -122.2717561 }, "geometry": { "type": "Point", "coordinates": [ -122.2717561, 37.8396488 ] } },
{ "type": "Feature", "properties": { "id": "OK-D3-1", "start_count": 497, "end_count": 404, "combined_count": 901, "name": "Shattuck Ave at 55th St", "lat": 37.8403643, "long": -122.2644881 }, "geometry": { "type": "Point", "coordinates": [ -122.2644881, 37.8403643 ] } },
{ "type": "Feature", "properties": { "id": "OK-D3-2", "start_count": 186, "end_count": 163, "combined_count": 349, "name": "52nd St at MLK Jr Way", "lat": 37.837369, "long": -122.267656 }, "geometry": { "type": "Point", "coordinates": [ -122.267656, 37.837369 ] } },
{ "type": "Feature", "properties": { "id": "OK-D4", "start_count": 2021, "end_count": 1895, "combined_count": 3916, "name": "Telegraph Ave at 49th St", "lat": 37.83575, "long": -122.262654 }, "geometry": { "type": "Point", "coordinates": [ -122.262654, 37.83575 ] } },
{ "type": "Feature", "properties": { "id": "OK-D5", "start_count": 777, "end_count": 673, "combined_count": 1450, "name": "Broadway at Coronado Ave", "lat": 37.8357883, "long": -122.2516207 }, "geometry": { "type": "Point", "coordinates": [ -122.2516207, 37.8357883 ] } },
{ "type": "Feature", "properties": { "id": "OK-E3", "start_count": 195, "end_count": 200, "combined_count": 395, "name": "45th St at MLK Jr Way", "lat": 37.8335577, "long": -122.2674183 }, "geometry": { "type": "Point", "coordinates": [ -122.2674183, 37.8335577 ] } },
{ "type": "Feature", "properties": { "id": "OK-E4", "start_count": 1188, "end_count": 1041, "combined_count": 2229, "name": "Shattuck Ave at Telegraph Ave", "lat": 37.833538871616042, "long": -122.26369366575599 }, "geometry": { "type": "Point", "coordinates": [ -122.263693665755994, 37.833538871616042 ] } },
{ "type": "Feature", "properties": { "id": "OK-E5", "start_count": 523, "end_count": 493, "combined_count": 1016, "name": "45th St at Manila", "lat": 37.833293522232097, "long": -122.25622415542604 }, "geometry": { "type": "Point", "coordinates": [ -122.25622415542604, 37.833293522232097 ] } },
{ "type": "Feature", "properties": { "id": "OK-F2-2", "start_count": 530, "end_count": 525, "combined_count": 1055, "name": "Market St at 45th St", "lat": 37.834174, "long": -122.272968 }, "geometry": { "type": "Point", "coordinates": [ -122.272968, 37.834174 ] } },
{ "type": "Feature", "properties": { "id": "OK-F3", "start_count": 644, "end_count": 564, "combined_count": 1208, "name": "West St at 40th St", "lat": 37.8302232, "long": -122.2709501 }, "geometry": { "type": "Point", "coordinates": [ -122.2709501, 37.8302232 ] } },
{ "type": "Feature", "properties": { "id": "OK-F4", "start_count": 5494, "end_count": 5426, "combined_count": 10920, "name": "MacArthur BART Station", "lat": 37.8285951, "long": -122.2663493 }, "geometry": { "type": "Point", "coordinates": [ -122.2663493, 37.8285951 ] } },
{ "type": "Feature", "properties": { "id": "OK-F5", "start_count": 1371, "end_count": 1227, "combined_count": 2598, "name": "Broadway at 40th St", "lat": 37.8277573, "long": -122.2567156 }, "geometry": { "type": "Point", "coordinates": [ -122.2567156, 37.8277573 ] } },
{ "type": "Feature", "properties": { "id": "OK-F6", "start_count": 1615, "end_count": 1457, "combined_count": 3072, "name": "40th St at Piedmont Ave", "lat": 37.825785004382006, "long": -122.25346968515623 }, "geometry": { "type": "Point", "coordinates": [ -122.253469685156233, 37.825785004382006 ] } },
{ "type": "Feature", "properties": { "id": "OK-G2", "start_count": 480, "end_count": 454, "combined_count": 934, "name": "Market St at 40th St", "lat": 37.8305452, "long": -122.2739367 }, "geometry": { "type": "Point", "coordinates": [ -122.2739367, 37.8305452 ] } },
{ "type": "Feature", "properties": { "id": "OK-G3", "start_count": 482, "end_count": 379, "combined_count": 861, "name": "37th St at West St", "lat": 37.826695586409677, "long": -122.27179706096648 }, "geometry": { "type": "Point", "coordinates": [ -122.271797060966477, 37.826695586409677 ] } },
{ "type": "Feature", "properties": { "id": "OK-G4", "start_count": 669, "end_count": 535, "combined_count": 1204, "name": "MacArthur Blvd at Telegraph Ave", "lat": 37.8262863, "long": -122.2651002 }, "geometry": { "type": "Point", "coordinates": [ -122.2651002, 37.8262863 ] } },
{ "type": "Feature", "properties": { "id": "OK-G5", "start_count": 699, "end_count": 794, "combined_count": 1493, "name": "Mosswood Park", "lat": 37.824892529951121, "long": -122.26043654610294 }, "geometry": { "type": "Point", "coordinates": [ -122.260436546102937, 37.824892529951121 ] } },
{ "type": "Feature", "properties": { "id": "OK-H2", "start_count": 830, "end_count": 818, "combined_count": 1648, "name": "32nd St at Adeline St", "lat": 37.8238474, "long": -122.2811926 }, "geometry": { "type": "Point", "coordinates": [ -122.2811926, 37.8238474 ] } },
{ "type": "Feature", "properties": { "id": "OK-H2-2", "start_count": 193, "end_count": 241, "combined_count": 434, "name": "Brockhurst St at San Pablo Ave", "lat": 37.823522790214049, "long": -122.27718830108644 }, "geometry": { "type": "Point", "coordinates": [ -122.27718830108644, 37.823522790214049 ] } },
{ "type": "Feature", "properties": { "id": "OK-H3-2", "start_count": 567, "end_count": 558, "combined_count": 1125, "name": "West St at Brockhurst St", "lat": 37.822683859450208, "long": -122.27292420364392 }, "geometry": { "type": "Point", "coordinates": [ -122.272924203643925, 37.822683859450208 ] } },
{ "type": "Feature", "properties": { "id": "OK-H4-3", "start_count": 637, "end_count": 705, "combined_count": 1342, "name": "34th St at Telegraph Ave", "lat": 37.822467677145127, "long": -122.26597130298616 }, "geometry": { "type": "Point", "coordinates": [ -122.265971302986159, 37.822467677145127 ] } },
{ "type": "Feature", "properties": { "id": "OK-H5", "start_count": 1908, "end_count": 1938, "combined_count": 3846, "name": "Broadway at 30th St", "lat": 37.8193814, "long": -122.2619284 }, "geometry": { "type": "Point", "coordinates": [ -122.2619284, 37.8193814 ] } },
{ "type": "Feature", "properties": { "id": "OK-H9-1", "start_count": 1250, "end_count": 1519, "combined_count": 2769, "name": "Grand Ave at Santa Clara Ave", "lat": 37.8127441, "long": -122.2472152 }, "geometry": { "type": "Point", "coordinates": [ -122.2472152, 37.8127441 ] } },
{ "type": "Feature", "properties": { "id": "OK-H9-2", "start_count": 1080, "end_count": 1171, "combined_count": 2251, "name": "Lakeshore Ave at Trestle Glen Rd", "lat": 37.8110807, "long": -122.2432677 }, "geometry": { "type": "Point", "coordinates": [ -122.2432677, 37.8110807 ] } },
{ "type": "Feature", "properties": { "id": "OK-I3", "start_count": 332, "end_count": 444, "combined_count": 776, "name": "San Pablo Ave at 27th St", "lat": 37.8178269, "long": -122.2756976 }, "geometry": { "type": "Point", "coordinates": [ -122.2756976, 37.8178269 ] } },
{ "type": "Feature", "properties": { "id": "OK-I4", "start_count": 186, "end_count": 166, "combined_count": 352, "name": "27th St at MLK Jr Way", "lat": 37.8170154, "long": -122.2717615 }, "geometry": { "type": "Point", "coordinates": [ -122.2717615, 37.8170154 ] } },
{ "type": "Feature", "properties": { "id": "OK-I5", "start_count": 1463, "end_count": 1502, "combined_count": 2965, "name": "Telegraph Ave at 27th St", "lat": 37.816073115011406, "long": -122.26788640022278 }, "geometry": { "type": "Point", "coordinates": [ -122.267886400222778, 37.816073115011406 ] } },
{ "type": "Feature", "properties": { "id": "OK-I6", "start_count": 3606, "end_count": 3609, "combined_count": 7215, "name": "Bay Pl at Vernon St", "lat": 37.8114831, "long": -122.2605061 }, "geometry": { "type": "Point", "coordinates": [ -122.2605061, 37.8114831 ] } },
{ "type": "Feature", "properties": { "id": "OK-I8", "start_count": 2482, "end_count": 2665, "combined_count": 5147, "name": "Grand Ave at Perkins St", "lat": 37.80889393398715, "long": -122.25646018981932 }, "geometry": { "type": "Point", "coordinates": [ -122.256460189819322, 37.80889393398715 ] } },
{ "type": "Feature", "properties": { "id": "OK-I9", "start_count": 3310, "end_count": 3720, "combined_count": 7030, "name": "El Embarcadero at Grand Ave", "lat": 37.808715, "long": -122.2492512 }, "geometry": { "type": "Point", "coordinates": [ -122.2492512, 37.808715 ] } },
{ "type": "Feature", "properties": { "id": "OK-J3", "start_count": 305, "end_count": 271, "combined_count": 576, "name": "24th St at Market St", "lat": 37.8160598, "long": -122.2782444 }, "geometry": { "type": "Point", "coordinates": [ -122.2782444, 37.8160598 ] } },
{ "type": "Feature", "properties": { "id": "OK-J4", "start_count": 361, "end_count": 358, "combined_count": 719, "name": "Isabella St at San Pablo Ave", "lat": 37.814988230424163, "long": -122.2748440504074 }, "geometry": { "type": "Point", "coordinates": [ -122.274844050407395, 37.814988230424163 ] } },
{ "type": "Feature", "properties": { "id": "OK-J5", "start_count": 1515, "end_count": 1651, "combined_count": 3166, "name": "23rd St at Telegraph Ave", "lat": 37.812581085817413, "long": -122.26857304573061 }, "geometry": { "type": "Point", "coordinates": [ -122.268573045730605, 37.812581085817413 ] } },
{ "type": "Feature", "properties": { "id": "OK-J6-1", "start_count": 2893, "end_count": 3091, "combined_count": 5984, "name": "Grand Ave at Webster St", "lat": 37.8113768, "long": -122.2651925 }, "geometry": { "type": "Point", "coordinates": [ -122.2651925, 37.8113768 ] } },
{ "type": "Feature", "properties": { "id": "OK-J6-2", "start_count": 1244, "end_count": 1194, "combined_count": 2438, "name": "Snow Park", "lat": 37.807813182179032, "long": -122.26449608802795 }, "geometry": { "type": "Point", "coordinates": [ -122.264496088027954, 37.807813182179032 ] } },
{ "type": "Feature", "properties": { "id": "OK-K10", "start_count": 1114, "end_count": 1038, "combined_count": 2152, "name": "21st St at 5th Ave", "lat": 37.800459411713945, "long": -122.24745869636536 }, "geometry": { "type": "Point", "coordinates": [ -122.247458696365356, 37.800459411713945 ] } },
{ "type": "Feature", "properties": { "id": "OK-K17", "start_count": 68, "end_count": 55, "combined_count": 123, "name": "Foothill Blvd at Harrington Ave", "lat": 37.77993, "long": -122.2177284 }, "geometry": { "type": "Point", "coordinates": [ -122.2177284, 37.77993 ] } },
{ "type": "Feature", "properties": { "id": "OK-K2", "start_count": 654, "end_count": 708, "combined_count": 1362, "name": "DeFremery Park", "lat": 37.8123315, "long": -122.2851712 }, "geometry": { "type": "Point", "coordinates": [ -122.2851712, 37.8123315 ] } },
{ "type": "Feature", "properties": { "id": "OK-K3", "start_count": 785, "end_count": 793, "combined_count": 1578, "name": "Marston Campbell Park", "lat": 37.8098236, "long": -122.2801923 }, "geometry": { "type": "Point", "coordinates": [ -122.2801923, 37.8098236 ] } },
{ "type": "Feature", "properties": { "id": "OK-K4", "start_count": 231, "end_count": 207, "combined_count": 438, "name": "San Pablo Ave at MLK Jr Way", "lat": 37.8113514, "long": -122.2734217 }, "geometry": { "type": "Point", "coordinates": [ -122.2734217, 37.8113514 ] } },
{ "type": "Feature", "properties": { "id": "OK-K5-1", "start_count": 2156, "end_count": 2338, "combined_count": 4494, "name": "Telegraph Ave at 19th St", "lat": 37.8087021, "long": -122.2699271 }, "geometry": { "type": "Point", "coordinates": [ -122.2699271, 37.8087021 ] } },
{ "type": "Feature", "properties": { "id": "OK-K5-2", "start_count": 3957, "end_count": 4158, "combined_count": 8115, "name": "19th Street BART Station", "lat": 37.809368612134847, "long": -122.26795077323914 }, "geometry": { "type": "Point", "coordinates": [ -122.267950773239136, 37.809368612134847 ] } },
{ "type": "Feature", "properties": { "id": "OK-K6", "start_count": 1054, "end_count": 1127, "combined_count": 2181, "name": "Webster St at 19th St", "lat": 37.806969760955937, "long": -122.26658821105956 }, "geometry": { "type": "Point", "coordinates": [ -122.266588211059556, 37.806969760955937 ] } },
{ "type": "Feature", "properties": { "id": "OK-K7", "start_count": 1651, "end_count": 1453, "combined_count": 3104, "name": "Madison St at 17th St", "lat": 37.804036784023602, "long": -122.26240932941435 }, "geometry": { "type": "Point", "coordinates": [ -122.262409329414353, 37.804036784023602 ] } },
{ "type": "Feature", "properties": { "id": "OK-K9", "start_count": 2140, "end_count": 2493, "combined_count": 4633, "name": "2nd Ave at E 18th St", "lat": 37.800213566969802, "long": -122.25381016731262 }, "geometry": { "type": "Point", "coordinates": [ -122.253810167312622, 37.800213566969802 ] } },
{ "type": "Feature", "properties": { "id": "OK-L1", "start_count": 1257, "end_count": 1277, "combined_count": 2534, "name": "14th St at Mandela Pkwy", "lat": 37.8107432, "long": -122.2914153 }, "geometry": { "type": "Point", "coordinates": [ -122.2914153, 37.8107432 ] } },
{ "type": "Feature", "properties": { "id": "OK-L10", "start_count": 208, "end_count": 236, "combined_count": 444, "name": "6th Ave at E 12th St (Temporary Location)", "lat": 37.794396, "long": -122.253842 }, "geometry": { "type": "Point", "coordinates": [ -122.253842, 37.794396 ] } },
{ "type": "Feature", "properties": { "id": "OK-L11", "start_count": 149, "end_count": 137, "combined_count": 286, "name": "10th Ave at E 15th St", "lat": 37.7927143, "long": -122.2487796 }, "geometry": { "type": "Point", "coordinates": [ -122.2487796, 37.7927143 ] } },
{ "type": "Feature", "properties": { "id": "OK-L12", "start_count": 104, "end_count": 108, "combined_count": 212, "name": "San Antonio Park", "lat": 37.790139851853638, "long": -122.24237322807312 }, "geometry": { "type": "Point", "coordinates": [ -122.24237322807312, 37.790139851853638 ] } },
{ "type": "Feature", "properties": { "id": "OK-L14", "start_count": 169, "end_count": 210, "combined_count": 379, "name": "23rd Ave at Foothill Blvd", "lat": 37.7851915, "long": -122.2343822 }, "geometry": { "type": "Point", "coordinates": [ -122.2343822, 37.7851915 ] } },
{ "type": "Feature", "properties": { "id": "OK-L16", "start_count": 100, "end_count": 108, "combined_count": 208, "name": "Foothill Blvd at Fruitvale Ave", "lat": 37.7837569, "long": -122.2226033 }, "geometry": { "type": "Point", "coordinates": [ -122.2226033, 37.7837569 ] } },
{ "type": "Feature", "properties": { "id": "OK-L19", "start_count": 118, "end_count": 125, "combined_count": 243, "name": "Bond St at High St", "lat": 37.774152564302362, "long": -122.21239820122716 }, "geometry": { "type": "Point", "coordinates": [ -122.21239820122716, 37.774152564302362 ] } },
{ "type": "Feature", "properties": { "id": "OK-L3", "start_count": 332, "end_count": 408, "combined_count": 740, "name": "14th St at Filbert St", "lat": 37.80874983465997, "long": -122.28328227996823 }, "geometry": { "type": "Point", "coordinates": [ -122.283282279968233, 37.80874983465997 ] } },
{ "type": "Feature", "properties": { "id": "OK-L4", "start_count": 434, "end_count": 446, "combined_count": 880, "name": "MLK Jr Way at 14th St", "lat": 37.8061628, "long": -122.2760402 }, "geometry": { "type": "Point", "coordinates": [ -122.2760402, 37.8061628 ] } },
{ "type": "Feature", "properties": { "id": "OK-L5", "start_count": 1995, "end_count": 1967, "combined_count": 3962, "name": "Frank H Ogawa Plaza", "lat": 37.804562354930297, "long": -122.27173805236816 }, "geometry": { "type": "Point", "coordinates": [ -122.271738052368164, 37.804562354930297 ] } },
{ "type": "Feature", "properties": { "id": "OK-L6", "start_count": 901, "end_count": 926, "combined_count": 1827, "name": "13th St at Franklin St", "lat": 37.803030135756188, "long": -122.27049618959428 }, "geometry": { "type": "Point", "coordinates": [ -122.270496189594283, 37.803030135756188 ] } },
{ "type": "Feature", "properties": { "id": "OK-L6-2", "start_count": 528, "end_count": 533, "combined_count": 1061, "name": "13th St at Webster St", "lat": 37.802688402040665, "long": -122.26914636790752 }, "geometry": { "type": "Point", "coordinates": [ -122.269146367907524, 37.802688402040665 ] } },
{ "type": "Feature", "properties": { "id": "OK-L7", "start_count": 424, "end_count": 433, "combined_count": 857, "name": "Jackson St at 11th St", "lat": 37.800001631188778, "long": -122.26643800735472 }, "geometry": { "type": "Point", "coordinates": [ -122.266438007354722, 37.800001631188778 ] } },
{ "type": "Feature", "properties": { "id": "OK-L7-2", "start_count": 2021, "end_count": 1885, "combined_count": 3906, "name": "Lakeside Dr at 14th St", "lat": 37.8013189, "long": -122.2626418 }, "geometry": { "type": "Point", "coordinates": [ -122.2626418, 37.8013189 ] } },
{ "type": "Feature", "properties": { "id": "OK-L8", "start_count": 547, "end_count": 602, "combined_count": 1149, "name": "10th St at Fallon St", "lat": 37.7976728, "long": -122.2629973 }, "geometry": { "type": "Point", "coordinates": [ -122.2629973, 37.7976728 ] } },
{ "type": "Feature", "properties": { "id": "OK-L9", "start_count": 324, "end_count": 327, "combined_count": 651, "name": "4th Ave at E 12th St (Temporary Location)", "lat": 37.795913, "long": -122.255547 }, "geometry": { "type": "Point", "coordinates": [ -122.255547, 37.795913 ] } },
{ "type": "Feature", "properties": { "id": "OK-M14", "start_count": 80, "end_count": 98, "combined_count": 178, "name": "26th Ave at International Blvd", "lat": 37.781123, "long": -122.2329915 }, "geometry": { "type": "Point", "coordinates": [ -122.2329915, 37.781123 ] } },
{ "type": "Feature", "properties": { "id": "OK-M16", "start_count": 50, "end_count": 66, "combined_count": 116, "name": "Farnam St at Fruitvale Ave", "lat": 37.778058, "long": -122.2254 }, "geometry": { "type": "Point", "coordinates": [ -122.2254, 37.778058 ] } },
{ "type": "Feature", "properties": { "id": "OK-M2", "start_count": 98, "end_count": 149, "combined_count": 247, "name": "Union St at 10th St", "lat": 37.8072393, "long": -122.2893702 }, "geometry": { "type": "Point", "coordinates": [ -122.2893702, 37.8072393 ] } },
{ "type": "Feature", "properties": { "id": "OK-M3", "start_count": 164, "end_count": 163, "combined_count": 327, "name": "Market St at 8th St", "lat": 37.8036865, "long": -122.282497 }, "geometry": { "type": "Point", "coordinates": [ -122.282497, 37.8036865 ] } },
{ "type": "Feature", "properties": { "id": "OK-M5", "start_count": 917, "end_count": 978, "combined_count": 1895, "name": "Washington St at 8th St", "lat": 37.8007544, "long": -122.2748943 }, "geometry": { "type": "Point", "coordinates": [ -122.2748943, 37.8007544 ] } },
{ "type": "Feature", "properties": { "id": "OK-M6", "start_count": 1004, "end_count": 1022, "combined_count": 2026, "name": "Franklin St at 9th St", "lat": 37.8005161, "long": -122.2720799 }, "geometry": { "type": "Point", "coordinates": [ -122.2720799, 37.8005161 ] } },
{ "type": "Feature", "properties": { "id": "OK-M7", "start_count": 3058, "end_count": 2327, "combined_count": 5385, "name": "Lake Merritt BART Station", "lat": 37.7973195, "long": -122.2653199 }, "geometry": { "type": "Point", "coordinates": [ -122.2653199, 37.7973195 ] } },
{ "type": "Feature", "properties": { "id": "OK-N1", "start_count": 3270, "end_count": 3274, "combined_count": 6544, "name": "West Oakland BART Station", "lat": 37.8051895, "long": -122.29461686454056 }, "geometry": { "type": "Point", "coordinates": [ -122.294616864540558, 37.8051895 ] } },
{ "type": "Feature", "properties": { "id": "OK-N17", "start_count": 294, "end_count": 294, "combined_count": 588, "name": "Fruitvale BART Station", "lat": 37.7752321, "long": -122.2244982 }, "geometry": { "type": "Point", "coordinates": [ -122.2244982, 37.7752321 ] } },
{ "type": "Feature", "properties": { "id": "OK-N5", "start_count": 946, "end_count": 1337, "combined_count": 2283, "name": "Jack London Square", "lat": 37.796248, "long": -122.279352 }, "geometry": { "type": "Point", "coordinates": [ -122.279352, 37.796248 ] } },
{ "type": "Feature", "properties": { "id": "OK-N6", "start_count": 1776, "end_count": 2168, "combined_count": 3944, "name": "Webster St at 2nd St", "lat": 37.795194764385954, "long": -122.27396965026855 }, "geometry": { "type": "Point", "coordinates": [ -122.273969650268555, 37.795194764385954 ] } }
]
}
