{
"type": "FeatureCollection",
"name": "stations_25",
"crs": { "type": "name", "properties": { "name": "urn:ogc:def:crs:OGC:1.3:CRS84" } },
"features": [
{ "type": "Feature", "properties": { "id": "BK-A3", "start_count": 1613, "end_count": 1517, "combined_count": 3130, "name": "College Ave at Alcatraz Ave", "lat": 37.8513755, "long": -122.2525233, "sidewalk width": null, "note": null, "road": null, "road width": null }, "geometry": { "type": "Point", "coordinates": [ -122.2525233, 37.8513755 ] } },
{ "type": "Feature", "properties": { "id": "BK-A7", "start_count": 3905, "end_count": 3879, "combined_count": 7784, "name": "Vine St at Shattuck Ave", "lat": 37.880222445906789, "long": -122.26959228515624, "sidewalk width": null, "note": null, "road": null, "road width": null }, "geometry": { "type": "Point", "coordinates": [ -122.269592285156236, 37.880222445906789 ] } },
{ "type": "Feature", "properties": { "id": "BK-B7", "start_count": 2222, "end_count": 2314, "combined_count": 4536, "name": "Virginia St at Shattuck Ave", "lat": 37.876572549106847, "long": -122.26952791213988, "sidewalk width": null, "note": null, "road": null, "road width": null }, "geometry": { "type": "Point", "coordinates": [ -122.269527912139878, 37.876572549106847 ] } },
{ "type": "Feature", "properties": { "id": "BK-C1", "start_count": 1612, "end_count": 1911, "combined_count": 3523, "name": "Fifth St at Delaware St", "lat": 37.870407115465376, "long": -122.29967594146729, "sidewalk width": null, "note": null, "road": null, "road width": null }, "geometry": { "type": "Point", "coordinates": [ -122.299675941467285, 37.870407115465376 ] } },
{ "type": "Feature", "properties": { "id": "BK-C5", "start_count": 2970, "end_count": 2795, "combined_count": 5765, "name": "North Berkeley BART", "lat": 37.873855699812196, "long": -122.28298832384976, "sidewalk width": null, "note": null, "road": null, "road width": null }, "geometry": { "type": "Point", "coordinates": [ -122.282988323849764, 37.873855699812196 ] } },
{ "type": "Feature", "properties": { "id": "BK-C6", "start_count": 4145, "end_count": 4213, "combined_count": 8358, "name": "MLK Jr Way at University Ave", "lat": 37.8717192, "long": -122.2730677, "sidewalk width": 9, "note": null, "road": null, "road width": null }, "geometry": { "type": "Point", "coordinates": [ -122.2730677, 37.8717192 ] } },
{ "type": "Feature", "properties": { "id": "BK-C7", "start_count": 2891, "end_count": 2894, "combined_count": 5785, "name": "Shattuck Ave at Hearst Ave", "lat": 37.873676214598248, "long": -122.26848721504211, "sidewalk width": null, "note": null, "road": null, "road width": null }, "geometry": { "type": "Point", "coordinates": [ -122.268487215042114, 37.873676214598248 ] } },
{ "type": "Feature", "properties": { "id": "BK-C8", "start_count": 3353, "end_count": 3201, "combined_count": 6554, "name": "University Ave at Oxford St", "lat": 37.8723555, "long": -122.2664467, "sidewalk width": null, "note": null, "road": null, "road width": null }, "geometry": { "type": "Point", "coordinates": [ -122.2664467, 37.8723555 ] } },
{ "type": "Feature", "properties": { "id": "BK-C9", "start_count": 7465, "end_count": 6836, "combined_count": 14301, "name": "Euclid Ave at Hearst Ave", "lat": 37.8753207, "long": -122.2601554, "sidewalk width": 11, "note": null, "road": null, "road width": null }, "geometry": { "type": "Point", "coordinates": [ -122.2601554, 37.8753207 ] } },
{ "type": "Feature", "properties": { "id": "BK-D1", "start_count": 2886, "end_count": 3277, "combined_count": 6163, "name": "Addison St at Fourth St", "lat": 37.866249, "long": -122.2993708, "sidewalk width": null, "note": null, "road": null, "road width": null }, "geometry": { "type": "Point", "coordinates": [ -122.2993708, 37.866249 ] } },
{ "type": "Feature", "properties": { "id": "BK-D10", "start_count": 10464, "end_count": 9667, "combined_count": 20131, "name": "Bancroft Way at College Ave", "lat": 37.869394312305865, "long": -122.25433029666108, "sidewalk width": 10, "note": "campus", "road": "bancroft way", "road width": 32 }, "geometry": { "type": "Point", "coordinates": [ -122.254330296661081, 37.869394312305865 ] } },
{ "type": "Feature", "properties": { "id": "BK-D2", "start_count": 1297, "end_count": 1550, "combined_count": 2847, "name": "Ninth St at University Ave", "lat": 37.868456799781171, "long": -122.29431033809128, "sidewalk width": null, "note": null, "road": null, "road width": null }, "geometry": { "type": "Point", "coordinates": [ -122.294310338091279, 37.868456799781171 ] } },
{ "type": "Feature", "properties": { "id": "BK-D4", "start_count": 1634, "end_count": 2010, "combined_count": 3644, "name": "West St at University Ave", "lat": 37.869966707604043, "long": -122.28653311729433, "sidewalk width": null, "note": null, "road": null, "road width": null }, "geometry": { "type": "Point", "coordinates": [ -122.286533117294326, 37.869966707604043 ] } },
{ "type": "Feature", "properties": { "id": "BK-D5", "start_count": 1798, "end_count": 1929, "combined_count": 3727, "name": "Addison St at California St", "lat": 37.86972662872833, "long": -122.27938914547282, "sidewalk width": null, "note": null, "road": null, "road width": null }, "geometry": { "type": "Point", "coordinates": [ -122.27938914547282, 37.86972662872833 ] } },
{ "type": "Feature", "properties": { "id": "BK-D7-1", "start_count": 10322, "end_count": 10257, "combined_count": 20579, "name": "Downtown Berkeley BART", "lat": 37.870139, "long": -122.268422, "sidewalk width": 9, "note": "next to plaza", "road": "center st", "road width": 29 }, "geometry": { "type": "Point", "coordinates": [ -122.268422, 37.870139 ] } },
{ "type": "Feature", "properties": { "id": "BK-D7-2", "start_count": 3852, "end_count": 3908, "combined_count": 7760, "name": "Berkeley Civic Center", "lat": 37.8690599, "long": -122.270556, "sidewalk width": null, "note": null, "road": null, "road width": null }, "geometry": { "type": "Point", "coordinates": [ -122.270556, 37.8690599 ] } },
{ "type": "Feature", "properties": { "id": "BK-E10", "start_count": 2579, "end_count": 2239, "combined_count": 4818, "name": "Haste St at College Ave", "lat": 37.86641794050319, "long": -122.25379943847656, "sidewalk width": null, "note": null, "road": null, "road width": null }, "geometry": { "type": "Point", "coordinates": [ -122.253799438476562, 37.86641794050319 ] } },
{ "type": "Feature", "properties": { "id": "BK-E3", "start_count": 1387, "end_count": 1569, "combined_count": 2956, "name": "Channing Way at San Pablo Ave", "lat": 37.862817106708022, "long": -122.2902952903697, "sidewalk width": null, "note": null, "road": null, "road width": null }, "geometry": { "type": "Point", "coordinates": [ -122.290295290369698, 37.862817106708022 ] } },
{ "type": "Feature", "properties": { "id": "BK-E7", "start_count": 3474, "end_count": 3473, "combined_count": 6947, "name": "Channing Way at Shattuck Ave", "lat": 37.8658466, "long": -122.2674431, "sidewalk width": null, "note": null, "road": null, "road width": null }, "geometry": { "type": "Point", "coordinates": [ -122.2674431, 37.8658466 ] } },
{ "type": "Feature", "properties": { "id": "BK-E8", "start_count": 3849, "end_count": 3788, "combined_count": 7637, "name": "Fulton St at Bancroft Way", "lat": 37.868135281599706, "long": -122.26593686946156, "sidewalk width": null, "note": null, "road": null, "road width": null }, "geometry": { "type": "Point", "coordinates": [ -122.265936869461555, 37.868135281599706 ] } },
{ "type": "Feature", "properties": { "id": "BK-E9-1", "start_count": 10981, "end_count": 10390, "combined_count": 21371, "name": "Bancroft Way at Telegraph Ave", "lat": 37.8689109, "long": -122.2587857, "sidewalk width": 20, "note": "campus", "road": "bancroft way", "road width": 50 }, "geometry": { "type": "Point", "coordinates": [ -122.2587857, 37.8689109 ] } },
{ "type": "Feature", "properties": { "id": "BK-E9-2", "start_count": 3957, "end_count": 3419, "combined_count": 7376, "name": "Haste St at Telegraph Ave", "lat": 37.8660431, "long": -122.2588044, "sidewalk width": null, "note": null, "road": null, "road width": null }, "geometry": { "type": "Point", "coordinates": [ -122.2588044, 37.8660431 ] } },
{ "type": "Feature", "properties": { "id": "BK-F10", "start_count": 4096, "end_count": 3689, "combined_count": 7785, "name": "Derby St at College Ave", "lat": 37.86175955253551, "long": -122.25367726566596, "sidewalk width": null, "note": null, "road": null, "road width": null }, "geometry": { "type": "Point", "coordinates": [ -122.253677265665956, 37.86175955253551 ] } },
{ "type": "Feature", "properties": { "id": "BK-F2", "start_count": 1332, "end_count": 1568, "combined_count": 2900, "name": "Ninth St at Parker St", "lat": 37.8588682, "long": -122.2912095, "sidewalk width": null, "note": null, "road": null, "road width": null }, "geometry": { "type": "Point", "coordinates": [ -122.2912095, 37.8588682 ] } },
{ "type": "Feature", "properties": { "id": "BK-F7", "start_count": 2916, "end_count": 2873, "combined_count": 5789, "name": "Milvia St at Derby St", "lat": 37.860124599116851, "long": -122.2693844139576, "sidewalk width": null, "note": null, "road": null, "road width": null }, "geometry": { "type": "Point", "coordinates": [ -122.269384413957596, 37.860124599116851 ] } },
{ "type": "Feature", "properties": { "id": "BK-F8", "start_count": 5213, "end_count": 4799, "combined_count": 10012, "name": "Parker St at Fulton St", "lat": 37.8624644, "long": -122.2647911, "sidewalk width": 10, "note": "residential yard", "road": null, "road width": null }, "geometry": { "type": "Point", "coordinates": [ -122.2647911, 37.8624644 ] } },
{ "type": "Feature", "properties": { "id": "BK-F9", "start_count": 3521, "end_count": 3172, "combined_count": 6693, "name": "Telegraph Ave at Carleton St", "lat": 37.8623199, "long": -122.258801, "sidewalk width": null, "note": null, "road": null, "road width": null }, "geometry": { "type": "Point", "coordinates": [ -122.258801, 37.8623199 ] } },
{ "type": "Feature", "properties": { "id": "BK-G10", "start_count": 1870, "end_count": 1668, "combined_count": 3538, "name": "Russell St at College Ave", "lat": 37.8584732, "long": -122.2532529, "sidewalk width": null, "note": null, "road": null, "road width": null }, "geometry": { "type": "Point", "coordinates": [ -122.2532529, 37.8584732 ] } },
{ "type": "Feature", "properties": { "id": "BK-G4", "start_count": 986, "end_count": 1247, "combined_count": 2233, "name": "San Pablo Park", "lat": 37.855783320301988, "long": -122.28312671184538, "sidewalk width": null, "note": null, "road": null, "road width": null }, "geometry": { "type": "Point", "coordinates": [ -122.283126711845384, 37.855783320301988 ] } },
{ "type": "Feature", "properties": { "id": "BK-G7", "start_count": 4117, "end_count": 4022, "combined_count": 8139, "name": "Oregon St at Adeline St", "lat": 37.8575672, "long": -122.2675583, "sidewalk width": 10, "note": "slow one way st", "road": "Oregon St", "road width": null }, "geometry": { "type": "Point", "coordinates": [ -122.2675583, 37.8575672 ] } },
{ "type": "Feature", "properties": { "id": "BK-G8", "start_count": 1816, "end_count": 1792, "combined_count": 3608, "name": "Ellsworth St at Russell St", "lat": 37.857607747399882, "long": -122.26160466670989, "sidewalk width": null, "note": null, "road": null, "road width": null }, "geometry": { "type": "Point", "coordinates": [ -122.261604666709886, 37.857607747399882 ] } },
{ "type": "Feature", "properties": { "id": "BK-H10", "start_count": 2117, "end_count": 2052, "combined_count": 4169, "name": "Russell St at College Ave", "lat": 37.8584732, "long": -122.2532529, "sidewalk width": null, "note": null, "road": null, "road width": null }, "geometry": { "type": "Point", "coordinates": [ -122.2532529, 37.8584732 ] } },
{ "type": "Feature", "properties": { "id": "BK-H3", "start_count": 2508, "end_count": 2735, "combined_count": 5243, "name": "Ninth St at Heinz Ave", "lat": 37.852997762978227, "long": -122.28944645338662, "sidewalk width": null, "note": null, "road": null, "road width": null }, "geometry": { "type": "Point", "coordinates": [ -122.289446453386617, 37.852997762978227 ] } },
{ "type": "Feature", "properties": { "id": "BK-H6", "start_count": 5244, "end_count": 5290, "combined_count": 10534, "name": "Ashby BART", "lat": 37.8524766, "long": -122.2702132, "sidewalk width": 11, "note": null, "road": null, "road width": null }, "geometry": { "type": "Point", "coordinates": [ -122.2702132, 37.8524766 ] } },
{ "type": "Feature", "properties": { "id": "BK-H8", "start_count": 1631, "end_count": 1560, "combined_count": 3191, "name": "Fulton St at Ashby Ave", "lat": 37.855573661828792, "long": -122.2635653614998, "sidewalk width": null, "note": null, "road": null, "road width": null }, "geometry": { "type": "Point", "coordinates": [ -122.263565361499801, 37.855573661828792 ] } },
{ "type": "Feature", "properties": { "id": "BK-H9", "start_count": 3473, "end_count": 3423, "combined_count": 6896, "name": "Telegraph Ave at Ashby Ave", "lat": 37.8559558, "long": -122.2597949, "sidewalk width": null, "note": null, "road": null, "road width": null }, "geometry": { "type": "Point", "coordinates": [ -122.2597949, 37.8559558 ] } },
{ "type": "Feature", "properties": { "id": "BK-I10", "start_count": 1344, "end_count": 1169, "combined_count": 2513, "name": "College Ave at Alcatraz Ave", "lat": 37.8513755, "long": -122.2525233, "sidewalk width": null, "note": null, "road": null, "road width": null }, "geometry": { "type": "Point", "coordinates": [ -122.2525233, 37.8513755 ] } },
{ "type": "Feature", "properties": { "id": "BK-I5", "start_count": 1884, "end_count": 2021, "combined_count": 3905, "name": "Woolsey St at Sacramento St", "lat": 37.8505777, "long": -122.2781754, "sidewalk width": null, "note": null, "road": null, "road width": null }, "geometry": { "type": "Point", "coordinates": [ -122.2781754, 37.8505777 ] } },
{ "type": "Feature", "properties": { "id": "BK-I6", "start_count": 1857, "end_count": 1905, "combined_count": 3762, "name": "Harmon St at Adeline St", "lat": 37.849735, "long": -122.270582, "sidewalk width": null, "note": null, "road": null, "road width": null }, "geometry": { "type": "Point", "coordinates": [ -122.270582, 37.849735 ] } },
{ "type": "Feature", "properties": { "id": "EM-1", "start_count": 1, "end_count": 0, "combined_count": 1, "name": "Emeryville Depot", "lat": 37.830296182687, "long": -122.2894299030304, "sidewalk width": 11, "note": "trees", "road": "park ave", "road width": 50 }, "geometry": { "type": "Point", "coordinates": [ -122.289429903030396, 37.830296182687 ] } },
{ "type": "Feature", "properties": { "id": "EM-A1", "start_count": 927, "end_count": 918, "combined_count": 1845, "name": "59th St at Horton St", "lat": 37.8409452, "long": -122.2913604, "sidewalk width": null, "note": null, "road": null, "road width": null }, "geometry": { "type": "Point", "coordinates": [ -122.2913604, 37.8409452 ] } },
{ "type": "Feature", "properties": { "id": "EM-A2", "start_count": 781, "end_count": 957, "combined_count": 1738, "name": "Doyle St at 59th St", "lat": 37.8419238, "long": -122.2880451, "sidewalk width": null, "note": null, "road": null, "road width": null }, "geometry": { "type": "Point", "coordinates": [ -122.2880451, 37.8419238 ] } },
{ "type": "Feature", "properties": { "id": "EM-AA2", "start_count": 60, "end_count": 71, "combined_count": 131, "name": "Vallejo St at 66th St", "lat": 37.848355963486441, "long": -122.28860894196281, "sidewalk width": 11, "note": "trees", "road": "vallejo st", "road width": 38 }, "geometry": { "type": "Point", "coordinates": [ -122.288608941962806, 37.848355963486441 ] } },
{ "type": "Feature", "properties": { "id": "EM-B0", "start_count": 18, "end_count": 18, "combined_count": 36, "name": "Powell St at Admiral Dr", "lat": 37.837069303891063, "long": -122.30656630197019, "sidewalk width": 8, "note": "by water path", "road": "powell st", "road width": 69 }, "geometry": { "type": "Point", "coordinates": [ -122.306566301970193, 37.837069303891063 ] } },
{ "type": "Feature", "properties": { "id": "EM-B0-2", "start_count": 445, "end_count": 460, "combined_count": 905, "name": "2100 Powell St", "lat": 37.839543082665628, "long": -122.2987177222967, "sidewalk width": null, "note": null, "road": null, "road width": null }, "geometry": { "type": "Point", "coordinates": [ -122.298717722296701, 37.839543082665628 ] } },
{ "type": "Feature", "properties": { "id": "EM-B1", "start_count": 773, "end_count": 915, "combined_count": 1688, "name": "Emeryville Public Market", "lat": 37.840521166949692, "long": -122.29352831840517, "sidewalk width": null, "note": null, "road": null, "road width": null }, "geometry": { "type": "Point", "coordinates": [ -122.293528318405166, 37.840521166949692 ] } },
{ "type": "Feature", "properties": { "id": "EM-B2", "start_count": 587, "end_count": 630, "combined_count": 1217, "name": "Stanford Ave at Hollis St", "lat": 37.8384435, "long": -122.2886647, "sidewalk width": null, "note": null, "road": null, "road width": null }, "geometry": { "type": "Point", "coordinates": [ -122.2886647, 37.8384435 ] } },
{ "type": "Feature", "properties": { "id": "EM-C1", "start_count": 1676, "end_count": 1808, "combined_count": 3484, "name": "65th St at Hollis St", "lat": 37.8467842, "long": -122.2913761, "sidewalk width": null, "note": null, "road": null, "road width": null }, "geometry": { "type": "Point", "coordinates": [ -122.2913761, 37.8467842 ] } },
{ "type": "Feature", "properties": { "id": "EM-C1-2", "start_count": 1309, "end_count": 1509, "combined_count": 2818, "name": "Bay Street Plaza", "lat": 37.834574108061645, "long": -122.29206176011056, "sidewalk width": null, "note": null, "road": null, "road width": null }, "geometry": { "type": "Point", "coordinates": [ -122.292061760110556, 37.834574108061645 ] } },
{ "type": "Feature", "properties": { "id": "EM-C2", "start_count": 358, "end_count": 379, "combined_count": 737, "name": "53rd St at Hollis St", "lat": 37.8361823, "long": -122.2871801, "sidewalk width": null, "note": null, "road": null, "road width": null }, "geometry": { "type": "Point", "coordinates": [ -122.2871801, 37.8361823 ] } },
{ "type": "Feature", "properties": { "id": "EM-C3", "start_count": 1083, "end_count": 1217, "combined_count": 2300, "name": "47th St at San Pablo Ave", "lat": 37.8356703, "long": -122.2811258, "sidewalk width": null, "note": null, "road": null, "road width": null }, "geometry": { "type": "Point", "coordinates": [ -122.2811258, 37.8356703 ] } },
{ "type": "Feature", "properties": { "id": "EM-D2", "start_count": 1185, "end_count": 1262, "combined_count": 2447, "name": "Horton St at 40th St", "lat": 37.8297046, "long": -122.2876102, "sidewalk width": null, "note": null, "road": null, "road width": null }, "geometry": { "type": "Point", "coordinates": [ -122.2876102, 37.8297046 ] } },
{ "type": "Feature", "properties": { "id": "EM-D2-2", "start_count": 62, "end_count": 64, "combined_count": 126, "name": "Huchiun Park", "lat": 37.831594107971718, "long": -122.2903389768136, "sidewalk width": 13, "note": "by plaza", "road": "sherwin ave", "road width": 36 }, "geometry": { "type": "Point", "coordinates": [ -122.290338976813601, 37.831594107971718 ] } },
{ "type": "Feature", "properties": { "id": "EM-D3", "start_count": 751, "end_count": 860, "combined_count": 1611, "name": "Emeryville Town Hall", "lat": 37.8312752, "long": -122.2856333, "sidewalk width": null, "note": null, "road": null, "road width": null }, "geometry": { "type": "Point", "coordinates": [ -122.2856333, 37.8312752 ] } },
{ "type": "Feature", "properties": { "id": "EM-D4", "start_count": 1322, "end_count": 1428, "combined_count": 2750, "name": "Adeline St at 40th St", "lat": 37.8312769, "long": -122.2782669, "sidewalk width": null, "note": null, "road": null, "road width": null }, "geometry": { "type": "Point", "coordinates": [ -122.2782669, 37.8312769 ] } },
{ "type": "Feature", "properties": { "id": "OK-A2", "start_count": 1404, "end_count": 1353, "combined_count": 2757, "name": "Telegraph Ave at Alcatraz Ave", "lat": 37.850221874496789, "long": -122.26017236709596, "sidewalk width": null, "note": null, "road": null, "road width": null }, "geometry": { "type": "Point", "coordinates": [ -122.260172367095961, 37.850221874496789 ] } },
{ "type": "Feature", "properties": { "id": "OK-A4", "start_count": 1784, "end_count": 1634, "combined_count": 3418, "name": "62nd St at Claremont Ave", "lat": 37.8494355, "long": -122.2525406, "sidewalk width": null, "note": null, "road": null, "road width": null }, "geometry": { "type": "Point", "coordinates": [ -122.2525406, 37.8494355 ] } },
{ "type": "Feature", "properties": { "id": "OK-AA3", "start_count": 467, "end_count": 529, "combined_count": 996, "name": "65th St at San Pablo Ave", "lat": 37.848145908310649, "long": -122.2851545595561, "sidewalk width": null, "note": null, "road": null, "road width": null }, "geometry": { "type": "Point", "coordinates": [ -122.285154559556105, 37.848145908310649 ] } },
{ "type": "Feature", "properties": { "id": "OK-B1", "start_count": 1538, "end_count": 1418, "combined_count": 2956, "name": "Alcatraz Ave at Shattuck Ave", "lat": 37.849594967776646, "long": -122.26556897163393, "sidewalk width": null, "note": null, "road": null, "road width": null }, "geometry": { "type": "Point", "coordinates": [ -122.265568971633925, 37.849594967776646 ] } },
{ "type": "Feature", "properties": { "id": "OK-B2", "start_count": 1395, "end_count": 1270, "combined_count": 2665, "name": "Bushrod Park", "lat": 37.8465156, "long": -122.2653043, "sidewalk width": null, "note": null, "road": null, "road width": null }, "geometry": { "type": "Point", "coordinates": [ -122.2653043, 37.8465156 ] } },
{ "type": "Feature", "properties": { "id": "OK-B3", "start_count": 1230, "end_count": 1137, "combined_count": 2367, "name": "Telegraph Ave at 58th St", "lat": 37.8444927, "long": -122.261351, "sidewalk width": null, "note": null, "road": null, "road width": null }, "geometry": { "type": "Point", "coordinates": [ -122.261351, 37.8444927 ] } },
{ "type": "Feature", "properties": { "id": "OK-B4", "start_count": 6452, "end_count": 6405, "combined_count": 12857, "name": "Rockridge BART", "lat": 37.844278753990672, "long": -122.251900434494, "sidewalk width": 12, "note": "plaza", "road": null, "road width": null }, "geometry": { "type": "Point", "coordinates": [ -122.251900434494004, 37.844278753990672 ] } },
{ "type": "Feature", "properties": { "id": "OK-B5", "start_count": 1236, "end_count": 988, "combined_count": 2224, "name": "College Ave at Taft Ave", "lat": 37.8417999, "long": -122.2515349, "sidewalk width": null, "note": null, "road": null, "road width": null }, "geometry": { "type": "Point", "coordinates": [ -122.2515349, 37.8417999 ] } },
{ "type": "Feature", "properties": { "id": "OK-C2", "start_count": 1595, "end_count": 1513, "combined_count": 3108, "name": "Dover St at 57th St", "lat": 37.8426295, "long": -122.267738, "sidewalk width": null, "note": null, "road": null, "road width": null }, "geometry": { "type": "Point", "coordinates": [ -122.267738, 37.8426295 ] } },
{ "type": "Feature", "properties": { "id": "OK-C3", "start_count": 1177, "end_count": 1115, "combined_count": 2292, "name": "55th St at Telegraph Ave", "lat": 37.8401858, "long": -122.2618225, "sidewalk width": null, "note": null, "road": null, "road width": null }, "geometry": { "type": "Point", "coordinates": [ -122.2618225, 37.8401858 ] } },
{ "type": "Feature", "properties": { "id": "OK-C4", "start_count": 1718, "end_count": 1699, "combined_count": 3417, "name": "Miles Ave at Cavour St", "lat": 37.8388, "long": -122.258732, "sidewalk width": null, "note": null, "road": null, "road width": null }, "geometry": { "type": "Point", "coordinates": [ -122.258732, 37.8388 ] } },
{ "type": "Feature", "properties": { "id": "OK-C5", "start_count": 965, "end_count": 907, "combined_count": 1872, "name": "College Ave at Bryant Ave", "lat": 37.8381269, "long": -122.2512714, "sidewalk width": null, "note": null, "road": null, "road width": null }, "geometry": { "type": "Point", "coordinates": [ -122.2512714, 37.8381269 ] } },
{ "type": "Feature", "properties": { "id": "OK-D0", "start_count": 366, "end_count": 397, "combined_count": 763, "name": "Lowell St at Stanford Ave", "lat": 37.843252684675363, "long": -122.27698119645331, "sidewalk width": null, "note": null, "road": null, "road width": null }, "geometry": { "type": "Point", "coordinates": [ -122.276981196453306, 37.843252684675363 ] } },
{ "type": "Feature", "properties": { "id": "OK-D2", "start_count": 1608, "end_count": 1606, "combined_count": 3214, "name": "Genoa St at 55th St", "lat": 37.8396488, "long": -122.2717561, "sidewalk width": null, "note": null, "road": null, "road width": null }, "geometry": { "type": "Point", "coordinates": [ -122.2717561, 37.8396488 ] } },
{ "type": "Feature", "properties": { "id": "OK-D3-1", "start_count": 787, "end_count": 768, "combined_count": 1555, "name": "Shattuck Ave at 55th St", "lat": 37.8403643, "long": -122.2644881, "sidewalk width": null, "note": null, "road": null, "road width": null }, "geometry": { "type": "Point", "coordinates": [ -122.2644881, 37.8403643 ] } },
{ "type": "Feature", "properties": { "id": "OK-D3-2", "start_count": 618, "end_count": 579, "combined_count": 1197, "name": "52nd St at MLK Jr Way", "lat": 37.837369, "long": -122.267656, "sidewalk width": null, "note": null, "road": null, "road width": null }, "geometry": { "type": "Point", "coordinates": [ -122.267656, 37.837369 ] } },
{ "type": "Feature", "properties": { "id": "OK-D4", "start_count": 3982, "end_count": 4006, "combined_count": 7988, "name": "Telegraph Ave at 49th St", "lat": 37.83575, "long": -122.262654, "sidewalk width": null, "note": null, "road": null, "road width": null }, "geometry": { "type": "Point", "coordinates": [ -122.262654, 37.83575 ] } },
{ "type": "Feature", "properties": { "id": "OK-D5", "start_count": 1737, "end_count": 1476, "combined_count": 3213, "name": "Broadway at Coronado Ave", "lat": 37.8357883, "long": -122.2516207, "sidewalk width": null, "note": null, "road": null, "road width": null }, "geometry": { "type": "Point", "coordinates": [ -122.2516207, 37.8357883 ] } },
{ "type": "Feature", "properties": { "id": "OK-E3", "start_count": 531, "end_count": 535, "combined_count": 1066, "name": "45th St at MLK Jr Way", "lat": 37.8335577, "long": -122.2674183, "sidewalk width": null, "note": null, "road": null, "road width": null }, "geometry": { "type": "Point", "coordinates": [ -122.2674183, 37.8335577 ] } },
{ "type": "Feature", "properties": { "id": "OK-E4", "start_count": 2511, "end_count": 2540, "combined_count": 5051, "name": "Shattuck Ave at Telegraph Ave", "lat": 37.833538871616042, "long": -122.26369366575599, "sidewalk width": null, "note": null, "road": null, "road width": null }, "geometry": { "type": "Point", "coordinates": [ -122.263693665755994, 37.833538871616042 ] } },
{ "type": "Feature", "properties": { "id": "OK-E5", "start_count": 1413, "end_count": 1407, "combined_count": 2820, "name": "45th St at Manila", "lat": 37.833293522232097, "long": -122.25622415542604, "sidewalk width": null, "note": null, "road": null, "road width": null }, "geometry": { "type": "Point", "coordinates": [ -122.25622415542604, 37.833293522232097 ] } },
{ "type": "Feature", "properties": { "id": "OK-F2-2", "start_count": 1098, "end_count": 1055, "combined_count": 2153, "name": "Market St at 45th St", "lat": 37.834174, "long": -122.272968, "sidewalk width": null, "note": null, "road": null, "road width": null }, "geometry": { "type": "Point", "coordinates": [ -122.272968, 37.834174 ] } },
{ "type": "Feature", "properties": { "id": "OK-F3", "start_count": 1125, "end_count": 1037, "combined_count": 2162, "name": "West St at 40th St", "lat": 37.8302232, "long": -122.2709501, "sidewalk width": null, "note": null, "road": null, "road width": null }, "geometry": { "type": "Point", "coordinates": [ -122.2709501, 37.8302232 ] } },
{ "type": "Feature", "properties": { "id": "OK-F4", "start_count": 11300, "end_count": 11277, "combined_count": 22577, "name": "MacArthur BART", "lat": 37.8285951, "long": -122.2663493, "sidewalk width": 23, "note": null, "road": "macarther bart access rd", "road width": 30 }, "geometry": { "type": "Point", "coordinates": [ -122.2663493, 37.8285951 ] } },
{ "type": "Feature", "properties": { "id": "OK-F5", "start_count": 2430, "end_count": 2355, "combined_count": 4785, "name": "Broadway at 40th St", "lat": 37.827933668999997, "long": -122.25665485899999, "sidewalk width": null, "note": null, "road": null, "road width": null }, "geometry": { "type": "Point", "coordinates": [ -122.256654859, 37.827933669 ] } },
{ "type": "Feature", "properties": { "id": "OK-F5-1", "start_count": 224, "end_count": 202, "combined_count": 426, "name": "Webster St at 40th St", "lat": 37.828783035000001, "long": -122.26074624100001, "sidewalk width": 12, "note": null, "road": "webster st", "road width": 36 }, "geometry": { "type": "Point", "coordinates": [ -122.260746241, 37.828783035 ] } },
{ "type": "Feature", "properties": { "id": "OK-F6", "start_count": 4670, "end_count": 4593, "combined_count": 9263, "name": "40th St at Piedmont Ave", "lat": 37.825785004382006, "long": -122.25346968515623, "sidewalk width": 11, "note": null, "road": "40th St", "road width": 38 }, "geometry": { "type": "Point", "coordinates": [ -122.253469685156233, 37.825785004382006 ] } },
{ "type": "Feature", "properties": { "id": "OK-G2", "start_count": 1399, "end_count": 1399, "combined_count": 2798, "name": "Market St at 40th St", "lat": 37.8305452, "long": -122.2739367, "sidewalk width": null, "note": null, "road": null, "road width": null }, "geometry": { "type": "Point", "coordinates": [ -122.2739367, 37.8305452 ] } },
{ "type": "Feature", "properties": { "id": "OK-G3", "start_count": 934, "end_count": 938, "combined_count": 1872, "name": "37th St at West St", "lat": 37.826695586409677, "long": -122.27179706096648, "sidewalk width": null, "note": null, "road": null, "road width": null }, "geometry": { "type": "Point", "coordinates": [ -122.271797060966477, 37.826695586409677 ] } },
{ "type": "Feature", "properties": { "id": "OK-G4", "start_count": 1066, "end_count": 959, "combined_count": 2025, "name": "MacArthur Blvd at Telegraph Ave", "lat": 37.8262863, "long": -122.2651002, "sidewalk width": null, "note": null, "road": null, "road width": null }, "geometry": { "type": "Point", "coordinates": [ -122.2651002, 37.8262863 ] } },
{ "type": "Feature", "properties": { "id": "OK-G5", "start_count": 1470, "end_count": 1500, "combined_count": 2970, "name": "Mosswood Park", "lat": 37.824892529951121, "long": -122.26043654610294, "sidewalk width": null, "note": null, "road": null, "road width": null }, "geometry": { "type": "Point", "coordinates": [ -122.260436546102937, 37.824892529951121 ] } },
{ "type": "Feature", "properties": { "id": "OK-G6", "start_count": 1061, "end_count": 1065, "combined_count": 2126, "name": "Piedmont Ave at MacArthur Blvd", "lat": 37.823143222649385, "long": -122.2569505732544, "sidewalk width": null, "note": null, "road": null, "road width": null }, "geometry": { "type": "Point", "coordinates": [ -122.2569505732544, 37.823143222649385 ] } },
{ "type": "Feature", "properties": { "id": "OK-H15", "start_count": 77, "end_count": 88, "combined_count": 165, "name": "Fruitvale Ave at MacArthur Blvd", "lat": 37.80062512497625, "long": -122.21611092147261, "sidewalk width": 10, "note": "", "road": "fruitvale ave", "road width": 42 }, "geometry": { "type": "Point", "coordinates": [ -122.216110921472605, 37.80062512497625 ] } },
{ "type": "Feature", "properties": { "id": "OK-H16", "start_count": 15, "end_count": 12, "combined_count": 27, "name": "MacArthur Blvd at Hopkins Pl", "lat": 37.798524022000002, "long": -122.2080791, "sidewalk width": 6, "note": "big intersection", "road": "macarthur blvd", "road width": 48 }, "geometry": { "type": "Point", "coordinates": [ -122.2080791, 37.798524022 ] } },
{ "type": "Feature", "properties": { "id": "OK-H2", "start_count": 1490, "end_count": 1495, "combined_count": 2985, "name": "32nd St at Adeline St", "lat": 37.8238474, "long": -122.2811926, "sidewalk width": null, "note": null, "road": null, "road width": null }, "geometry": { "type": "Point", "coordinates": [ -122.2811926, 37.8238474 ] } },
{ "type": "Feature", "properties": { "id": "OK-H2-2", "start_count": 228, "end_count": 261, "combined_count": 489, "name": "Brockhurst St at San Pablo Ave", "lat": 37.823522790214049, "long": -122.27718830108644, "sidewalk width": 6, "note": null, "road": "brockhurst st", "road width": 36 }, "geometry": { "type": "Point", "coordinates": [ -122.27718830108644, 37.823522790214049 ] } },
{ "type": "Feature", "properties": { "id": "OK-H3-2", "start_count": 944, "end_count": 965, "combined_count": 1909, "name": "West St at Brockhurst St", "lat": 37.822683859450208, "long": -122.27292420364392, "sidewalk width": null, "note": null, "road": null, "road width": null }, "geometry": { "type": "Point", "coordinates": [ -122.272924203643925, 37.822683859450208 ] } },
{ "type": "Feature", "properties": { "id": "OK-H4-3", "start_count": 904, "end_count": 765, "combined_count": 1669, "name": "34th St at Telegraph Ave", "lat": 37.822467677145127, "long": -122.26597130298616, "sidewalk width": null, "note": null, "road": null, "road width": null }, "geometry": { "type": "Point", "coordinates": [ -122.265971302986159, 37.822467677145127 ] } },
{ "type": "Feature", "properties": { "id": "OK-H5", "start_count": 4106, "end_count": 3957, "combined_count": 8063, "name": "Broadway at 30th St", "lat": 37.8193814, "long": -122.2619284, "sidewalk width": 11, "note": null, "road": "Broadway", "road width": null }, "geometry": { "type": "Point", "coordinates": [ -122.2619284, 37.8193814 ] } },
{ "type": "Feature", "properties": { "id": "OK-H9-1", "start_count": 3307, "end_count": 3598, "combined_count": 6905, "name": "Grand Ave at Santa Clara Ave", "lat": 37.8127441, "long": -122.2472152, "sidewalk width": null, "note": null, "road": null, "road width": null }, "geometry": { "type": "Point", "coordinates": [ -122.2472152, 37.8127441 ] } },
{ "type": "Feature", "properties": { "id": "OK-H9-2", "start_count": 1830, "end_count": 1906, "combined_count": 3736, "name": "Lakeshore Ave at Trestle Glen Rd", "lat": 37.811160088000001, "long": -122.243251562, "sidewalk width": null, "note": null, "road": null, "road width": null }, "geometry": { "type": "Point", "coordinates": [ -122.243251562, 37.811160088 ] } },
{ "type": "Feature", "properties": { "id": "OK-I3", "start_count": 559, "end_count": 521, "combined_count": 1080, "name": "27th St at San Pablo Ave", "lat": 37.817886105449404, "long": -122.27595852149544, "sidewalk width": null, "note": null, "road": null, "road width": null }, "geometry": { "type": "Point", "coordinates": [ -122.27595852149544, 37.817886105449404 ] } },
{ "type": "Feature", "properties": { "id": "OK-I4", "start_count": 406, "end_count": 380, "combined_count": 786, "name": "MLK Jr Way at 27th St", "lat": 37.817350256930574, "long": -122.27147850614034, "sidewalk width": null, "note": null, "road": null, "road width": null }, "geometry": { "type": "Point", "coordinates": [ -122.27147850614034, 37.817350256930574 ] } },
{ "type": "Feature", "properties": { "id": "OK-I5", "start_count": 2397, "end_count": 2341, "combined_count": 4738, "name": "Telegraph Ave at 27th St", "lat": 37.816073115011406, "long": -122.26788640022278, "sidewalk width": null, "note": null, "road": null, "road width": null }, "geometry": { "type": "Point", "coordinates": [ -122.267886400222778, 37.816073115011406 ] } },
{ "type": "Feature", "properties": { "id": "OK-I6", "start_count": 5881, "end_count": 5925, "combined_count": 11806, "name": "Bay Pl at Vernon St", "lat": 37.812250218726369, "long": -122.2607185732995, "sidewalk width": 19, "note": "trees", "road": null, "road width": null }, "geometry": { "type": "Point", "coordinates": [ -122.260718573299499, 37.812250218726369 ] } },
{ "type": "Feature", "properties": { "id": "OK-I6-2", "start_count": 1154, "end_count": 1126, "combined_count": 2280, "name": "26th St at Broadway", "lat": 37.814824064138662, "long": -122.26424569694971, "sidewalk width": null, "note": null, "road": null, "road width": null }, "geometry": { "type": "Point", "coordinates": [ -122.264245696949715, 37.814824064138662 ] } },
{ "type": "Feature", "properties": { "id": "OK-I8", "start_count": 5087, "end_count": 5163, "combined_count": 10250, "name": "Grand Ave at Perkins St", "lat": 37.80889393398715, "long": -122.25646018981932, "sidewalk width": 13, "note": "park, lake", "road": null, "road width": null }, "geometry": { "type": "Point", "coordinates": [ -122.256460189819322, 37.80889393398715 ] } },
{ "type": "Feature", "properties": { "id": "OK-I9", "start_count": 5324, "end_count": 5738, "combined_count": 11062, "name": "El Embarcadero at Grand Ave", "lat": 37.808715, "long": -122.2492512, "sidewalk width": 16, "note": "IN park, by lake merritt", "road": null, "road width": null }, "geometry": { "type": "Point", "coordinates": [ -122.2492512, 37.808715 ] } },
{ "type": "Feature", "properties": { "id": "OK-J3", "start_count": 870, "end_count": 867, "combined_count": 1737, "name": "24th St at Market St", "lat": 37.8160598, "long": -122.2782444, "sidewalk width": null, "note": null, "road": null, "road width": null }, "geometry": { "type": "Point", "coordinates": [ -122.2782444, 37.8160598 ] } },
{ "type": "Feature", "properties": { "id": "OK-J4", "start_count": 363, "end_count": 346, "combined_count": 709, "name": "Isabella St at San Pablo Ave", "lat": 37.814988230424163, "long": -122.2748440504074, "sidewalk width": 13, "note": "sidewalk plaza", "road": "san pablo ave", "road width": 75 }, "geometry": { "type": "Point", "coordinates": [ -122.274844050407395, 37.814988230424163 ] } },
{ "type": "Feature", "properties": { "id": "OK-J5", "start_count": 2827, "end_count": 2975, "combined_count": 5802, "name": "23rd St at Telegraph Ave", "lat": 37.812581085817413, "long": -122.26857304573061, "sidewalk width": null, "note": null, "road": null, "road width": null }, "geometry": { "type": "Point", "coordinates": [ -122.268573045730605, 37.812581085817413 ] } },
{ "type": "Feature", "properties": { "id": "OK-J6-1", "start_count": 4884, "end_count": 4991, "combined_count": 9875, "name": "Grand Ave at Webster St", "lat": 37.8113768, "long": -122.2651925, "sidewalk width": 12, "note": "", "road": "grand ave", "road width": 68 }, "geometry": { "type": "Point", "coordinates": [ -122.2651925, 37.8113768 ] } },
{ "type": "Feature", "properties": { "id": "OK-J6-2", "start_count": 1955, "end_count": 1962, "combined_count": 3917, "name": "Snow Park", "lat": 37.807813182179032, "long": -122.26449608802795, "sidewalk width": null, "note": null, "road": null, "road width": null }, "geometry": { "type": "Point", "coordinates": [ -122.264496088027954, 37.807813182179032 ] } },
{ "type": "Feature", "properties": { "id": "OK-J9", "start_count": 969, "end_count": 981, "combined_count": 1950, "name": "Brooklyn Ave at Lakeshore Ave", "lat": 37.805132884810568, "long": -122.25036793093621, "sidewalk width": null, "note": null, "road": null, "road width": null }, "geometry": { "type": "Point", "coordinates": [ -122.250367930936207, 37.805132884810568 ] } },
{ "type": "Feature", "properties": { "id": "OK-K1", "start_count": 2188, "end_count": 2311, "combined_count": 4499, "name": "Raimondi Park", "lat": 37.81493053721438, "long": -122.29295340721799, "sidewalk width": null, "note": null, "road": null, "road width": null }, "geometry": { "type": "Point", "coordinates": [ -122.292953407217993, 37.81493053721438 ] } },
{ "type": "Feature", "properties": { "id": "OK-K1-2", "start_count": 1893, "end_count": 2030, "combined_count": 3923, "name": "Mandela Parkway at W Grand Ave", "lat": 37.815638065000002, "long": -122.28943896299999, "sidewalk width": null, "note": null, "road": null, "road width": null }, "geometry": { "type": "Point", "coordinates": [ -122.289438963, 37.815638065 ] } },
{ "type": "Feature", "properties": { "id": "OK-K10", "start_count": 2486, "end_count": 2298, "combined_count": 4784, "name": "21st St at 5th Ave", "lat": 37.800459411713945, "long": -122.24745869636536, "sidewalk width": null, "note": null, "road": null, "road width": null }, "geometry": { "type": "Point", "coordinates": [ -122.247458696365356, 37.800459411713945 ] } },
{ "type": "Feature", "properties": { "id": "OK-K11", "start_count": 216, "end_count": 191, "combined_count": 407, "name": "11th Ave at 19th St", "lat": 37.794565813816412, "long": -122.24442771710704, "sidewalk width": 10, "note": "park, residential", "road": "11th ave", "road width": 35 }, "geometry": { "type": "Point", "coordinates": [ -122.244427717107044, 37.794565813816412 ] } },
{ "type": "Feature", "properties": { "id": "OK-K14", "start_count": 17, "end_count": 13, "combined_count": 30, "name": "E 21st St at 23rd Ave", "lat": 37.788560663436911, "long": -122.2315811650537, "sidewalk width": 9, "note": "NO trees around", "road": "E 21st st", "road width": 40 }, "geometry": { "type": "Point", "coordinates": [ -122.231581165053697, 37.788560663436911 ] } },
{ "type": "Feature", "properties": { "id": "OK-K17", "start_count": 87, "end_count": 71, "combined_count": 158, "name": "Foothill Blvd at Harrington Ave", "lat": 37.77993, "long": -122.2177284, "sidewalk width": 7, "note": "by Cesar Chavez Park", "road": "foothill blvd", "road width": 54 }, "geometry": { "type": "Point", "coordinates": [ -122.2177284, 37.77993 ] } },
{ "type": "Feature", "properties": { "id": "OK-K2", "start_count": 1152, "end_count": 1148, "combined_count": 2300, "name": "DeFremery Park", "lat": 37.8123315, "long": -122.2851712, "sidewalk width": null, "note": null, "road": null, "road width": null }, "geometry": { "type": "Point", "coordinates": [ -122.2851712, 37.8123315 ] } },
{ "type": "Feature", "properties": { "id": "OK-K3", "start_count": 1134, "end_count": 1104, "combined_count": 2238, "name": "Marston Campbell Park", "lat": 37.8098236, "long": -122.2801923, "sidewalk width": null, "note": null, "road": null, "road width": null }, "geometry": { "type": "Point", "coordinates": [ -122.2801923, 37.8098236 ] } },
{ "type": "Feature", "properties": { "id": "OK-K4", "start_count": 673, "end_count": 600, "combined_count": 1273, "name": "San Pablo Ave at MLK Jr Way", "lat": 37.8113514, "long": -122.2734217, "sidewalk width": null, "note": null, "road": null, "road width": null }, "geometry": { "type": "Point", "coordinates": [ -122.2734217, 37.8113514 ] } },
{ "type": "Feature", "properties": { "id": "OK-K5-1", "start_count": 3414, "end_count": 3390, "combined_count": 6804, "name": "Telegraph Ave at 19th St", "lat": 37.8087021, "long": -122.2699271, "sidewalk width": null, "note": null, "road": null, "road width": null }, "geometry": { "type": "Point", "coordinates": [ -122.2699271, 37.8087021 ] } },
{ "type": "Feature", "properties": { "id": "OK-K5-2", "start_count": 7791, "end_count": 7486, "combined_count": 15277, "name": "19th Street BART", "lat": 37.809368612134847, "long": -122.26795077323914, "sidewalk width": 10, "note": null, "road": "broadway", "road width": 69 }, "geometry": { "type": "Point", "coordinates": [ -122.267950773239136, 37.809368612134847 ] } },
{ "type": "Feature", "properties": { "id": "OK-K6", "start_count": 2205, "end_count": 2191, "combined_count": 4396, "name": "Webster St at 19th St", "lat": 37.806969760955937, "long": -122.26658821105956, "sidewalk width": null, "note": null, "road": null, "road width": null }, "geometry": { "type": "Point", "coordinates": [ -122.266588211059556, 37.806969760955937 ] } },
{ "type": "Feature", "properties": { "id": "OK-K7", "start_count": 2919, "end_count": 2852, "combined_count": 5771, "name": "Madison St at 17th St", "lat": 37.804036784023602, "long": -122.26240932941435, "sidewalk width": null, "note": null, "road": null, "road width": null }, "geometry": { "type": "Point", "coordinates": [ -122.262409329414353, 37.804036784023602 ] } },
{ "type": "Feature", "properties": { "id": "OK-K9", "start_count": 3740, "end_count": 4027, "combined_count": 7767, "name": "2nd Ave at E 18th St", "lat": 37.800213566969802, "long": -122.25381016731262, "sidewalk width": null, "note": null, "road": null, "road width": null }, "geometry": { "type": "Point", "coordinates": [ -122.253810167312622, 37.800213566969802 ] } },
{ "type": "Feature", "properties": { "id": "OK-K9-2", "start_count": 30, "end_count": 29, "combined_count": 59, "name": "E 18th St at 4th Ave", "lat": 37.799206741250792, "long": -122.25129128429244, "sidewalk width": 8, "note": "", "road": "E 18th st", "road width": 67 }, "geometry": { "type": "Point", "coordinates": [ -122.251291284292435, 37.799206741250792 ] } },
{ "type": "Feature", "properties": { "id": "OK-L0", "start_count": 692, "end_count": 686, "combined_count": 1378, "name": "Willow Park", "lat": 37.812362549565719, "long": -122.29609629373002, "sidewalk width": null, "note": null, "road": null, "road width": null }, "geometry": { "type": "Point", "coordinates": [ -122.296096293730017, 37.812362549565719 ] } },
{ "type": "Feature", "properties": { "id": "OK-L1", "start_count": 1210, "end_count": 1076, "combined_count": 2286, "name": "14th St at Mandela Pkwy", "lat": 37.8107432, "long": -122.2914153, "sidewalk width": null, "note": null, "road": null, "road width": null }, "geometry": { "type": "Point", "coordinates": [ -122.2914153, 37.8107432 ] } },
{ "type": "Feature", "properties": { "id": "OK-L10", "start_count": 389, "end_count": 370, "combined_count": 759, "name": "6th Ave at E 12th St", "lat": 37.794396, "long": -122.253842, "sidewalk width": null, "note": null, "road": null, "road width": null }, "geometry": { "type": "Point", "coordinates": [ -122.253842, 37.794396 ] } },
{ "type": "Feature", "properties": { "id": "OK-L11", "start_count": 433, "end_count": 456, "combined_count": 889, "name": "10th Ave at E 15th St", "lat": 37.7927143, "long": -122.2487796, "sidewalk width": null, "note": null, "road": null, "road width": null }, "geometry": { "type": "Point", "coordinates": [ -122.2487796, 37.7927143 ] } },
{ "type": "Feature", "properties": { "id": "OK-L12", "start_count": 279, "end_count": 283, "combined_count": 562, "name": "San Antonio Park", "lat": 37.790139851853638, "long": -122.24237322807312, "sidewalk width": 11, "note": "by park", "road": "16th st", "road width": 44 }, "geometry": { "type": "Point", "coordinates": [ -122.24237322807312, 37.790139851853638 ] } },
{ "type": "Feature", "properties": { "id": "OK-L14", "start_count": 355, "end_count": 368, "combined_count": 723, "name": "23rd Ave at Foothill Blvd", "lat": 37.7851915, "long": -122.2343822, "sidewalk width": 13, "note": "sidewalk plaza", "road": "foothill blvd", "road width": 60 }, "geometry": { "type": "Point", "coordinates": [ -122.2343822, 37.7851915 ] } },
{ "type": "Feature", "properties": { "id": "OK-L16", "start_count": 180, "end_count": 171, "combined_count": 351, "name": "Foothill Blvd at Fruitvale Ave", "lat": 37.7837569, "long": -122.2226033, "sidewalk width": 9, "note": "", "road": "foothill blvd", "road width": 52 }, "geometry": { "type": "Point", "coordinates": [ -122.2226033, 37.7837569 ] } },
{ "type": "Feature", "properties": { "id": "OK-L19", "start_count": 153, "end_count": 136, "combined_count": 289, "name": "Bond St at High St", "lat": 37.774152564302362, "long": -122.21239820122716, "sidewalk width": 12, "note": "", "road": "high st", "road width": 41 }, "geometry": { "type": "Point", "coordinates": [ -122.21239820122716, 37.774152564302362 ] } },
{ "type": "Feature", "properties": { "id": "OK-L3", "start_count": 563, "end_count": 617, "combined_count": 1180, "name": "14th St at Filbert St", "lat": 37.80874983465997, "long": -122.28328227996823, "sidewalk width": null, "note": null, "road": null, "road width": null }, "geometry": { "type": "Point", "coordinates": [ -122.283282279968233, 37.80874983465997 ] } },
{ "type": "Feature", "properties": { "id": "OK-L4", "start_count": 1623, "end_count": 1692, "combined_count": 3315, "name": "Jefferson St at 14th St", "lat": 37.805207, "long": -122.275156, "sidewalk width": null, "note": null, "road": null, "road width": null }, "geometry": { "type": "Point", "coordinates": [ -122.275156, 37.805207 ] } },
{ "type": "Feature", "properties": { "id": "OK-L5", "start_count": 4914, "end_count": 4898, "combined_count": 9812, "name": "Frank H Ogawa Plaza", "lat": 37.804562354930297, "long": -122.27173805236816, "sidewalk width": 20, "note": "big plaza", "road": null, "road width": null }, "geometry": { "type": "Point", "coordinates": [ -122.271738052368164, 37.804562354930297 ] } },
{ "type": "Feature", "properties": { "id": "OK-L6", "start_count": 2240, "end_count": 2186, "combined_count": 4426, "name": "Franklin St at 13th St", "lat": 37.803030135756188, "long": -122.27049618959428, "sidewalk width": null, "note": null, "road": null, "road width": null }, "geometry": { "type": "Point", "coordinates": [ -122.270496189594283, 37.803030135756188 ] } },
{ "type": "Feature", "properties": { "id": "OK-L6-2", "start_count": 1632, "end_count": 1592, "combined_count": 3224, "name": "13th St at Webster St", "lat": 37.802688402040665, "long": -122.26914636790752, "sidewalk width": null, "note": null, "road": null, "road width": null }, "geometry": { "type": "Point", "coordinates": [ -122.269146367907524, 37.802688402040665 ] } },
{ "type": "Feature", "properties": { "id": "OK-L7", "start_count": 827, "end_count": 790, "combined_count": 1617, "name": "Jackson St at 11th St", "lat": 37.800001631188778, "long": -122.26643800735472, "sidewalk width": null, "note": null, "road": null, "road width": null }, "geometry": { "type": "Point", "coordinates": [ -122.266438007354722, 37.800001631188778 ] } },
{ "type": "Feature", "properties": { "id": "OK-L7-2", "start_count": 3135, "end_count": 3064, "combined_count": 6199, "name": "Lakeside Dr at 14th St", "lat": 37.8013189, "long": -122.2626418, "sidewalk width": null, "note": null, "road": null, "road width": null }, "geometry": { "type": "Point", "coordinates": [ -122.2626418, 37.8013189 ] } },
{ "type": "Feature", "properties": { "id": "OK-L8", "start_count": 1551, "end_count": 1454, "combined_count": 3005, "name": "10th St at Fallon St", "lat": 37.797610044000002, "long": -122.263033509, "sidewalk width": null, "note": null, "road": null, "road width": null }, "geometry": { "type": "Point", "coordinates": [ -122.263033509, 37.797610044 ] } },
{ "type": "Feature", "properties": { "id": "OK-L8-2", "start_count": 230, "end_count": 204, "combined_count": 434, "name": "Lakeshore Ave", "lat": 37.798895960984211, "long": -122.25869433497589, "sidewalk width": 12, "note": "by lake, culdesac", "road": "lakeshore ave", "road width": 56 }, "geometry": { "type": "Point", "coordinates": [ -122.258694334975885, 37.798895960984211 ] } },
{ "type": "Feature", "properties": { "id": "OK-L9", "start_count": 1408, "end_count": 1216, "combined_count": 2624, "name": "4th Ave at E 12th St", "lat": 37.795913, "long": -122.255547, "sidewalk width": null, "note": null, "road": null, "road width": null }, "geometry": { "type": "Point", "coordinates": [ -122.255547, 37.795913 ] } },
{ "type": "Feature", "properties": { "id": "OK-M14", "start_count": 110, "end_count": 115, "combined_count": 225, "name": "26th Ave at International Blvd", "lat": 37.781123, "long": -122.2329915, "sidewalk width": 12, "note": "", "road": "26th ave", "road width": 32 }, "geometry": { "type": "Point", "coordinates": [ -122.2329915, 37.781123 ] } },
{ "type": "Feature", "properties": { "id": "OK-M16", "start_count": 146, "end_count": 118, "combined_count": 264, "name": "Farnam St at Fruitvale Ave", "lat": 37.778058, "long": -122.2254, "sidewalk width": 8, "note": "", "road": "farnam st", "road width": 29 }, "geometry": { "type": "Point", "coordinates": [ -122.2254, 37.778058 ] } },
{ "type": "Feature", "properties": { "id": "OK-M3", "start_count": 841, "end_count": 781, "combined_count": 1622, "name": "10th St at Chestnut St", "lat": 37.8063553, "long": -122.2860187, "sidewalk width": null, "note": null, "road": null, "road width": null }, "geometry": { "type": "Point", "coordinates": [ -122.2860187, 37.8063553 ] } },
{ "type": "Feature", "properties": { "id": "OK-M5", "start_count": 2116, "end_count": 2262, "combined_count": 4378, "name": "Washington St at 8th St", "lat": 37.8007544, "long": -122.2748943, "sidewalk width": null, "note": null, "road": null, "road width": null }, "geometry": { "type": "Point", "coordinates": [ -122.2748943, 37.8007544 ] } },
{ "type": "Feature", "properties": { "id": "OK-M6", "start_count": 2525, "end_count": 2554, "combined_count": 5079, "name": "Franklin St at 9th St", "lat": 37.8005161, "long": -122.2720799, "sidewalk width": null, "note": null, "road": null, "road width": null }, "geometry": { "type": "Point", "coordinates": [ -122.2720799, 37.8005161 ] } },
{ "type": "Feature", "properties": { "id": "OK-M7", "start_count": 5938, "end_count": 5340, "combined_count": 11278, "name": "Lake Merritt BART", "lat": 37.7973195, "long": -122.2653199, "sidewalk width": 16, "note": "plaza", "road": null, "road width": null }, "geometry": { "type": "Point", "coordinates": [ -122.2653199, 37.7973195 ] } },
{ "type": "Feature", "properties": { "id": "OK-N1", "start_count": 8092, "end_count": 7834, "combined_count": 15926, "name": "West Oakland BART", "lat": 37.8051895, "long": -122.29461686454056, "sidewalk width": 21, "note": null, "road": "7th st", "road width": 62 }, "geometry": { "type": "Point", "coordinates": [ -122.294616864540558, 37.8051895 ] } },
{ "type": "Feature", "properties": { "id": "OK-N10", "start_count": 1242, "end_count": 1314, "combined_count": 2556, "name": "Brooklyn Basin", "lat": 37.787440960713923, "long": -122.25555462691868, "sidewalk width": null, "note": null, "road": null, "road width": null }, "geometry": { "type": "Point", "coordinates": [ -122.255554626918681, 37.787440960713923 ] } },
{ "type": "Feature", "properties": { "id": "OK-N17", "start_count": 543, "end_count": 519, "combined_count": 1062, "name": "Fruitvale BART", "lat": 37.7752321, "long": -122.2244982, "sidewalk width": null, "note": null, "road": null, "road width": null }, "geometry": { "type": "Point", "coordinates": [ -122.2244982, 37.7752321 ] } },
{ "type": "Feature", "properties": { "id": "OK-N5", "start_count": 2106, "end_count": 2206, "combined_count": 4312, "name": "Jack London Square", "lat": 37.796248, "long": -122.279352, "sidewalk width": null, "note": null, "road": null, "road width": null }, "geometry": { "type": "Point", "coordinates": [ -122.279352, 37.796248 ] } },
{ "type": "Feature", "properties": { "id": "OK-N6", "start_count": 3125, "end_count": 3372, "combined_count": 6497, "name": "Webster St at 2nd St", "lat": 37.795194764385954, "long": -122.27396965026855, "sidewalk width": null, "note": null, "road": null, "road width": null }, "geometry": { "type": "Point", "coordinates": [ -122.273969650268555, 37.795194764385954 ] } },
{ "type": "Feature", "properties": { "id": "OK-N7", "start_count": 873, "end_count": 901, "combined_count": 1774, "name": "Second St at Oak St", "lat": 37.792831459495922, "long": -122.26827767083098, "sidewalk width": null, "note": null, "road": null, "road width": null }, "geometry": { "type": "Point", "coordinates": [ -122.268277670830983, 37.792831459495922 ] } }
]
}
