{
"type": "FeatureCollection",
"name": "stations_22",
"crs": { "type": "name", "properties": { "name": "urn:ogc:def:crs:OGC:1.3:CRS84" } },
"features": [
{ "type": "Feature", "properties": { "id": "BK-A3", "start_count": 1170, "end_count": 1031, "combined_count": 2201, "name": "College Ave at Alcatraz Ave", "lat": 37.8513755, "long": -122.2525233 }, "geometry": { "type": "Point", "coordinates": [ -122.2525233, 37.8513755 ] } },
{ "type": "Feature", "properties": { "id": "BK-A7", "start_count": 1527, "end_count": 1459, "combined_count": 2986, "name": "Vine St at Shattuck Ave", "lat": 37.880222445906789, "long": -122.26959228515624 }, "geometry": { "type": "Point", "coordinates": [ -122.269592285156236, 37.880222445906789 ] } },
{ "type": "Feature", "properties": { "id": "BK-B7", "start_count": 826, "end_count": 736, "combined_count": 1562, "name": "Virginia St at Shattuck Ave", "lat": 37.876572549106847, "long": -122.26952791213988 }, "geometry": { "type": "Point", "coordinates": [ -122.269527912139878, 37.876572549106847 ] } },
{ "type": "Feature", "properties": { "id": "BK-C1", "start_count": 966, "end_count": 1310, "combined_count": 2276, "name": "Fifth St at Delaware St", "lat": 37.870407115465376, "long": -122.29967594146729 }, "geometry": { "type": "Point", "coordinates": [ -122.299675941467285, 37.870407115465376 ] } },
{ "type": "Feature", "properties": { "id": "BK-C5", "start_count": 1460, "end_count": 1504, "combined_count": 2964, "name": "North Berkeley BART Station", "lat": 37.873558, "long": -122.283093 }, "geometry": { "type": "Point", "coordinates": [ -122.283093, 37.873558 ] } },
{ "type": "Feature", "properties": { "id": "BK-C6", "start_count": 1874, "end_count": 1952, "combined_count": 3826, "name": "MLK Jr Way at University Ave", "lat": 37.8717192, "long": -122.2730677 }, "geometry": { "type": "Point", "coordinates": [ -122.2730677, 37.8717192 ] } },
{ "type": "Feature", "properties": { "id": "BK-C7", "start_count": 1226, "end_count": 1243, "combined_count": 2469, "name": "Shattuck Ave at Hearst Ave", "lat": 37.873676214598248, "long": -122.26848721504211 }, "geometry": { "type": "Point", "coordinates": [ -122.268487215042114, 37.873676214598248 ] } },
{ "type": "Feature", "properties": { "id": "BK-C8", "start_count": 1499, "end_count": 1537, "combined_count": 3036, "name": "University Ave at Oxford St", "lat": 37.8723555, "long": -122.2664467 }, "geometry": { "type": "Point", "coordinates": [ -122.2664467, 37.8723555 ] } },
{ "type": "Feature", "properties": { "id": "BK-C9", "start_count": 2114, "end_count": 1050, "combined_count": 3164, "name": "Hearst Ave at Euclid Ave", "lat": 37.8753207, "long": -122.2601554 }, "geometry": { "type": "Point", "coordinates": [ -122.2601554, 37.8753207 ] } },
{ "type": "Feature", "properties": { "id": "BK-D1", "start_count": 1727, "end_count": 2446, "combined_count": 4173, "name": "Addison St at Fourth St", "lat": 37.866249, "long": -122.2993708 }, "geometry": { "type": "Point", "coordinates": [ -122.2993708, 37.866249 ] } },
{ "type": "Feature", "properties": { "id": "BK-D10", "start_count": 3653, "end_count": 1852, "combined_count": 5505, "name": "Bancroft Way at College Ave", "lat": 37.8693603, "long": -122.2543374 }, "geometry": { "type": "Point", "coordinates": [ -122.2543374, 37.8693603 ] } },
{ "type": "Feature", "properties": { "id": "BK-D2", "start_count": 856, "end_count": 1314, "combined_count": 2170, "name": "10th St at University Ave", "lat": 37.869060475453928, "long": -122.29339957237242 }, "geometry": { "type": "Point", "coordinates": [ -122.293399572372422, 37.869060475453928 ] } },
{ "type": "Feature", "properties": { "id": "BK-D4", "start_count": 905, "end_count": 1058, "combined_count": 1963, "name": "West St at University Ave", "lat": 37.869966707604043, "long": -122.28653311729433 }, "geometry": { "type": "Point", "coordinates": [ -122.286533117294326, 37.869966707604043 ] } },
{ "type": "Feature", "properties": { "id": "BK-D5", "start_count": 866, "end_count": 984, "combined_count": 1850, "name": "California St at University Ave", "lat": 37.870555329057453, "long": -122.27972030639648 }, "geometry": { "type": "Point", "coordinates": [ -122.279720306396484, 37.870555329057453 ] } },
{ "type": "Feature", "properties": { "id": "BK-D7-1", "start_count": 4012, "end_count": 4346, "combined_count": 8358, "name": "Downtown Berkeley BART", "lat": 37.870139, "long": -122.268422 }, "geometry": { "type": "Point", "coordinates": [ -122.268422, 37.870139 ] } },
{ "type": "Feature", "properties": { "id": "BK-D7-2", "start_count": 1636, "end_count": 1987, "combined_count": 3623, "name": "Berkeley Civic Center", "lat": 37.8690599, "long": -122.270556 }, "geometry": { "type": "Point", "coordinates": [ -122.270556, 37.8690599 ] } },
{ "type": "Feature", "properties": { "id": "BK-E10", "start_count": 1655, "end_count": 655, "combined_count": 2310, "name": "Haste St at College Ave", "lat": 37.86641794050319, "long": -122.25379943847656 }, "geometry": { "type": "Point", "coordinates": [ -122.253799438476562, 37.86641794050319 ] } },
{ "type": "Feature", "properties": { "id": "BK-E3", "start_count": 691, "end_count": 1032, "combined_count": 1723, "name": "Channing Way at San Pablo Ave", "lat": 37.8628271, "long": -122.2902305 }, "geometry": { "type": "Point", "coordinates": [ -122.2902305, 37.8628271 ] } },
{ "type": "Feature", "properties": { "id": "BK-E7", "start_count": 2169, "end_count": 2434, "combined_count": 4603, "name": "Channing Way at Shattuck Ave", "lat": 37.8658466, "long": -122.2674431 }, "geometry": { "type": "Point", "coordinates": [ -122.2674431, 37.8658466 ] } },
{ "type": "Feature", "properties": { "id": "BK-E8", "start_count": 1759, "end_count": 1839, "combined_count": 3598, "name": "Fulton St at Bancroft Way", "lat": 37.8677892, "long": -122.2658964 }, "geometry": { "type": "Point", "coordinates": [ -122.2658964, 37.8677892 ] } },
{ "type": "Feature", "properties": { "id": "BK-E9-1", "start_count": 4870, "end_count": 3805, "combined_count": 8675, "name": "Bancroft Way at Telegraph Ave", "lat": 37.8689109, "long": -122.2587857 }, "geometry": { "type": "Point", "coordinates": [ -122.2587857, 37.8689109 ] } },
{ "type": "Feature", "properties": { "id": "BK-E9-2", "start_count": 2597, "end_count": 1795, "combined_count": 4392, "name": "Haste St at Telegraph Ave", "lat": 37.8660431, "long": -122.2588044 }, "geometry": { "type": "Point", "coordinates": [ -122.2588044, 37.8660431 ] } },
{ "type": "Feature", "properties": { "id": "BK-F10", "start_count": 2006, "end_count": 1216, "combined_count": 3222, "name": "Derby St at College Ave", "lat": 37.8618037, "long": -122.2535687 }, "geometry": { "type": "Point", "coordinates": [ -122.2535687, 37.8618037 ] } },
{ "type": "Feature", "properties": { "id": "BK-F2", "start_count": 932, "end_count": 1175, "combined_count": 2107, "name": "Ninth St at Parker St", "lat": 37.8588682, "long": -122.2912095 }, "geometry": { "type": "Point", "coordinates": [ -122.2912095, 37.8588682 ] } },
{ "type": "Feature", "properties": { "id": "BK-F7", "start_count": 1564, "end_count": 1663, "combined_count": 3227, "name": "Milvia St at Derby St", "lat": 37.860124599116851, "long": -122.2693844139576 }, "geometry": { "type": "Point", "coordinates": [ -122.269384413957596, 37.860124599116851 ] } },
{ "type": "Feature", "properties": { "id": "BK-F8", "start_count": 2271, "end_count": 2415, "combined_count": 4686, "name": "Parker St at Fulton St", "lat": 37.8624644, "long": -122.2647911 }, "geometry": { "type": "Point", "coordinates": [ -122.2647911, 37.8624644 ] } },
{ "type": "Feature", "properties": { "id": "BK-F9", "start_count": 1709, "end_count": 1456, "combined_count": 3165, "name": "Telegraph Ave at Carleton St", "lat": 37.8623199, "long": -122.258801 }, "geometry": { "type": "Point", "coordinates": [ -122.258801, 37.8623199 ] } },
{ "type": "Feature", "properties": { "id": "BK-G4", "start_count": 896, "end_count": 1285, "combined_count": 2181, "name": "San Pablo Park", "lat": 37.855783320301988, "long": -122.28312671184538 }, "geometry": { "type": "Point", "coordinates": [ -122.283126711845384, 37.855783320301988 ] } },
{ "type": "Feature", "properties": { "id": "BK-G7", "start_count": 1925, "end_count": 1990, "combined_count": 3915, "name": "Oregon St at Adeline St", "lat": 37.8575672, "long": -122.2675583 }, "geometry": { "type": "Point", "coordinates": [ -122.2675583, 37.8575672 ] } },
{ "type": "Feature", "properties": { "id": "BK-G8", "start_count": 1104, "end_count": 1042, "combined_count": 2146, "name": "Ellsworth St at Russell St", "lat": 37.857490214571527, "long": -122.26157784461977 }, "geometry": { "type": "Point", "coordinates": [ -122.261577844619765, 37.857490214571527 ] } },
{ "type": "Feature", "properties": { "id": "BK-H10", "start_count": 1766, "end_count": 1405, "combined_count": 3171, "name": "Russell St at College Ave", "lat": 37.8584732, "long": -122.2532529 }, "geometry": { "type": "Point", "coordinates": [ -122.2532529, 37.8584732 ] } },
{ "type": "Feature", "properties": { "id": "BK-H3", "start_count": 1959, "end_count": 2224, "combined_count": 4183, "name": "Ninth St at Heinz Ave", "lat": 37.853906961643801, "long": -122.2896981239319 }, "geometry": { "type": "Point", "coordinates": [ -122.289698123931899, 37.853906961643801 ] } },
{ "type": "Feature", "properties": { "id": "BK-H6", "start_count": 2312, "end_count": 2413, "combined_count": 4725, "name": "Ashby BART Station", "lat": 37.8524766, "long": -122.2702132 }, "geometry": { "type": "Point", "coordinates": [ -122.2702132, 37.8524766 ] } },
{ "type": "Feature", "properties": { "id": "BK-H8", "start_count": 830, "end_count": 833, "combined_count": 1663, "name": "Fulton St at Ashby Ave", "lat": 37.855573661828792, "long": -122.2635653614998 }, "geometry": { "type": "Point", "coordinates": [ -122.263565361499801, 37.855573661828792 ] } },
{ "type": "Feature", "properties": { "id": "BK-H9", "start_count": 1227, "end_count": 1190, "combined_count": 2417, "name": "Telegraph Ave at Ashby Ave", "lat": 37.855956, "long": -122.259795 }, "geometry": { "type": "Point", "coordinates": [ -122.259795, 37.855956 ] } },
{ "type": "Feature", "properties": { "id": "BK-I5", "start_count": 1172, "end_count": 1286, "combined_count": 2458, "name": "Woolsey St at Sacramento St", "lat": 37.8505777, "long": -122.2781754 }, "geometry": { "type": "Point", "coordinates": [ -122.2781754, 37.8505777 ] } },
{ "type": "Feature", "properties": { "id": "BK-I6", "start_count": 886, "end_count": 933, "combined_count": 1819, "name": "Harmon St at Adeline St", "lat": 37.849735, "long": -122.270582 }, "geometry": { "type": "Point", "coordinates": [ -122.270582, 37.849735 ] } },
{ "type": "Feature", "properties": { "id": "EM-A1", "start_count": 542, "end_count": 741, "combined_count": 1283, "name": "59th St at Horton St", "lat": 37.8409452, "long": -122.2913604 }, "geometry": { "type": "Point", "coordinates": [ -122.2913604, 37.8409452 ] } },
{ "type": "Feature", "properties": { "id": "EM-A2", "start_count": 813, "end_count": 1206, "combined_count": 2019, "name": "Doyle St at 59th St", "lat": 37.8419238, "long": -122.2880451 }, "geometry": { "type": "Point", "coordinates": [ -122.2880451, 37.8419238 ] } },
{ "type": "Feature", "properties": { "id": "EM-B0-2", "start_count": 261, "end_count": 337, "combined_count": 598, "name": "2100 Powell St", "lat": 37.839543082665628, "long": -122.2987177222967 }, "geometry": { "type": "Point", "coordinates": [ -122.298717722296701, 37.839543082665628 ] } },
{ "type": "Feature", "properties": { "id": "EM-B1", "start_count": 614, "end_count": 834, "combined_count": 1448, "name": "Emeryville Public Market", "lat": 37.840521166949692, "long": -122.29352831840517 }, "geometry": { "type": "Point", "coordinates": [ -122.293528318405166, 37.840521166949692 ] } },
{ "type": "Feature", "properties": { "id": "EM-B2", "start_count": 448, "end_count": 481, "combined_count": 929, "name": "Stanford Ave at Hollis St", "lat": 37.8384435, "long": -122.2886647 }, "geometry": { "type": "Point", "coordinates": [ -122.2886647, 37.8384435 ] } },
{ "type": "Feature", "properties": { "id": "EM-C1", "start_count": 734, "end_count": 1048, "combined_count": 1782, "name": "65th St at Hollis St", "lat": 37.8467842, "long": -122.2913761 }, "geometry": { "type": "Point", "coordinates": [ -122.2913761, 37.8467842 ] } },
{ "type": "Feature", "properties": { "id": "EM-C2", "start_count": 380, "end_count": 420, "combined_count": 800, "name": "53rd St at Hollis St", "lat": 37.8361823, "long": -122.2871801 }, "geometry": { "type": "Point", "coordinates": [ -122.2871801, 37.8361823 ] } },
{ "type": "Feature", "properties": { "id": "EM-C3", "start_count": 373, "end_count": 430, "combined_count": 803, "name": "47th St at San Pablo Ave", "lat": 37.835632204585181, "long": -122.28105068206789 }, "geometry": { "type": "Point", "coordinates": [ -122.281050682067885, 37.835632204585181 ] } },
{ "type": "Feature", "properties": { "id": "EM-D2", "start_count": 563, "end_count": 815, "combined_count": 1378, "name": "Horton St at 40th St", "lat": 37.8297046, "long": -122.2876102 }, "geometry": { "type": "Point", "coordinates": [ -122.2876102, 37.8297046 ] } },
{ "type": "Feature", "properties": { "id": "EM-D3", "start_count": 213, "end_count": 314, "combined_count": 527, "name": "Emeryville Town Hall", "lat": 37.8312752, "long": -122.2856333 }, "geometry": { "type": "Point", "coordinates": [ -122.2856333, 37.8312752 ] } },
{ "type": "Feature", "properties": { "id": "EM-D4", "start_count": 588, "end_count": 656, "combined_count": 1244, "name": "Adeline St at 40th St", "lat": 37.8312769, "long": -122.2782669 }, "geometry": { "type": "Point", "coordinates": [ -122.2782669, 37.8312769 ] } },
{ "type": "Feature", "properties": { "id": "OK-A2", "start_count": 927, "end_count": 880, "combined_count": 1807, "name": "Telegraph Ave at Alcatraz Ave", "lat": 37.850221874496789, "long": -122.26017236709596 }, "geometry": { "type": "Point", "coordinates": [ -122.260172367095961, 37.850221874496789 ] } },
{ "type": "Feature", "properties": { "id": "OK-A4", "start_count": 950, "end_count": 669, "combined_count": 1619, "name": "62nd St at Claremont Ave", "lat": 37.8494355, "long": -122.2525406 }, "geometry": { "type": "Point", "coordinates": [ -122.2525406, 37.8494355 ] } },
{ "type": "Feature", "properties": { "id": "OK-B1", "start_count": 448, "end_count": 475, "combined_count": 923, "name": "Alcatraz Ave at Shattuck Ave", "lat": 37.849594967776646, "long": -122.26556897163393 }, "geometry": { "type": "Point", "coordinates": [ -122.265568971633925, 37.849594967776646 ] } },
{ "type": "Feature", "properties": { "id": "OK-B2", "start_count": 534, "end_count": 531, "combined_count": 1065, "name": "Bushrod Park", "lat": 37.8465156, "long": -122.2653043 }, "geometry": { "type": "Point", "coordinates": [ -122.2653043, 37.8465156 ] } },
{ "type": "Feature", "properties": { "id": "OK-B3", "start_count": 605, "end_count": 513, "combined_count": 1118, "name": "Telegraph Ave at 58th St", "lat": 37.8444927, "long": -122.261351 }, "geometry": { "type": "Point", "coordinates": [ -122.261351, 37.8444927 ] } },
{ "type": "Feature", "properties": { "id": "OK-B4", "start_count": 2743, "end_count": 2429, "combined_count": 5172, "name": "Rockridge BART Station", "lat": 37.844278753990672, "long": -122.251900434494 }, "geometry": { "type": "Point", "coordinates": [ -122.251900434494004, 37.844278753990672 ] } },
{ "type": "Feature", "properties": { "id": "OK-B5", "start_count": 689, "end_count": 615, "combined_count": 1304, "name": "College Ave at Taft Ave", "lat": 37.8417999, "long": -122.2515349 }, "geometry": { "type": "Point", "coordinates": [ -122.2515349, 37.8417999 ] } },
{ "type": "Feature", "properties": { "id": "OK-C2", "start_count": 876, "end_count": 866, "combined_count": 1742, "name": "Dover St at 57th St", "lat": 37.8426295, "long": -122.267738 }, "geometry": { "type": "Point", "coordinates": [ -122.267738, 37.8426295 ] } },
{ "type": "Feature", "properties": { "id": "OK-C3", "start_count": 719, "end_count": 627, "combined_count": 1346, "name": "55th St at Telegraph Ave", "lat": 37.8401858, "long": -122.2618225 }, "geometry": { "type": "Point", "coordinates": [ -122.2618225, 37.8401858 ] } },
{ "type": "Feature", "properties": { "id": "OK-C4", "start_count": 866, "end_count": 810, "combined_count": 1676, "name": "Miles Ave at Cavour St", "lat": 37.8388, "long": -122.258732 }, "geometry": { "type": "Point", "coordinates": [ -122.258732, 37.8388 ] } },
{ "type": "Feature", "properties": { "id": "OK-C5", "start_count": 462, "end_count": 439, "combined_count": 901, "name": "College Ave at Bryant Ave", "lat": 37.8381269, "long": -122.2512714 }, "geometry": { "type": "Point", "coordinates": [ -122.2512714, 37.8381269 ] } },
{ "type": "Feature", "properties": { "id": "OK-D2", "start_count": 1335, "end_count": 1312, "combined_count": 2647, "name": "Genoa St at 55th St", "lat": 37.8396488, "long": -122.2717561 }, "geometry": { "type": "Point", "coordinates": [ -122.2717561, 37.8396488 ] } },
{ "type": "Feature", "properties": { "id": "OK-D3-1", "start_count": 618, "end_count": 559, "combined_count": 1177, "name": "Shattuck Ave at 55th St", "lat": 37.8403643, "long": -122.2644881 }, "geometry": { "type": "Point", "coordinates": [ -122.2644881, 37.8403643 ] } },
{ "type": "Feature", "properties": { "id": "OK-D3-2", "start_count": 210, "end_count": 212, "combined_count": 422, "name": "52nd St at MLK Jr Way", "lat": 37.837369, "long": -122.267656 }, "geometry": { "type": "Point", "coordinates": [ -122.267656, 37.837369 ] } },
{ "type": "Feature", "properties": { "id": "OK-D4", "start_count": 2279, "end_count": 2334, "combined_count": 4613, "name": "Telegraph Ave at 49th St", "lat": 37.83575, "long": -122.262654 }, "geometry": { "type": "Point", "coordinates": [ -122.262654, 37.83575 ] } },
{ "type": "Feature", "properties": { "id": "OK-D5", "start_count": 708, "end_count": 655, "combined_count": 1363, "name": "Broadway at Coronado Ave", "lat": 37.8357883, "long": -122.2516207 }, "geometry": { "type": "Point", "coordinates": [ -122.2516207, 37.8357883 ] } },
{ "type": "Feature", "properties": { "id": "OK-E3", "start_count": 203, "end_count": 244, "combined_count": 447, "name": "45th St at MLK Jr Way", "lat": 37.8335577, "long": -122.2674183 }, "geometry": { "type": "Point", "coordinates": [ -122.2674183, 37.8335577 ] } },
{ "type": "Feature", "properties": { "id": "OK-E4", "start_count": 1275, "end_count": 1242, "combined_count": 2517, "name": "Shattuck Ave at Telegraph Ave", "lat": 37.8332786, "long": -122.2634901 }, "geometry": { "type": "Point", "coordinates": [ -122.2634901, 37.8332786 ] } },
{ "type": "Feature", "properties": { "id": "OK-E5", "start_count": 867, "end_count": 825, "combined_count": 1692, "name": "45th St at Manila", "lat": 37.833293522232097, "long": -122.25622415542604 }, "geometry": { "type": "Point", "coordinates": [ -122.25622415542604, 37.833293522232097 ] } },
{ "type": "Feature", "properties": { "id": "OK-F2-2", "start_count": 513, "end_count": 477, "combined_count": 990, "name": "Market St at 45th St", "lat": 37.834174, "long": -122.272968 }, "geometry": { "type": "Point", "coordinates": [ -122.272968, 37.834174 ] } },
{ "type": "Feature", "properties": { "id": "OK-F3", "start_count": 623, "end_count": 600, "combined_count": 1223, "name": "West St at 40th St", "lat": 37.8302232, "long": -122.2709501 }, "geometry": { "type": "Point", "coordinates": [ -122.2709501, 37.8302232 ] } },
{ "type": "Feature", "properties": { "id": "OK-F4", "start_count": 5957, "end_count": 5735, "combined_count": 11692, "name": "MacArthur BART Station", "lat": 37.8285951, "long": -122.2663493 }, "geometry": { "type": "Point", "coordinates": [ -122.2663493, 37.8285951 ] } },
{ "type": "Feature", "properties": { "id": "OK-F5", "start_count": 2015, "end_count": 1929, "combined_count": 3944, "name": "Broadway at 40th St", "lat": 37.8277573, "long": -122.2567156 }, "geometry": { "type": "Point", "coordinates": [ -122.2567156, 37.8277573 ] } },
{ "type": "Feature", "properties": { "id": "OK-F6", "start_count": 1270, "end_count": 1232, "combined_count": 2502, "name": "40th St at Piedmont Ave", "lat": 37.825785004382006, "long": -122.25346968515623 }, "geometry": { "type": "Point", "coordinates": [ -122.253469685156233, 37.825785004382006 ] } },
{ "type": "Feature", "properties": { "id": "OK-G2", "start_count": 588, "end_count": 538, "combined_count": 1126, "name": "Market St at 40th St", "lat": 37.8305452, "long": -122.2739367 }, "geometry": { "type": "Point", "coordinates": [ -122.2739367, 37.8305452 ] } },
{ "type": "Feature", "properties": { "id": "OK-G3", "start_count": 512, "end_count": 467, "combined_count": 979, "name": "37th St at West St", "lat": 37.826695586409677, "long": -122.27179706096648 }, "geometry": { "type": "Point", "coordinates": [ -122.271797060966477, 37.826695586409677 ] } },
{ "type": "Feature", "properties": { "id": "OK-G4", "start_count": 698, "end_count": 608, "combined_count": 1306, "name": "MacArthur Blvd at Telegraph Ave", "lat": 37.8262863, "long": -122.2651002 }, "geometry": { "type": "Point", "coordinates": [ -122.2651002, 37.8262863 ] } },
{ "type": "Feature", "properties": { "id": "OK-G5", "start_count": 683, "end_count": 736, "combined_count": 1419, "name": "Mosswood Park", "lat": 37.824892529951121, "long": -122.26043654610294 }, "geometry": { "type": "Point", "coordinates": [ -122.260436546102937, 37.824892529951121 ] } },
{ "type": "Feature", "properties": { "id": "OK-H2", "start_count": 1049, "end_count": 1048, "combined_count": 2097, "name": "32nd St at Adeline St", "lat": 37.8238474, "long": -122.2811926 }, "geometry": { "type": "Point", "coordinates": [ -122.2811926, 37.8238474 ] } },
{ "type": "Feature", "properties": { "id": "OK-H2-2", "start_count": 137, "end_count": 139, "combined_count": 276, "name": "Brockhurst St at San Pablo Ave", "lat": 37.823522790214049, "long": -122.27718830108644 }, "geometry": { "type": "Point", "coordinates": [ -122.27718830108644, 37.823522790214049 ] } },
{ "type": "Feature", "properties": { "id": "OK-H3", "start_count": 164, "end_count": 135, "combined_count": 299, "name": "Market St at Brockhurst St", "lat": 37.8233214, "long": -122.2757325 }, "geometry": { "type": "Point", "coordinates": [ -122.2757325, 37.8233214 ] } },
{ "type": "Feature", "properties": { "id": "OK-H3-2", "start_count": 440, "end_count": 423, "combined_count": 863, "name": "West St at Brockhurst St", "lat": 37.822683859450208, "long": -122.27292420364392 }, "geometry": { "type": "Point", "coordinates": [ -122.272924203643925, 37.822683859450208 ] } },
{ "type": "Feature", "properties": { "id": "OK-H4-3", "start_count": 920, "end_count": 1053, "combined_count": 1973, "name": "34th St at Telegraph Ave", "lat": 37.822467677145127, "long": -122.26597130298616 }, "geometry": { "type": "Point", "coordinates": [ -122.265971302986159, 37.822467677145127 ] } },
{ "type": "Feature", "properties": { "id": "OK-H5", "start_count": 2237, "end_count": 2290, "combined_count": 4527, "name": "Broadway at 30th St", "lat": 37.8193814, "long": -122.2619284 }, "geometry": { "type": "Point", "coordinates": [ -122.2619284, 37.8193814 ] } },
{ "type": "Feature", "properties": { "id": "OK-H9-1", "start_count": 1593, "end_count": 1796, "combined_count": 3389, "name": "Grand Ave at Santa Clara Ave", "lat": 37.8127441, "long": -122.2472152 }, "geometry": { "type": "Point", "coordinates": [ -122.2472152, 37.8127441 ] } },
{ "type": "Feature", "properties": { "id": "OK-H9-2", "start_count": 1192, "end_count": 1249, "combined_count": 2441, "name": "Lakeshore Ave at Trestle Glen Rd", "lat": 37.8110807, "long": -122.2432677 }, "geometry": { "type": "Point", "coordinates": [ -122.2432677, 37.8110807 ] } },
{ "type": "Feature", "properties": { "id": "OK-I3", "start_count": 484, "end_count": 491, "combined_count": 975, "name": "San Pablo Ave at 27th St", "lat": 37.8178269, "long": -122.2756976 }, "geometry": { "type": "Point", "coordinates": [ -122.2756976, 37.8178269 ] } },
{ "type": "Feature", "properties": { "id": "OK-I4", "start_count": 212, "end_count": 210, "combined_count": 422, "name": "27th St at MLK Jr Way", "lat": 37.8170154, "long": -122.2717615 }, "geometry": { "type": "Point", "coordinates": [ -122.2717615, 37.8170154 ] } },
{ "type": "Feature", "properties": { "id": "OK-I5", "start_count": 1691, "end_count": 1738, "combined_count": 3429, "name": "Telegraph Ave at 27th St", "lat": 37.816073115011406, "long": -122.26788640022278 }, "geometry": { "type": "Point", "coordinates": [ -122.267886400222778, 37.816073115011406 ] } },
{ "type": "Feature", "properties": { "id": "OK-I6", "start_count": 2829, "end_count": 2906, "combined_count": 5735, "name": "Bay Pl at Vernon St", "lat": 37.81231409135146, "long": -122.26077854633331 }, "geometry": { "type": "Point", "coordinates": [ -122.260778546333313, 37.81231409135146 ] } },
{ "type": "Feature", "properties": { "id": "OK-I8", "start_count": 2874, "end_count": 2988, "combined_count": 5862, "name": "Grand Ave at Perkins St", "lat": 37.80889393398715, "long": -122.25646018981932 }, "geometry": { "type": "Point", "coordinates": [ -122.256460189819322, 37.80889393398715 ] } },
{ "type": "Feature", "properties": { "id": "OK-I9", "start_count": 3759, "end_count": 4021, "combined_count": 7780, "name": "El Embarcadero at Grand Ave", "lat": 37.808715, "long": -122.2492512 }, "geometry": { "type": "Point", "coordinates": [ -122.2492512, 37.808715 ] } },
{ "type": "Feature", "properties": { "id": "OK-J3", "start_count": 867, "end_count": 836, "combined_count": 1703, "name": "24th St at Market St", "lat": 37.8160598, "long": -122.2782444 }, "geometry": { "type": "Point", "coordinates": [ -122.2782444, 37.8160598 ] } },
{ "type": "Feature", "properties": { "id": "OK-J4", "start_count": 374, "end_count": 344, "combined_count": 718, "name": "Isabella St at San Pablo Ave", "lat": 37.814988230424163, "long": -122.2748440504074 }, "geometry": { "type": "Point", "coordinates": [ -122.274844050407395, 37.814988230424163 ] } },
{ "type": "Feature", "properties": { "id": "OK-J5", "start_count": 1625, "end_count": 1755, "combined_count": 3380, "name": "Telegraph Ave at 23rd St", "lat": 37.8126783, "long": -122.2687726 }, "geometry": { "type": "Point", "coordinates": [ -122.2687726, 37.8126783 ] } },
{ "type": "Feature", "properties": { "id": "OK-J6-1", "start_count": 3096, "end_count": 3319, "combined_count": 6415, "name": "Grand Ave at Webster St", "lat": 37.8113768, "long": -122.2651925 }, "geometry": { "type": "Point", "coordinates": [ -122.2651925, 37.8113768 ] } },
{ "type": "Feature", "properties": { "id": "OK-J6-2", "start_count": 1382, "end_count": 1473, "combined_count": 2855, "name": "Snow Park", "lat": 37.807813182179032, "long": -122.26449608802795 }, "geometry": { "type": "Point", "coordinates": [ -122.264496088027954, 37.807813182179032 ] } },
{ "type": "Feature", "properties": { "id": "OK-K10", "start_count": 1007, "end_count": 1028, "combined_count": 2035, "name": "21st St at 5th Ave", "lat": 37.800459411713945, "long": -122.24745869636536 }, "geometry": { "type": "Point", "coordinates": [ -122.247458696365356, 37.800459411713945 ] } },
{ "type": "Feature", "properties": { "id": "OK-K17", "start_count": 88, "end_count": 77, "combined_count": 165, "name": "Foothill Blvd at Harrington Ave", "lat": 37.77993, "long": -122.2177284 }, "geometry": { "type": "Point", "coordinates": [ -122.2177284, 37.77993 ] } },
{ "type": "Feature", "properties": { "id": "OK-K2", "start_count": 760, "end_count": 827, "combined_count": 1587, "name": "DeFremery Park", "lat": 37.8123315, "long": -122.2851712 }, "geometry": { "type": "Point", "coordinates": [ -122.2851712, 37.8123315 ] } },
{ "type": "Feature", "properties": { "id": "OK-K3", "start_count": 413, "end_count": 493, "combined_count": 906, "name": "Marston Campbell Park", "lat": 37.8098236, "long": -122.2801923 }, "geometry": { "type": "Point", "coordinates": [ -122.2801923, 37.8098236 ] } },
{ "type": "Feature", "properties": { "id": "OK-K4", "start_count": 302, "end_count": 311, "combined_count": 613, "name": "San Pablo Ave at MLK Jr Way", "lat": 37.8113514, "long": -122.2734217 }, "geometry": { "type": "Point", "coordinates": [ -122.2734217, 37.8113514 ] } },
{ "type": "Feature", "properties": { "id": "OK-K5-1", "start_count": 2645, "end_count": 2675, "combined_count": 5320, "name": "Telegraph Ave at 19th St", "lat": 37.8087021, "long": -122.2699271 }, "geometry": { "type": "Point", "coordinates": [ -122.2699271, 37.8087021 ] } },
{ "type": "Feature", "properties": { "id": "OK-K5-2", "start_count": 3367, "end_count": 3621, "combined_count": 6988, "name": "19th Street BART Station", "lat": 37.809368612134847, "long": -122.26795077323914 }, "geometry": { "type": "Point", "coordinates": [ -122.267950773239136, 37.809368612134847 ] } },
{ "type": "Feature", "properties": { "id": "OK-K6", "start_count": 1223, "end_count": 1231, "combined_count": 2454, "name": "Webster St at 19th St", "lat": 37.806969760955937, "long": -122.26658821105956 }, "geometry": { "type": "Point", "coordinates": [ -122.266588211059556, 37.806969760955937 ] } },
{ "type": "Feature", "properties": { "id": "OK-K7", "start_count": 1808, "end_count": 1492, "combined_count": 3300, "name": "Madison St at 17th St", "lat": 37.804036784023602, "long": -122.26240932941435 }, "geometry": { "type": "Point", "coordinates": [ -122.262409329414353, 37.804036784023602 ] } },
{ "type": "Feature", "properties": { "id": "OK-K9", "start_count": 2505, "end_count": 2759, "combined_count": 5264, "name": "2nd Ave at E 18th St", "lat": 37.800213566969802, "long": -122.25381016731262 }, "geometry": { "type": "Point", "coordinates": [ -122.253810167312622, 37.800213566969802 ] } },
{ "type": "Feature", "properties": { "id": "OK-L1", "start_count": 1104, "end_count": 1155, "combined_count": 2259, "name": "14th St at Mandela Pkwy", "lat": 37.8107432, "long": -122.2914153 }, "geometry": { "type": "Point", "coordinates": [ -122.2914153, 37.8107432 ] } },
{ "type": "Feature", "properties": { "id": "OK-L10", "start_count": 192, "end_count": 204, "combined_count": 396, "name": "6th Ave at E 12th St (Temporary Location)", "lat": 37.794396, "long": -122.253842 }, "geometry": { "type": "Point", "coordinates": [ -122.253842, 37.794396 ] } },
{ "type": "Feature", "properties": { "id": "OK-L11", "start_count": 135, "end_count": 149, "combined_count": 284, "name": "10th Ave at E 15th St", "lat": 37.7927143, "long": -122.2487796 }, "geometry": { "type": "Point", "coordinates": [ -122.2487796, 37.7927143 ] } },
{ "type": "Feature", "properties": { "id": "OK-L12", "start_count": 139, "end_count": 115, "combined_count": 254, "name": "San Antonio Park", "lat": 37.790139851853638, "long": -122.24237322807312 }, "geometry": { "type": "Point", "coordinates": [ -122.24237322807312, 37.790139851853638 ] } },
{ "type": "Feature", "properties": { "id": "OK-L14", "start_count": 94, "end_count": 118, "combined_count": 212, "name": "23rd Ave at Foothill Blvd", "lat": 37.7851915, "long": -122.2343822 }, "geometry": { "type": "Point", "coordinates": [ -122.2343822, 37.7851915 ] } },
{ "type": "Feature", "properties": { "id": "OK-L16", "start_count": 111, "end_count": 119, "combined_count": 230, "name": "Foothill Blvd at Fruitvale Ave", "lat": 37.7837569, "long": -122.2226033 }, "geometry": { "type": "Point", "coordinates": [ -122.2226033, 37.7837569 ] } },
{ "type": "Feature", "properties": { "id": "OK-L19", "start_count": 88, "end_count": 88, "combined_count": 176, "name": "Bond St at High St", "lat": 37.774152564302362, "long": -122.21239820122716 }, "geometry": { "type": "Point", "coordinates": [ -122.21239820122716, 37.774152564302362 ] } },
{ "type": "Feature", "properties": { "id": "OK-L3", "start_count": 358, "end_count": 393, "combined_count": 751, "name": "14th St at Filbert St", "lat": 37.80874983465997, "long": -122.28328227996823 }, "geometry": { "type": "Point", "coordinates": [ -122.283282279968233, 37.80874983465997 ] } },
{ "type": "Feature", "properties": { "id": "OK-L4", "start_count": 689, "end_count": 722, "combined_count": 1411, "name": "MLK Jr Way at 14th St", "lat": 37.8061628, "long": -122.2760402 }, "geometry": { "type": "Point", "coordinates": [ -122.2760402, 37.8061628 ] } },
{ "type": "Feature", "properties": { "id": "OK-L5", "start_count": 1895, "end_count": 2130, "combined_count": 4025, "name": "Frank H Ogawa Plaza", "lat": 37.804562354930297, "long": -122.27173805236816 }, "geometry": { "type": "Point", "coordinates": [ -122.271738052368164, 37.804562354930297 ] } },
{ "type": "Feature", "properties": { "id": "OK-L6", "start_count": 1022, "end_count": 1041, "combined_count": 2063, "name": "13th St at Franklin St", "lat": 37.803189081131627, "long": -122.27057933807372 }, "geometry": { "type": "Point", "coordinates": [ -122.270579338073716, 37.803189081131627 ] } },
{ "type": "Feature", "properties": { "id": "OK-L6-2", "start_count": 667, "end_count": 715, "combined_count": 1382, "name": "13th St at Webster St", "lat": 37.802688402040665, "long": -122.26914636790752 }, "geometry": { "type": "Point", "coordinates": [ -122.269146367907524, 37.802688402040665 ] } },
{ "type": "Feature", "properties": { "id": "OK-L7", "start_count": 501, "end_count": 471, "combined_count": 972, "name": "Jackson St at 11th St", "lat": 37.800001631188778, "long": -122.26643800735472 }, "geometry": { "type": "Point", "coordinates": [ -122.266438007354722, 37.800001631188778 ] } },
{ "type": "Feature", "properties": { "id": "OK-L7-2", "start_count": 2104, "end_count": 1932, "combined_count": 4036, "name": "Lakeside Dr at 14th St", "lat": 37.8013189, "long": -122.2626418 }, "geometry": { "type": "Point", "coordinates": [ -122.2626418, 37.8013189 ] } },
{ "type": "Feature", "properties": { "id": "OK-L8", "start_count": 638, "end_count": 651, "combined_count": 1289, "name": "10th St at Fallon St", "lat": 37.7976728, "long": -122.2629973 }, "geometry": { "type": "Point", "coordinates": [ -122.2629973, 37.7976728 ] } },
{ "type": "Feature", "properties": { "id": "OK-L9", "start_count": 354, "end_count": 358, "combined_count": 712, "name": "4th Ave at E 12th St (Temporary Location)", "lat": 37.795913, "long": -122.255547 }, "geometry": { "type": "Point", "coordinates": [ -122.255547, 37.795913 ] } },
{ "type": "Feature", "properties": { "id": "OK-M14", "start_count": 39, "end_count": 61, "combined_count": 100, "name": "26th Ave at International Blvd", "lat": 37.781123, "long": -122.2329915 }, "geometry": { "type": "Point", "coordinates": [ -122.2329915, 37.781123 ] } },
{ "type": "Feature", "properties": { "id": "OK-M16", "start_count": 102, "end_count": 103, "combined_count": 205, "name": "Farnam St at Fruitvale Ave", "lat": 37.778058, "long": -122.2254 }, "geometry": { "type": "Point", "coordinates": [ -122.2254, 37.778058 ] } },
{ "type": "Feature", "properties": { "id": "OK-M2", "start_count": 245, "end_count": 256, "combined_count": 501, "name": "Union St at 10th St", "lat": 37.8072393, "long": -122.2893702 }, "geometry": { "type": "Point", "coordinates": [ -122.2893702, 37.8072393 ] } },
{ "type": "Feature", "properties": { "id": "OK-M4", "start_count": 385, "end_count": 411, "combined_count": 796, "name": "Market St at 8th St", "lat": 37.8036865, "long": -122.282497 }, "geometry": { "type": "Point", "coordinates": [ -122.282497, 37.8036865 ] } },
{ "type": "Feature", "properties": { "id": "OK-M5", "start_count": 1202, "end_count": 1283, "combined_count": 2485, "name": "Washington St at 8th St", "lat": 37.8007544, "long": -122.2748943 }, "geometry": { "type": "Point", "coordinates": [ -122.2748943, 37.8007544 ] } },
{ "type": "Feature", "properties": { "id": "OK-M6", "start_count": 1269, "end_count": 1261, "combined_count": 2530, "name": "Franklin St at 9th St", "lat": 37.8005161, "long": -122.2720799 }, "geometry": { "type": "Point", "coordinates": [ -122.2720799, 37.8005161 ] } },
{ "type": "Feature", "properties": { "id": "OK-M7", "start_count": 2793, "end_count": 2284, "combined_count": 5077, "name": "Lake Merritt BART Station", "lat": 37.7973195, "long": -122.2653199 }, "geometry": { "type": "Point", "coordinates": [ -122.2653199, 37.7973195 ] } },
{ "type": "Feature", "properties": { "id": "OK-N1", "start_count": 2981, "end_count": 2987, "combined_count": 5968, "name": "West Oakland BART Station", "lat": 37.8051895, "long": -122.29461686454056 }, "geometry": { "type": "Point", "coordinates": [ -122.294616864540558, 37.8051895 ] } },
{ "type": "Feature", "properties": { "id": "OK-N17", "start_count": 322, "end_count": 309, "combined_count": 631, "name": "Fruitvale BART Station", "lat": 37.7752321, "long": -122.2244982 }, "geometry": { "type": "Point", "coordinates": [ -122.2244982, 37.7752321 ] } },
{ "type": "Feature", "properties": { "id": "OK-N5", "start_count": 1058, "end_count": 1273, "combined_count": 2331, "name": "Jack London Square", "lat": 37.796248, "long": -122.279352 }, "geometry": { "type": "Point", "coordinates": [ -122.279352, 37.796248 ] } },
{ "type": "Feature", "properties": { "id": "OK-N6", "start_count": 1459, "end_count": 1782, "combined_count": 3241, "name": "Webster St at 2nd St", "lat": 37.795194764385954, "long": -122.27396965026855 }, "geometry": { "type": "Point", "coordinates": [ -122.273969650268555, 37.795194764385954 ] } }
]
}
