{
"type": "FeatureCollection",
"name": "stations_20",
"crs": { "type": "name", "properties": { "name": "urn:ogc:def:crs:OGC:1.3:CRS84" } },
"features": [
{ "type": "Feature", "properties": { "id": "16th St Depot", "start_count": 0, "end_count": 3, "combined_count": 3, "name": "16th St Depot", "lat": 37.766349, "long": -122.396292 }, "geometry": { "type": "Point", "coordinates": [ -122.396292, 37.766349 ] } },
{ "type": "Feature", "properties": { "id": "BK-A3", "start_count": 708, "end_count": 700, "combined_count": 1408, "name": "College Ave at Alcatraz Ave", "lat": 37.8513755, "long": -122.2525233 }, "geometry": { "type": "Point", "coordinates": [ -122.2525233, 37.8513755 ] } },
{ "type": "Feature", "properties": { "id": "BK-A7", "start_count": 1095, "end_count": 980, "combined_count": 2075, "name": "Vine St at Shattuck Ave", "lat": 37.880222445906789, "long": -122.26959228515624 }, "geometry": { "type": "Point", "coordinates": [ -122.269592285156236, 37.880222445906789 ] } },
{ "type": "Feature", "properties": { "id": "BK-B7", "start_count": 569, "end_count": 407, "combined_count": 976, "name": "Virginia St at Shattuck Ave", "lat": 37.876572, "long": -122.269527 }, "geometry": { "type": "Point", "coordinates": [ -122.269527, 37.876572 ] } },
{ "type": "Feature", "properties": { "id": "BK-B9", "start_count": 1192, "end_count": 551, "combined_count": 1743, "name": "Hearst Ave at Euclid Ave", "lat": 37.875112, "long": -122.260553 }, "geometry": { "type": "Point", "coordinates": [ -122.260553, 37.875112 ] } },
{ "type": "Feature", "properties": { "id": "BK-C1", "start_count": 564, "end_count": 1027, "combined_count": 1591, "name": "Fifth St at Delaware St", "lat": 37.870407115465376, "long": -122.29967594146729 }, "geometry": { "type": "Point", "coordinates": [ -122.299675941467285, 37.870407115465376 ] } },
{ "type": "Feature", "properties": { "id": "BK-C5", "start_count": 786, "end_count": 791, "combined_count": 1577, "name": "North Berkeley BART Station", "lat": 37.873558, "long": -122.283093 }, "geometry": { "type": "Point", "coordinates": [ -122.283093, 37.873558 ] } },
{ "type": "Feature", "properties": { "id": "BK-C6", "start_count": 971, "end_count": 1189, "combined_count": 2160, "name": "MLK Jr Way at University Ave", "lat": 37.871719, "long": -122.273067 }, "geometry": { "type": "Point", "coordinates": [ -122.273067, 37.871719 ] } },
{ "type": "Feature", "properties": { "id": "BK-C7", "start_count": 600, "end_count": 543, "combined_count": 1143, "name": "Shattuck Ave at Hearst Ave", "lat": 37.873676214598248, "long": -122.26848721504211 }, "geometry": { "type": "Point", "coordinates": [ -122.268487215042114, 37.873676214598248 ] } },
{ "type": "Feature", "properties": { "id": "BK-C8", "start_count": 645, "end_count": 633, "combined_count": 1278, "name": "University Ave at Oxford St", "lat": 37.872355, "long": -122.266446 }, "geometry": { "type": "Point", "coordinates": [ -122.266446, 37.872355 ] } },
{ "type": "Feature", "properties": { "id": "BK-D1", "start_count": 1413, "end_count": 1722, "combined_count": 3135, "name": "Addison St at Fourth St", "lat": 37.866249, "long": -122.2993708 }, "geometry": { "type": "Point", "coordinates": [ -122.2993708, 37.866249 ] } },
{ "type": "Feature", "properties": { "id": "BK-D10", "start_count": 1554, "end_count": 508, "combined_count": 2062, "name": "Bancroft Way at College Ave", "lat": 37.8693603, "long": -122.2543374 }, "geometry": { "type": "Point", "coordinates": [ -122.2543374, 37.8693603 ] } },
{ "type": "Feature", "properties": { "id": "BK-D2", "start_count": 554, "end_count": 666, "combined_count": 1220, "name": "10th St at University Ave", "lat": 37.869060475453928, "long": -122.29339957237242 }, "geometry": { "type": "Point", "coordinates": [ -122.293399572372422, 37.869060475453928 ] } },
{ "type": "Feature", "properties": { "id": "BK-D4", "start_count": 531, "end_count": 649, "combined_count": 1180, "name": "West St at University Ave", "lat": 37.869966, "long": -122.286533 }, "geometry": { "type": "Point", "coordinates": [ -122.286533, 37.869966 ] } },
{ "type": "Feature", "properties": { "id": "BK-D5", "start_count": 483, "end_count": 697, "combined_count": 1180, "name": "California St at University Ave", "lat": 37.870555, "long": -122.27972 }, "geometry": { "type": "Point", "coordinates": [ -122.27972, 37.870555 ] } },
{ "type": "Feature", "properties": { "id": "BK-D7-1", "start_count": 1210, "end_count": 1481, "combined_count": 2691, "name": "Downtown Berkeley BART", "lat": 37.870139, "long": -122.268422 }, "geometry": { "type": "Point", "coordinates": [ -122.268422, 37.870139 ] } },
{ "type": "Feature", "properties": { "id": "BK-D7-2", "start_count": 787, "end_count": 919, "combined_count": 1706, "name": "Berkeley Civic Center", "lat": 37.8690599, "long": -122.270556 }, "geometry": { "type": "Point", "coordinates": [ -122.270556, 37.8690599 ] } },
{ "type": "Feature", "properties": { "id": "BK-E10", "start_count": 929, "end_count": 381, "combined_count": 1310, "name": "Haste St at College Ave", "lat": 37.86641794050319, "long": -122.25379943847656 }, "geometry": { "type": "Point", "coordinates": [ -122.253799438476562, 37.86641794050319 ] } },
{ "type": "Feature", "properties": { "id": "BK-E2", "start_count": 363, "end_count": 479, "combined_count": 842, "name": "Channing Way at San Pablo Ave", "lat": 37.8628271, "long": -122.2902305 }, "geometry": { "type": "Point", "coordinates": [ -122.2902305, 37.8628271 ] } },
{ "type": "Feature", "properties": { "id": "BK-E7", "start_count": 1366, "end_count": 1343, "combined_count": 2709, "name": "Channing Way at Shattuck Ave", "lat": 37.8658466, "long": -122.2674431 }, "geometry": { "type": "Point", "coordinates": [ -122.2674431, 37.8658466 ] } },
{ "type": "Feature", "properties": { "id": "BK-E8", "start_count": 640, "end_count": 654, "combined_count": 1294, "name": "Fulton St at Bancroft Way", "lat": 37.8677892, "long": -122.2658964 }, "geometry": { "type": "Point", "coordinates": [ -122.2658964, 37.8677892 ] } },
{ "type": "Feature", "properties": { "id": "BK-E9-1", "start_count": 1716, "end_count": 1332, "combined_count": 3048, "name": "Bancroft Way at Telegraph Ave", "lat": 37.868812, "long": -122.258764 }, "geometry": { "type": "Point", "coordinates": [ -122.258764, 37.868812 ] } },
{ "type": "Feature", "properties": { "id": "BK-E9-2", "start_count": 1146, "end_count": 894, "combined_count": 2040, "name": "Haste St at Telegraph Ave", "lat": 37.8660431, "long": -122.2588044 }, "geometry": { "type": "Point", "coordinates": [ -122.2588044, 37.8660431 ] } },
{ "type": "Feature", "properties": { "id": "BK-F10", "start_count": 888, "end_count": 534, "combined_count": 1422, "name": "Derby St at College Ave", "lat": 37.8618037, "long": -122.2535687 }, "geometry": { "type": "Point", "coordinates": [ -122.2535687, 37.8618037 ] } },
{ "type": "Feature", "properties": { "id": "BK-F2", "start_count": 263, "end_count": 361, "combined_count": 624, "name": "Ninth St at Parker St", "lat": 37.858868, "long": -122.291209 }, "geometry": { "type": "Point", "coordinates": [ -122.291209, 37.858868 ] } },
{ "type": "Feature", "properties": { "id": "BK-F7", "start_count": 544, "end_count": 616, "combined_count": 1160, "name": "Milvia St at Derby St", "lat": 37.860124, "long": -122.269384 }, "geometry": { "type": "Point", "coordinates": [ -122.269384, 37.860124 ] } },
{ "type": "Feature", "properties": { "id": "BK-F8", "start_count": 1495, "end_count": 1540, "combined_count": 3035, "name": "Parker St at Fulton St", "lat": 37.8624644, "long": -122.2647911 }, "geometry": { "type": "Point", "coordinates": [ -122.2647911, 37.8624644 ] } },
{ "type": "Feature", "properties": { "id": "BK-G4", "start_count": 505, "end_count": 693, "combined_count": 1198, "name": "San Pablo Park", "lat": 37.855783, "long": -122.283126 }, "geometry": { "type": "Point", "coordinates": [ -122.283126, 37.855783 ] } },
{ "type": "Feature", "properties": { "id": "BK-G7", "start_count": 903, "end_count": 1044, "combined_count": 1947, "name": "Oregon St at Adeline St", "lat": 37.857567, "long": -122.267558 }, "geometry": { "type": "Point", "coordinates": [ -122.267558, 37.857567 ] } },
{ "type": "Feature", "properties": { "id": "BK-G8", "start_count": 470, "end_count": 429, "combined_count": 899, "name": "Ellsworth St at Russell St", "lat": 37.857490214571527, "long": -122.26157784461977 }, "geometry": { "type": "Point", "coordinates": [ -122.261577844619765, 37.857490214571527 ] } },
{ "type": "Feature", "properties": { "id": "BK-G9", "start_count": 1173, "end_count": 822, "combined_count": 1995, "name": "Telegraph Ave at Carleton St", "lat": 37.8623199, "long": -122.258801 }, "geometry": { "type": "Point", "coordinates": [ -122.258801, 37.8623199 ] } },
{ "type": "Feature", "properties": { "id": "BK-H10", "start_count": 801, "end_count": 654, "combined_count": 1455, "name": "Russell St at College Ave", "lat": 37.8584732, "long": -122.2532529 }, "geometry": { "type": "Point", "coordinates": [ -122.2532529, 37.8584732 ] } },
{ "type": "Feature", "properties": { "id": "BK-H3", "start_count": 437, "end_count": 503, "combined_count": 940, "name": "Ninth St at Heinz Ave", "lat": 37.853906961643801, "long": -122.2896981239319 }, "geometry": { "type": "Point", "coordinates": [ -122.289698123931899, 37.853906961643801 ] } },
{ "type": "Feature", "properties": { "id": "BK-H6", "start_count": 643, "end_count": 637, "combined_count": 1280, "name": "Ashby BART Station", "lat": 37.852477, "long": -122.270213 }, "geometry": { "type": "Point", "coordinates": [ -122.270213, 37.852477 ] } },
{ "type": "Feature", "properties": { "id": "BK-H8", "start_count": 298, "end_count": 286, "combined_count": 584, "name": "Fulton St at Ashby Ave", "lat": 37.855573661828792, "long": -122.2635653614998 }, "geometry": { "type": "Point", "coordinates": [ -122.263565361499801, 37.855573661828792 ] } },
{ "type": "Feature", "properties": { "id": "BK-H9", "start_count": 843, "end_count": 765, "combined_count": 1608, "name": "Telegraph Ave at Ashby Ave", "lat": 37.855955, "long": -122.259794 }, "geometry": { "type": "Point", "coordinates": [ -122.259794, 37.855955 ] } },
{ "type": "Feature", "properties": { "id": "BK-I5", "start_count": 994, "end_count": 1098, "combined_count": 2092, "name": "Woolsey St at Sacramento St", "lat": 37.8505777, "long": -122.2781754 }, "geometry": { "type": "Point", "coordinates": [ -122.2781754, 37.8505777 ] } },
{ "type": "Feature", "properties": { "id": "BK-I6", "start_count": 372, "end_count": 424, "combined_count": 796, "name": "Harmon St at Adeline St", "lat": 37.849735, "long": -122.270582 }, "geometry": { "type": "Point", "coordinates": [ -122.270582, 37.849735 ] } },
{ "type": "Feature", "properties": { "id": "EM-1", "start_count": 0, "end_count": 2, "combined_count": 2, "name": "Emeryville Depot", "lat": 37.830296182687, "long": -122.2894299030304 }, "geometry": { "type": "Point", "coordinates": [ -122.289429903030396, 37.830296182687 ] } },
{ "type": "Feature", "properties": { "id": "EM-A1", "start_count": 312, "end_count": 354, "combined_count": 666, "name": "59th St at Horton St", "lat": 37.8409452, "long": -122.2913604 }, "geometry": { "type": "Point", "coordinates": [ -122.2913604, 37.8409452 ] } },
{ "type": "Feature", "properties": { "id": "EM-A2", "start_count": 477, "end_count": 486, "combined_count": 963, "name": "Doyle St at 59th St", "lat": 37.841923, "long": -122.288045 }, "geometry": { "type": "Point", "coordinates": [ -122.288045, 37.841923 ] } },
{ "type": "Feature", "properties": { "id": "EM-B0-2", "start_count": 320, "end_count": 278, "combined_count": 598, "name": "2100 Powell St", "lat": 37.839543, "long": -122.298717 }, "geometry": { "type": "Point", "coordinates": [ -122.298717, 37.839543 ] } },
{ "type": "Feature", "properties": { "id": "EM-B1", "start_count": 461, "end_count": 624, "combined_count": 1085, "name": "Emeryville Public Market", "lat": 37.840521, "long": -122.293528 }, "geometry": { "type": "Point", "coordinates": [ -122.293528, 37.840521 ] } },
{ "type": "Feature", "properties": { "id": "EM-B2", "start_count": 306, "end_count": 368, "combined_count": 674, "name": "Stanford Ave at Hollis St", "lat": 37.838443, "long": -122.288664 }, "geometry": { "type": "Point", "coordinates": [ -122.288664, 37.838443 ] } },
{ "type": "Feature", "properties": { "id": "EM-C1", "start_count": 323, "end_count": 344, "combined_count": 667, "name": "65th St at Hollis St", "lat": 37.846784, "long": -122.291376 }, "geometry": { "type": "Point", "coordinates": [ -122.291376, 37.846784 ] } },
{ "type": "Feature", "properties": { "id": "EM-C2", "start_count": 63, "end_count": 58, "combined_count": 121, "name": "53rd St at Hollis St", "lat": 37.836182, "long": -122.28718 }, "geometry": { "type": "Point", "coordinates": [ -122.28718, 37.836182 ] } },
{ "type": "Feature", "properties": { "id": "EM-C3", "start_count": 123, "end_count": 126, "combined_count": 249, "name": "47th St at San Pablo Ave", "lat": 37.835632204585181, "long": -122.28105068206789 }, "geometry": { "type": "Point", "coordinates": [ -122.281050682067885, 37.835632204585181 ] } },
{ "type": "Feature", "properties": { "id": "EM-D2", "start_count": 593, "end_count": 717, "combined_count": 1310, "name": "Horton St at 40th St", "lat": 37.8297046, "long": -122.2876102 }, "geometry": { "type": "Point", "coordinates": [ -122.2876102, 37.8297046 ] } },
{ "type": "Feature", "properties": { "id": "EM-D3", "start_count": 165, "end_count": 204, "combined_count": 369, "name": "Emeryville Town Hall", "lat": 37.8312752, "long": -122.2856333 }, "geometry": { "type": "Point", "coordinates": [ -122.2856333, 37.8312752 ] } },
{ "type": "Feature", "properties": { "id": "EM-D4", "start_count": 350, "end_count": 408, "combined_count": 758, "name": "Adeline St at 40th St", "lat": 37.8312769, "long": -122.2782669 }, "geometry": { "type": "Point", "coordinates": [ -122.2782669, 37.8312769 ] } },
{ "type": "Feature", "properties": { "id": "OK-A2", "start_count": 313, "end_count": 344, "combined_count": 657, "name": "Telegraph Ave at Alcatraz Ave", "lat": 37.850221, "long": -122.260172 }, "geometry": { "type": "Point", "coordinates": [ -122.260172, 37.850221 ] } },
{ "type": "Feature", "properties": { "id": "OK-A4", "start_count": 318, "end_count": 257, "combined_count": 575, "name": "College Ave at Harwood Ave", "lat": 37.848152, "long": -122.252159 }, "geometry": { "type": "Point", "coordinates": [ -122.252159, 37.848152 ] } },
{ "type": "Feature", "properties": { "id": "OK-B1", "start_count": 393, "end_count": 475, "combined_count": 868, "name": "Alcatraz Ave at Shattuck Ave", "lat": 37.849594, "long": -122.265568 }, "geometry": { "type": "Point", "coordinates": [ -122.265568, 37.849594 ] } },
{ "type": "Feature", "properties": { "id": "OK-B2", "start_count": 280, "end_count": 322, "combined_count": 602, "name": "Bushrod Park", "lat": 37.8465156, "long": -122.2653043 }, "geometry": { "type": "Point", "coordinates": [ -122.2653043, 37.8465156 ] } },
{ "type": "Feature", "properties": { "id": "OK-B3", "start_count": 156, "end_count": 144, "combined_count": 300, "name": "Telegraph Ave at 58th St", "lat": 37.8444927, "long": -122.261351 }, "geometry": { "type": "Point", "coordinates": [ -122.261351, 37.8444927 ] } },
{ "type": "Feature", "properties": { "id": "OK-B4", "start_count": 930, "end_count": 865, "combined_count": 1795, "name": "Rockridge BART Station", "lat": 37.844278753990672, "long": -122.251900434494 }, "geometry": { "type": "Point", "coordinates": [ -122.251900434494004, 37.844278753990672 ] } },
{ "type": "Feature", "properties": { "id": "OK-B5", "start_count": 293, "end_count": 304, "combined_count": 597, "name": "College Ave at Taft Ave", "lat": 37.8417999, "long": -122.2515349 }, "geometry": { "type": "Point", "coordinates": [ -122.2515349, 37.8417999 ] } },
{ "type": "Feature", "properties": { "id": "OK-C2", "start_count": 226, "end_count": 240, "combined_count": 466, "name": "Dover St at 57th St", "lat": 37.842629, "long": -122.267738 }, "geometry": { "type": "Point", "coordinates": [ -122.267738, 37.842629 ] } },
{ "type": "Feature", "properties": { "id": "OK-C3", "start_count": 322, "end_count": 318, "combined_count": 640, "name": "55th St at Telegraph Ave", "lat": 37.840185, "long": -122.261822 }, "geometry": { "type": "Point", "coordinates": [ -122.261822, 37.840185 ] } },
{ "type": "Feature", "properties": { "id": "OK-C4", "start_count": 505, "end_count": 426, "combined_count": 931, "name": "Miles Ave at Cavour St", "lat": 37.8388, "long": -122.258732 }, "geometry": { "type": "Point", "coordinates": [ -122.258732, 37.8388 ] } },
{ "type": "Feature", "properties": { "id": "OK-C5", "start_count": 215, "end_count": 206, "combined_count": 421, "name": "College Ave at Bryant Ave", "lat": 37.838126, "long": -122.251271 }, "geometry": { "type": "Point", "coordinates": [ -122.251271, 37.838126 ] } },
{ "type": "Feature", "properties": { "id": "OK-D2", "start_count": 442, "end_count": 452, "combined_count": 894, "name": "Genoa St at 55th St", "lat": 37.8396488, "long": -122.2717561 }, "geometry": { "type": "Point", "coordinates": [ -122.2717561, 37.8396488 ] } },
{ "type": "Feature", "properties": { "id": "OK-D3-1", "start_count": 335, "end_count": 347, "combined_count": 682, "name": "Shattuck Ave at 55th St", "lat": 37.8403643, "long": -122.2644881 }, "geometry": { "type": "Point", "coordinates": [ -122.2644881, 37.8403643 ] } },
{ "type": "Feature", "properties": { "id": "OK-D3-2", "start_count": 266, "end_count": 262, "combined_count": 528, "name": "Shattuck Ave at 51st St", "lat": 37.8368013, "long": -122.2640037 }, "geometry": { "type": "Point", "coordinates": [ -122.2640037, 37.8368013 ] } },
{ "type": "Feature", "properties": { "id": "OK-D4", "start_count": 486, "end_count": 622, "combined_count": 1108, "name": "49th St at Telegraph Ave", "lat": 37.8359455, "long": -122.2623663 }, "geometry": { "type": "Point", "coordinates": [ -122.2623663, 37.8359455 ] } },
{ "type": "Feature", "properties": { "id": "OK-D5", "start_count": 377, "end_count": 286, "combined_count": 663, "name": "Broadway at Coronado Ave", "lat": 37.8357883, "long": -122.2516207 }, "geometry": { "type": "Point", "coordinates": [ -122.2516207, 37.8357883 ] } },
{ "type": "Feature", "properties": { "id": "OK-E2", "start_count": 186, "end_count": 200, "combined_count": 386, "name": "Market St at 45th St", "lat": 37.834174, "long": -122.272968 }, "geometry": { "type": "Point", "coordinates": [ -122.272968, 37.834174 ] } },
{ "type": "Feature", "properties": { "id": "OK-E3", "start_count": 98, "end_count": 101, "combined_count": 199, "name": "45th St at MLK Jr Way", "lat": 37.833558, "long": -122.267418 }, "geometry": { "type": "Point", "coordinates": [ -122.267418, 37.833558 ] } },
{ "type": "Feature", "properties": { "id": "OK-E4", "start_count": 462, "end_count": 461, "combined_count": 923, "name": "Shattuck Ave at Telegraph Ave", "lat": 37.8332786, "long": -122.2634901 }, "geometry": { "type": "Point", "coordinates": [ -122.2634901, 37.8332786 ] } },
{ "type": "Feature", "properties": { "id": "OK-E5", "start_count": 258, "end_count": 259, "combined_count": 517, "name": "45th St at Manila", "lat": 37.833293522232097, "long": -122.25622415542604 }, "geometry": { "type": "Point", "coordinates": [ -122.25622415542604, 37.833293522232097 ] } },
{ "type": "Feature", "properties": { "id": "OK-F3", "start_count": 239, "end_count": 192, "combined_count": 431, "name": "West St at 40th St", "lat": 37.8302232, "long": -122.2709501 }, "geometry": { "type": "Point", "coordinates": [ -122.2709501, 37.8302232 ] } },
{ "type": "Feature", "properties": { "id": "OK-F4", "start_count": 1246, "end_count": 1161, "combined_count": 2407, "name": "MacArthur BART Station", "lat": 37.828409973058527, "long": -122.26631462574004 }, "geometry": { "type": "Point", "coordinates": [ -122.266314625740037, 37.828409973058527 ] } },
{ "type": "Feature", "properties": { "id": "OK-F5", "start_count": 828, "end_count": 849, "combined_count": 1677, "name": "Broadway at 40th St", "lat": 37.8277573, "long": -122.2567156 }, "geometry": { "type": "Point", "coordinates": [ -122.2567156, 37.8277573 ] } },
{ "type": "Feature", "properties": { "id": "OK-G2", "start_count": 380, "end_count": 388, "combined_count": 768, "name": "Market St at 40th St", "lat": 37.8305452, "long": -122.2739367 }, "geometry": { "type": "Point", "coordinates": [ -122.2739367, 37.8305452 ] } },
{ "type": "Feature", "properties": { "id": "OK-G3", "start_count": 454, "end_count": 462, "combined_count": 916, "name": "37th St at West St", "lat": 37.826695, "long": -122.271797 }, "geometry": { "type": "Point", "coordinates": [ -122.271797, 37.826695 ] } },
{ "type": "Feature", "properties": { "id": "OK-G4", "start_count": 424, "end_count": 401, "combined_count": 825, "name": "MacArthur Blvd at Telegraph Ave", "lat": 37.8262863, "long": -122.2651002 }, "geometry": { "type": "Point", "coordinates": [ -122.2651002, 37.8262863 ] } },
{ "type": "Feature", "properties": { "id": "OK-G5", "start_count": 820, "end_count": 868, "combined_count": 1688, "name": "Mosswood Park", "lat": 37.824892, "long": -122.260436 }, "geometry": { "type": "Point", "coordinates": [ -122.260436, 37.824892 ] } },
{ "type": "Feature", "properties": { "id": "OK-H2", "start_count": 143, "end_count": 177, "combined_count": 320, "name": "32nd St at Adeline St", "lat": 37.823847, "long": -122.281192 }, "geometry": { "type": "Point", "coordinates": [ -122.281192, 37.823847 ] } },
{ "type": "Feature", "properties": { "id": "OK-H3", "start_count": 336, "end_count": 391, "combined_count": 727, "name": "Market St at Brockhurst St", "lat": 37.823321, "long": -122.275732 }, "geometry": { "type": "Point", "coordinates": [ -122.275732, 37.823321 ] } },
{ "type": "Feature", "properties": { "id": "OK-H4-3", "start_count": 376, "end_count": 380, "combined_count": 756, "name": "34th St at Telegraph Ave", "lat": 37.8225475, "long": -122.2663179 }, "geometry": { "type": "Point", "coordinates": [ -122.2663179, 37.8225475 ] } },
{ "type": "Feature", "properties": { "id": "OK-H5", "start_count": 1317, "end_count": 1229, "combined_count": 2546, "name": "Broadway at 30th St", "lat": 37.8193814, "long": -122.2619284 }, "geometry": { "type": "Point", "coordinates": [ -122.2619284, 37.8193814 ] } },
{ "type": "Feature", "properties": { "id": "OK-H9-1", "start_count": 1053, "end_count": 1224, "combined_count": 2277, "name": "Grand Ave at Santa Clara Ave", "lat": 37.8127441, "long": -122.2472152 }, "geometry": { "type": "Point", "coordinates": [ -122.2472152, 37.8127441 ] } },
{ "type": "Feature", "properties": { "id": "OK-H9-2", "start_count": 786, "end_count": 884, "combined_count": 1670, "name": "Lakeshore Ave at Trestle Glen Rd", "lat": 37.8110807, "long": -122.2432677 }, "geometry": { "type": "Point", "coordinates": [ -122.2432677, 37.8110807 ] } },
{ "type": "Feature", "properties": { "id": "OK-I3", "start_count": 263, "end_count": 265, "combined_count": 528, "name": "San Pablo Ave at 27th St", "lat": 37.817826, "long": -122.275697 }, "geometry": { "type": "Point", "coordinates": [ -122.275697, 37.817826 ] } },
{ "type": "Feature", "properties": { "id": "OK-I4", "start_count": 173, "end_count": 168, "combined_count": 341, "name": "27th St at MLK Jr Way", "lat": 37.817015, "long": -122.271761 }, "geometry": { "type": "Point", "coordinates": [ -122.271761, 37.817015 ] } },
{ "type": "Feature", "properties": { "id": "OK-I5", "start_count": 370, "end_count": 427, "combined_count": 797, "name": "Telegraph Ave at 27th St", "lat": 37.816073115011406, "long": -122.26788640022278 }, "geometry": { "type": "Point", "coordinates": [ -122.267886400222778, 37.816073115011406 ] } },
{ "type": "Feature", "properties": { "id": "OK-I6", "start_count": 1764, "end_count": 1807, "combined_count": 3571, "name": "Bay Pl at Vernon St", "lat": 37.81231409135146, "long": -122.26077854633331 }, "geometry": { "type": "Point", "coordinates": [ -122.260778546333313, 37.81231409135146 ] } },
{ "type": "Feature", "properties": { "id": "OK-I8", "start_count": 1827, "end_count": 2031, "combined_count": 3858, "name": "Grand Ave at Perkins St", "lat": 37.808893, "long": -122.25646 }, "geometry": { "type": "Point", "coordinates": [ -122.25646, 37.808893 ] } },
{ "type": "Feature", "properties": { "id": "OK-I9", "start_count": 2558, "end_count": 2746, "combined_count": 5304, "name": "El Embarcadero at Grand Ave", "lat": 37.808847, "long": -122.249679 }, "geometry": { "type": "Point", "coordinates": [ -122.249679, 37.808847 ] } },
{ "type": "Feature", "properties": { "id": "OK-J3", "start_count": 141, "end_count": 182, "combined_count": 323, "name": "24th St at Market St", "lat": 37.8160598, "long": -122.2782444 }, "geometry": { "type": "Point", "coordinates": [ -122.2782444, 37.8160598 ] } },
{ "type": "Feature", "properties": { "id": "OK-J4", "start_count": 391, "end_count": 407, "combined_count": 798, "name": "Isabella St at San Pablo Ave", "lat": 37.814988230424163, "long": -122.2748440504074 }, "geometry": { "type": "Point", "coordinates": [ -122.274844050407395, 37.814988230424163 ] } },
{ "type": "Feature", "properties": { "id": "OK-J5", "start_count": 1022, "end_count": 1018, "combined_count": 2040, "name": "Telegraph Ave at 23rd St", "lat": 37.812678, "long": -122.268772 }, "geometry": { "type": "Point", "coordinates": [ -122.268772, 37.812678 ] } },
{ "type": "Feature", "properties": { "id": "OK-J6-1", "start_count": 1015, "end_count": 993, "combined_count": 2008, "name": "Grand Ave at Webster St", "lat": 37.811377, "long": -122.265193 }, "geometry": { "type": "Point", "coordinates": [ -122.265193, 37.811377 ] } },
{ "type": "Feature", "properties": { "id": "OK-J6-2", "start_count": 970, "end_count": 941, "combined_count": 1911, "name": "Snow Park", "lat": 37.807813182179032, "long": -122.26449608802795 }, "geometry": { "type": "Point", "coordinates": [ -122.264496088027954, 37.807813182179032 ] } },
{ "type": "Feature", "properties": { "id": "OK-K2", "start_count": 151, "end_count": 204, "combined_count": 355, "name": "DeFremery Park", "lat": 37.812331, "long": -122.285171 }, "geometry": { "type": "Point", "coordinates": [ -122.285171, 37.812331 ] } },
{ "type": "Feature", "properties": { "id": "OK-K3", "start_count": 20, "end_count": 33, "combined_count": 53, "name": "Marston Campbell Park", "lat": 37.809823, "long": -122.280192 }, "geometry": { "type": "Point", "coordinates": [ -122.280192, 37.809823 ] } },
{ "type": "Feature", "properties": { "id": "OK-K4", "start_count": 412, "end_count": 422, "combined_count": 834, "name": "San Pablo Ave at MLK Jr Way", "lat": 37.8113514, "long": -122.2734217 }, "geometry": { "type": "Point", "coordinates": [ -122.2734217, 37.8113514 ] } },
{ "type": "Feature", "properties": { "id": "OK-K5-1", "start_count": 1097, "end_count": 995, "combined_count": 2092, "name": "Telegraph Ave at 19th St", "lat": 37.808702, "long": -122.269927 }, "geometry": { "type": "Point", "coordinates": [ -122.269927, 37.808702 ] } },
{ "type": "Feature", "properties": { "id": "OK-K5-2", "start_count": 878, "end_count": 972, "combined_count": 1850, "name": "19th Street BART Station", "lat": 37.809368612134847, "long": -122.26795077323914 }, "geometry": { "type": "Point", "coordinates": [ -122.267950773239136, 37.809368612134847 ] } },
{ "type": "Feature", "properties": { "id": "OK-K6", "start_count": 162, "end_count": 168, "combined_count": 330, "name": "Webster St at 19th St", "lat": 37.806969, "long": -122.266588 }, "geometry": { "type": "Point", "coordinates": [ -122.266588, 37.806969 ] } },
{ "type": "Feature", "properties": { "id": "OK-K7", "start_count": 1277, "end_count": 1097, "combined_count": 2374, "name": "Madison St at 17th St", "lat": 37.804036, "long": -122.262409 }, "geometry": { "type": "Point", "coordinates": [ -122.262409, 37.804036 ] } },
{ "type": "Feature", "properties": { "id": "OK-K9", "start_count": 1159, "end_count": 1211, "combined_count": 2370, "name": "2nd Ave at E 18th St", "lat": 37.800213, "long": -122.25381 }, "geometry": { "type": "Point", "coordinates": [ -122.25381, 37.800213 ] } },
{ "type": "Feature", "properties": { "id": "OK-L10", "start_count": 94, "end_count": 102, "combined_count": 196, "name": "6th Ave at E 12th St (Temporary Location)", "lat": 37.794396, "long": -122.253842 }, "geometry": { "type": "Point", "coordinates": [ -122.253842, 37.794396 ] } },
{ "type": "Feature", "properties": { "id": "OK-L11", "start_count": 28, "end_count": 29, "combined_count": 57, "name": "10th Ave at E 15th St", "lat": 37.792714, "long": -122.248779 }, "geometry": { "type": "Point", "coordinates": [ -122.248779, 37.792714 ] } },
{ "type": "Feature", "properties": { "id": "OK-L12", "start_count": 76, "end_count": 90, "combined_count": 166, "name": "San Antonio Park", "lat": 37.790139851853638, "long": -122.24237322807312 }, "geometry": { "type": "Point", "coordinates": [ -122.24237322807312, 37.790139851853638 ] } },
{ "type": "Feature", "properties": { "id": "OK-L13", "start_count": 914, "end_count": 933, "combined_count": 1847, "name": "21st St at 5th Ave", "lat": 37.800459411713945, "long": -122.24745869636536 }, "geometry": { "type": "Point", "coordinates": [ -122.247458696365356, 37.800459411713945 ] } },
{ "type": "Feature", "properties": { "id": "OK-L14", "start_count": 132, "end_count": 161, "combined_count": 293, "name": "23rd Ave at Foothill Blvd", "lat": 37.785191, "long": -122.234382 }, "geometry": { "type": "Point", "coordinates": [ -122.234382, 37.785191 ] } },
{ "type": "Feature", "properties": { "id": "OK-L15", "start_count": 8, "end_count": 11, "combined_count": 19, "name": "26th Ave at International Blvd", "lat": 37.781123, "long": -122.232991 }, "geometry": { "type": "Point", "coordinates": [ -122.232991, 37.781123 ] } },
{ "type": "Feature", "properties": { "id": "OK-L16", "start_count": 107, "end_count": 104, "combined_count": 211, "name": "Foothill Blvd at Fruitvale Ave", "lat": 37.783756, "long": -122.222603 }, "geometry": { "type": "Point", "coordinates": [ -122.222603, 37.783756 ] } },
{ "type": "Feature", "properties": { "id": "OK-L17", "start_count": 32, "end_count": 37, "combined_count": 69, "name": "Foothill Blvd at Harrington Ave", "lat": 37.77993, "long": -122.217728 }, "geometry": { "type": "Point", "coordinates": [ -122.217728, 37.77993 ] } },
{ "type": "Feature", "properties": { "id": "OK-L19", "start_count": 14, "end_count": 27, "combined_count": 41, "name": "Bond St at High St", "lat": 37.774152, "long": -122.212398 }, "geometry": { "type": "Point", "coordinates": [ -122.212398, 37.774152 ] } },
{ "type": "Feature", "properties": { "id": "OK-L2", "start_count": 538, "end_count": 565, "combined_count": 1103, "name": "14th St at Mandela Pkwy", "lat": 37.810743, "long": -122.291415 }, "geometry": { "type": "Point", "coordinates": [ -122.291415, 37.810743 ] } },
{ "type": "Feature", "properties": { "id": "OK-L3", "start_count": 265, "end_count": 310, "combined_count": 575, "name": "14th St at Filbert St", "lat": 37.80874983465997, "long": -122.28328227996823 }, "geometry": { "type": "Point", "coordinates": [ -122.283282279968233, 37.80874983465997 ] } },
{ "type": "Feature", "properties": { "id": "OK-L4", "start_count": 536, "end_count": 480, "combined_count": 1016, "name": "MLK Jr Way at 14th St", "lat": 37.806162, "long": -122.27604 }, "geometry": { "type": "Point", "coordinates": [ -122.27604, 37.806162 ] } },
{ "type": "Feature", "properties": { "id": "OK-L5", "start_count": 746, "end_count": 779, "combined_count": 1525, "name": "Frank H Ogawa Plaza", "lat": 37.804562, "long": -122.271738 }, "geometry": { "type": "Point", "coordinates": [ -122.271738, 37.804562 ] } },
{ "type": "Feature", "properties": { "id": "OK-L6", "start_count": 428, "end_count": 410, "combined_count": 838, "name": "13th St at Franklin St", "lat": 37.803189, "long": -122.270579 }, "geometry": { "type": "Point", "coordinates": [ -122.270579, 37.803189 ] } },
{ "type": "Feature", "properties": { "id": "OK-L6-2", "start_count": 4, "end_count": 7, "combined_count": 11, "name": "13th St at Webster St", "lat": 37.802688402040665, "long": -122.26914636790752 }, "geometry": { "type": "Point", "coordinates": [ -122.269146367907524, 37.802688402040665 ] } },
{ "type": "Feature", "properties": { "id": "OK-L7", "start_count": 437, "end_count": 433, "combined_count": 870, "name": "Jackson St at 11th St", "lat": 37.800001631188778, "long": -122.26643800735472 }, "geometry": { "type": "Point", "coordinates": [ -122.266438007354722, 37.800001631188778 ] } },
{ "type": "Feature", "properties": { "id": "OK-L7-2", "start_count": 1683, "end_count": 1599, "combined_count": 3282, "name": "Lakeside Dr at 14th St", "lat": 37.8013189, "long": -122.2626418 }, "geometry": { "type": "Point", "coordinates": [ -122.2626418, 37.8013189 ] } },
{ "type": "Feature", "properties": { "id": "OK-L8", "start_count": 325, "end_count": 335, "combined_count": 660, "name": "10th St at Fallon St", "lat": 37.7976728, "long": -122.2629973 }, "geometry": { "type": "Point", "coordinates": [ -122.2629973, 37.7976728 ] } },
{ "type": "Feature", "properties": { "id": "OK-L9", "start_count": 97, "end_count": 107, "combined_count": 204, "name": "4th Ave at E 12th St (Temporary Location)", "lat": 37.795913, "long": -122.255547 }, "geometry": { "type": "Point", "coordinates": [ -122.255547, 37.795913 ] } },
{ "type": "Feature", "properties": { "id": "OK-M1", "start_count": 1168, "end_count": 1152, "combined_count": 2320, "name": "West Oakland BART Station", "lat": 37.805318, "long": -122.294836 }, "geometry": { "type": "Point", "coordinates": [ -122.294836, 37.805318 ] } },
{ "type": "Feature", "properties": { "id": "OK-M16", "start_count": 76, "end_count": 64, "combined_count": 140, "name": "Fruitvale Ave at International Blvd", "lat": 37.778058, "long": -122.2254 }, "geometry": { "type": "Point", "coordinates": [ -122.2254, 37.778058 ] } },
{ "type": "Feature", "properties": { "id": "OK-M2", "start_count": 328, "end_count": 348, "combined_count": 676, "name": "Union St at 10th St", "lat": 37.807239, "long": -122.28937 }, "geometry": { "type": "Point", "coordinates": [ -122.28937, 37.807239 ] } },
{ "type": "Feature", "properties": { "id": "OK-M3", "start_count": 185, "end_count": 197, "combined_count": 382, "name": "Market St at 8th St", "lat": 37.8036865, "long": -122.282497 }, "geometry": { "type": "Point", "coordinates": [ -122.282497, 37.8036865 ] } },
{ "type": "Feature", "properties": { "id": "OK-M5", "start_count": 700, "end_count": 749, "combined_count": 1449, "name": "Washington St at 8th St", "lat": 37.8007544, "long": -122.2748943 }, "geometry": { "type": "Point", "coordinates": [ -122.2748943, 37.8007544 ] } },
{ "type": "Feature", "properties": { "id": "OK-M6", "start_count": 729, "end_count": 691, "combined_count": 1420, "name": "Franklin St at 9th St", "lat": 37.8005161, "long": -122.2720799 }, "geometry": { "type": "Point", "coordinates": [ -122.2720799, 37.8005161 ] } },
{ "type": "Feature", "properties": { "id": "OK-M7", "start_count": 1228, "end_count": 981, "combined_count": 2209, "name": "Lake Merritt BART Station", "lat": 37.7973195, "long": -122.2653199 }, "geometry": { "type": "Point", "coordinates": [ -122.2653199, 37.7973195 ] } },
{ "type": "Feature", "properties": { "id": "OK-N17", "start_count": 220, "end_count": 213, "combined_count": 433, "name": "Fruitvale BART Station", "lat": 37.775232, "long": -122.224498 }, "geometry": { "type": "Point", "coordinates": [ -122.224498, 37.775232 ] } },
{ "type": "Feature", "properties": { "id": "OK-N6", "start_count": 867, "end_count": 981, "combined_count": 1848, "name": "Jack London Square", "lat": 37.796248, "long": -122.279352 }, "geometry": { "type": "Point", "coordinates": [ -122.279352, 37.796248 ] } },
{ "type": "Feature", "properties": { "id": "OK-N7", "start_count": 724, "end_count": 826, "combined_count": 1550, "name": "Webster St at 2nd St", "lat": 37.795194764385954, "long": -122.27396965026855 }, "geometry": { "type": "Point", "coordinates": [ -122.273969650268555, 37.795194764385954 ] } }
]
}
