{
"type": "FeatureCollection",
"name": "stations_26",
"crs": { "type": "name", "properties": { "name": "urn:ogc:def:crs:OGC:1.3:CRS84" } },
"features": [
{ "type": "Feature", "properties": { "id": "BK-A7", "start_count": 544, "end_count": 552, "combined_count": 1096, "name": "Vine St at Shattuck Ave", "lat": 37.880222445906789, "long": -122.26959228515624, "sidewalk width": 8, "notes": null, "note": null }, "geometry": { "type": "Point", "coordinates": [ -122.269592285156236, 37.880222445906789 ] } },
{ "type": "Feature", "properties": { "id": "BK-B7", "start_count": 352, "end_count": 400, "combined_count": 752, "name": "Virginia St at Shattuck Ave", "lat": 37.876572549106847, "long": -122.26952791213988, "sidewalk width": 12, "notes": null, "note": null }, "geometry": { "type": "Point", "coordinates": [ -122.269527912139878, 37.876572549106847 ] } },
{ "type": "Feature", "properties": { "id": "BK-C1", "start_count": 278, "end_count": 330, "combined_count": 608, "name": "Fifth St at Delaware St", "lat": 37.870407115465376, "long": -122.29967594146729, "sidewalk width": 0, "notes": null, "note": null }, "geometry": { "type": "Point", "coordinates": [ -122.299675941467285, 37.870407115465376 ] } },
{ "type": "Feature", "properties": { "id": "BK-C5", "start_count": 536, "end_count": 455, "combined_count": 991, "name": "North Berkeley BART", "lat": 37.873855699812196, "long": -122.28298832384976, "sidewalk width": 10, "notes": "east sidewalk", "note": null }, "geometry": { "type": "Point", "coordinates": [ -122.282988323849764, 37.873855699812196 ] } },
{ "type": "Feature", "properties": { "id": "BK-C6", "start_count": 567, "end_count": 598, "combined_count": 1165, "name": "MLK Jr Way at University Ave", "lat": 37.8717192, "long": -122.2730677, "sidewalk width": 9, "notes": null, "note": null }, "geometry": { "type": "Point", "coordinates": [ -122.2730677, 37.8717192 ] } },
{ "type": "Feature", "properties": { "id": "BK-C7", "start_count": 686, "end_count": 709, "combined_count": 1395, "name": "Shattuck Ave at Hearst Ave", "lat": 37.873676214598248, "long": -122.26848721504211, "sidewalk width": 13, "notes": null, "note": "shattuck: 32ft" }, "geometry": { "type": "Point", "coordinates": [ -122.268487215042114, 37.873676214598248 ] } },
{ "type": "Feature", "properties": { "id": "BK-C9", "start_count": 1198, "end_count": 1070, "combined_count": 2268, "name": "Euclid Ave at Hearst Ave", "lat": 37.8753207, "long": -122.2601554, "sidewalk width": 11, "notes": null, "note": null }, "geometry": { "type": "Point", "coordinates": [ -122.2601554, 37.8753207 ] } },
{ "type": "Feature", "properties": { "id": "BK-D1", "start_count": 475, "end_count": 539, "combined_count": 1014, "name": "Addison St at Fourth St", "lat": 37.866249, "long": -122.2993708, "sidewalk width": 11, "notes": null, "note": null }, "geometry": { "type": "Point", "coordinates": [ -122.2993708, 37.866249 ] } },
{ "type": "Feature", "properties": { "id": "BK-D10", "start_count": 1674, "end_count": 1549, "combined_count": 3223, "name": "Bancroft Way at College Ave", "lat": 37.869394312305865, "long": -122.25433029666108, "sidewalk width": 10, "notes": "pedestrian surroundings", "note": null }, "geometry": { "type": "Point", "coordinates": [ -122.254330296661081, 37.869394312305865 ] } },
{ "type": "Feature", "properties": { "id": "BK-D2", "start_count": 129, "end_count": 183, "combined_count": 312, "name": "10th St at University Ave", "lat": 37.869068584123774, "long": -122.2934198434296, "sidewalk width": 10, "notes": null, "note": null }, "geometry": { "type": "Point", "coordinates": [ -122.293419843429604, 37.869068584123774 ] } },
{ "type": "Feature", "properties": { "id": "BK-D4", "start_count": 246, "end_count": 277, "combined_count": 523, "name": "West St at University Ave", "lat": 37.869966707604043, "long": -122.28653311729433, "sidewalk width": 9, "notes": null, "note": null }, "geometry": { "type": "Point", "coordinates": [ -122.286533117294326, 37.869966707604043 ] } },
{ "type": "Feature", "properties": { "id": "BK-D5", "start_count": 229, "end_count": 253, "combined_count": 482, "name": "Addison St at California St", "lat": 37.86972662872833, "long": -122.27938914547282, "sidewalk width": 12, "notes": null, "note": null }, "geometry": { "type": "Point", "coordinates": [ -122.27938914547282, 37.86972662872833 ] } },
{ "type": "Feature", "properties": { "id": "BK-D7-1", "start_count": 1659, "end_count": 1689, "combined_count": 3348, "name": "Downtown Berkeley BART", "lat": 37.870139, "long": -122.268422, "sidewalk width": 8, "notes": "pedestrian surroundings", "note": null }, "geometry": { "type": "Point", "coordinates": [ -122.268422, 37.870139 ] } },
{ "type": "Feature", "properties": { "id": "BK-D7-2", "start_count": 521, "end_count": 545, "combined_count": 1066, "name": "Berkeley Civic Center", "lat": 37.8690599, "long": -122.270556, "sidewalk width": 7, "notes": "pedestrian surrounding", "note": null }, "geometry": { "type": "Point", "coordinates": [ -122.270556, 37.8690599 ] } },
{ "type": "Feature", "properties": { "id": "BK-E10", "start_count": 125, "end_count": 109, "combined_count": 234, "name": "Haste St at College Ave", "lat": 37.866520986550398, "long": -122.2538440662579, "sidewalk width": 9, "notes": null, "note": null }, "geometry": { "type": "Point", "coordinates": [ -122.253844066257898, 37.866520986550398 ] } },
{ "type": "Feature", "properties": { "id": "BK-E3", "start_count": 333, "end_count": 374, "combined_count": 707, "name": "Channing Way at San Pablo Ave", "lat": 37.862817106708022, "long": -122.2902952903697, "sidewalk width": 10, "notes": null, "note": null }, "geometry": { "type": "Point", "coordinates": [ -122.290295290369698, 37.862817106708022 ] } },
{ "type": "Feature", "properties": { "id": "BK-E7", "start_count": 552, "end_count": 556, "combined_count": 1108, "name": "Channing Way at Shattuck Ave", "lat": 37.8658466, "long": -122.2674431, "sidewalk width": 12, "notes": null, "note": null }, "geometry": { "type": "Point", "coordinates": [ -122.2674431, 37.8658466 ] } },
{ "type": "Feature", "properties": { "id": "BK-E8", "start_count": 553, "end_count": 548, "combined_count": 1101, "name": "Fulton St at Bancroft Way", "lat": 37.868135281599706, "long": -122.26593686946156, "sidewalk width": 10, "notes": "middle of roads", "note": null }, "geometry": { "type": "Point", "coordinates": [ -122.265936869461555, 37.868135281599706 ] } },
{ "type": "Feature", "properties": { "id": "BK-E9-1", "start_count": 2023, "end_count": 1859, "combined_count": 3882, "name": "Bancroft Way at Telegraph Ave", "lat": 37.8689109, "long": -122.2587857, "sidewalk width": 20, "notes": "ped surroundings", "note": null }, "geometry": { "type": "Point", "coordinates": [ -122.2587857, 37.8689109 ] } },
{ "type": "Feature", "properties": { "id": "BK-E9-2", "start_count": 192, "end_count": 162, "combined_count": 354, "name": "Haste St at Telegraph Ave", "lat": 37.866057937975718, "long": -122.25883711768392, "sidewalk width": 9, "notes": null, "note": null }, "geometry": { "type": "Point", "coordinates": [ -122.258837117683925, 37.866057937975718 ] } },
{ "type": "Feature", "properties": { "id": "BK-F10", "start_count": 653, "end_count": 595, "combined_count": 1248, "name": "Derby St at College Ave", "lat": 37.86175955253551, "long": -122.25367726566596, "sidewalk width": 10, "notes": null, "note": "residential" }, "geometry": { "type": "Point", "coordinates": [ -122.253677265665956, 37.86175955253551 ] } },
{ "type": "Feature", "properties": { "id": "BK-F2", "start_count": 225, "end_count": 265, "combined_count": 490, "name": "Ninth St at Parker St", "lat": 37.8588682, "long": -122.2912095, "sidewalk width": 16, "notes": null, "note": null }, "geometry": { "type": "Point", "coordinates": [ -122.2912095, 37.8588682 ] } },
{ "type": "Feature", "properties": { "id": "BK-F7", "start_count": 424, "end_count": 440, "combined_count": 864, "name": "Milvia St at Derby St", "lat": 37.860124599116851, "long": -122.2693844139576, "sidewalk width": 10, "notes": null, "note": null }, "geometry": { "type": "Point", "coordinates": [ -122.269384413957596, 37.860124599116851 ] } },
{ "type": "Feature", "properties": { "id": "BK-F8", "start_count": 942, "end_count": 887, "combined_count": 1829, "name": "Parker St at Fulton St", "lat": 37.8624644, "long": -122.2647911, "sidewalk width": 10, "notes": null, "note": "residential yard" }, "geometry": { "type": "Point", "coordinates": [ -122.2647911, 37.8624644 ] } },
{ "type": "Feature", "properties": { "id": "BK-F9", "start_count": 573, "end_count": 508, "combined_count": 1081, "name": "Telegraph Ave at Carleton St", "lat": 37.861927508999997, "long": -122.258785129, "sidewalk width": 0, "notes": null, "note": null }, "geometry": { "type": "Point", "coordinates": [ -122.258785129, 37.861927509 ] } },
{ "type": "Feature", "properties": { "id": "BK-G10", "start_count": 594, "end_count": 582, "combined_count": 1176, "name": "Russell St at College Ave", "lat": 37.8584732, "long": -122.2532529, "sidewalk width": 0, "notes": null, "note": null }, "geometry": { "type": "Point", "coordinates": [ -122.2532529, 37.8584732 ] } },
{ "type": "Feature", "properties": { "id": "BK-G4", "start_count": 148, "end_count": 197, "combined_count": 345, "name": "San Pablo Park", "lat": 37.855783320301988, "long": -122.28312671184538, "sidewalk width": 0, "notes": null, "note": null }, "geometry": { "type": "Point", "coordinates": [ -122.283126711845384, 37.855783320301988 ] } },
{ "type": "Feature", "properties": { "id": "BK-G7", "start_count": 571, "end_count": 598, "combined_count": 1169, "name": "Oregon St at Adeline St", "lat": 37.8575672, "long": -122.2675583, "sidewalk width": 10, "notes": null, "note": "slow one way street" }, "geometry": { "type": "Point", "coordinates": [ -122.2675583, 37.8575672 ] } },
{ "type": "Feature", "properties": { "id": "BK-G8", "start_count": 263, "end_count": 261, "combined_count": 524, "name": "Ellsworth St at Russell St", "lat": 37.857607747399882, "long": -122.26160466670989, "sidewalk width": 0, "notes": null, "note": null }, "geometry": { "type": "Point", "coordinates": [ -122.261604666709886, 37.857607747399882 ] } },
{ "type": "Feature", "properties": { "id": "BK-H3", "start_count": 495, "end_count": 498, "combined_count": 993, "name": "Ninth St at Heinz Ave", "lat": 37.852997762978227, "long": -122.28944645338662, "sidewalk width": 0, "notes": null, "note": null }, "geometry": { "type": "Point", "coordinates": [ -122.289446453386617, 37.852997762978227 ] } },
{ "type": "Feature", "properties": { "id": "BK-H6", "start_count": 883, "end_count": 888, "combined_count": 1771, "name": "Ashby BART", "lat": 37.8524766, "long": -122.2702132, "sidewalk width": 11, "notes": null, "note": null }, "geometry": { "type": "Point", "coordinates": [ -122.2702132, 37.8524766 ] } },
{ "type": "Feature", "properties": { "id": "BK-H8", "start_count": 264, "end_count": 251, "combined_count": 515, "name": "Fulton St at Ashby Ave", "lat": 37.855573661828792, "long": -122.2635653614998, "sidewalk width": 0, "notes": null, "note": null }, "geometry": { "type": "Point", "coordinates": [ -122.263565361499801, 37.855573661828792 ] } },
{ "type": "Feature", "properties": { "id": "BK-H9", "start_count": 428, "end_count": 417, "combined_count": 845, "name": "Telegraph Ave at Ashby Ave", "lat": 37.8559558, "long": -122.2597949, "sidewalk width": 0, "notes": null, "note": null }, "geometry": { "type": "Point", "coordinates": [ -122.2597949, 37.8559558 ] } },
{ "type": "Feature", "properties": { "id": "BK-I10", "start_count": 414, "end_count": 374, "combined_count": 788, "name": "College Ave at Alcatraz Ave", "lat": 37.8513755, "long": -122.2525233, "sidewalk width": 0, "notes": null, "note": null }, "geometry": { "type": "Point", "coordinates": [ -122.2525233, 37.8513755 ] } },
{ "type": "Feature", "properties": { "id": "BK-I5", "start_count": 237, "end_count": 259, "combined_count": 496, "name": "Woolsey St at Sacramento St", "lat": 37.8505777, "long": -122.2781754, "sidewalk width": 0, "notes": null, "note": null }, "geometry": { "type": "Point", "coordinates": [ -122.2781754, 37.8505777 ] } },
{ "type": "Feature", "properties": { "id": "BK-I6", "start_count": 240, "end_count": 225, "combined_count": 465, "name": "Harmon St at Adeline St", "lat": 37.849735, "long": -122.270582, "sidewalk width": 0, "notes": null, "note": null }, "geometry": { "type": "Point", "coordinates": [ -122.270582, 37.849735 ] } },
{ "type": "Feature", "properties": { "id": "EM-1", "start_count": 1, "end_count": 0, "combined_count": 1, "name": "Emeryville Depot", "lat": 37.830296182687, "long": -122.2894299030304, "sidewalk width": 0, "notes": null, "note": null }, "geometry": { "type": "Point", "coordinates": [ -122.289429903030396, 37.830296182687 ] } },
{ "type": "Feature", "properties": { "id": "EM-A1", "start_count": 205, "end_count": 201, "combined_count": 406, "name": "59th St at Horton St", "lat": 37.84097755, "long": -122.29118073, "sidewalk width": 0, "notes": null, "note": null }, "geometry": { "type": "Point", "coordinates": [ -122.29118073, 37.84097755 ] } },
{ "type": "Feature", "properties": { "id": "EM-A2", "start_count": 105, "end_count": 142, "combined_count": 247, "name": "Doyle St at 59th St", "lat": 37.8419238, "long": -122.2880451, "sidewalk width": 0, "notes": null, "note": null }, "geometry": { "type": "Point", "coordinates": [ -122.2880451, 37.8419238 ] } },
{ "type": "Feature", "properties": { "id": "EM-AA2", "start_count": 47, "end_count": 56, "combined_count": 103, "name": "Vallejo St at 66th St", "lat": 37.848355963486441, "long": -122.28860894196281, "sidewalk width": 0, "notes": null, "note": null }, "geometry": { "type": "Point", "coordinates": [ -122.288608941962806, 37.848355963486441 ] } },
{ "type": "Feature", "properties": { "id": "EM-B0", "start_count": 50, "end_count": 47, "combined_count": 97, "name": "Powell St at Commodore Dr", "lat": 37.837025, "long": -122.304826, "sidewalk width": 0, "notes": null, "note": null }, "geometry": { "type": "Point", "coordinates": [ -122.304826, 37.837025 ] } },
{ "type": "Feature", "properties": { "id": "EM-B0-2", "start_count": 59, "end_count": 68, "combined_count": 127, "name": "2100 Powell St", "lat": 37.839543082665628, "long": -122.2987177222967, "sidewalk width": 0, "notes": null, "note": null }, "geometry": { "type": "Point", "coordinates": [ -122.298717722296701, 37.839543082665628 ] } },
{ "type": "Feature", "properties": { "id": "EM-B1", "start_count": 83, "end_count": 94, "combined_count": 177, "name": "Emeryville Public Market", "lat": 37.840521166949692, "long": -122.29352831840517, "sidewalk width": 0, "notes": null, "note": null }, "geometry": { "type": "Point", "coordinates": [ -122.293528318405166, 37.840521166949692 ] } },
{ "type": "Feature", "properties": { "id": "EM-B2", "start_count": 72, "end_count": 76, "combined_count": 148, "name": "Stanford Ave at Hollis St", "lat": 37.8384435, "long": -122.2886647, "sidewalk width": 0, "notes": null, "note": null }, "geometry": { "type": "Point", "coordinates": [ -122.2886647, 37.8384435 ] } },
{ "type": "Feature", "properties": { "id": "EM-C1", "start_count": 271, "end_count": 306, "combined_count": 577, "name": "65th St at Hollis St", "lat": 37.8467842, "long": -122.2913761, "sidewalk width": 0, "notes": null, "note": null }, "geometry": { "type": "Point", "coordinates": [ -122.2913761, 37.8467842 ] } },
{ "type": "Feature", "properties": { "id": "EM-C1-2", "start_count": 237, "end_count": 276, "combined_count": 513, "name": "Bay Street Plaza", "lat": 37.834574108061645, "long": -122.29206176011056, "sidewalk width": 0, "notes": null, "note": null }, "geometry": { "type": "Point", "coordinates": [ -122.292061760110556, 37.834574108061645 ] } },
{ "type": "Feature", "properties": { "id": "EM-C2", "start_count": 69, "end_count": 71, "combined_count": 140, "name": "53rd St at Hollis St", "lat": 37.8361823, "long": -122.2871801, "sidewalk width": 0, "notes": null, "note": null }, "geometry": { "type": "Point", "coordinates": [ -122.2871801, 37.8361823 ] } },
{ "type": "Feature", "properties": { "id": "EM-C3", "start_count": 245, "end_count": 282, "combined_count": 527, "name": "47th St at San Pablo Ave", "lat": 37.8356703, "long": -122.2811258, "sidewalk width": 0, "notes": null, "note": null }, "geometry": { "type": "Point", "coordinates": [ -122.2811258, 37.8356703 ] } },
{ "type": "Feature", "properties": { "id": "EM-D2", "start_count": 149, "end_count": 157, "combined_count": 306, "name": "Horton St at 40th St", "lat": 37.8297046, "long": -122.2876102, "sidewalk width": 0, "notes": null, "note": null }, "geometry": { "type": "Point", "coordinates": [ -122.2876102, 37.8297046 ] } },
{ "type": "Feature", "properties": { "id": "EM-D2-2", "start_count": 121, "end_count": 118, "combined_count": 239, "name": "Huchiun Park", "lat": 37.831594107971718, "long": -122.2903389768136, "sidewalk width": 0, "notes": null, "note": null }, "geometry": { "type": "Point", "coordinates": [ -122.290338976813601, 37.831594107971718 ] } },
{ "type": "Feature", "properties": { "id": "EM-D3", "start_count": 123, "end_count": 135, "combined_count": 258, "name": "Emeryville Town Hall", "lat": 37.8312752, "long": -122.2856333, "sidewalk width": 0, "notes": null, "note": null }, "geometry": { "type": "Point", "coordinates": [ -122.2856333, 37.8312752 ] } },
{ "type": "Feature", "properties": { "id": "EM-D4", "start_count": 183, "end_count": 189, "combined_count": 372, "name": "Adeline St at 40th St", "lat": 37.8312769, "long": -122.2782669, "sidewalk width": 0, "notes": null, "note": null }, "geometry": { "type": "Point", "coordinates": [ -122.2782669, 37.8312769 ] } },
{ "type": "Feature", "properties": { "id": "OK-A2", "start_count": 234, "end_count": 220, "combined_count": 454, "name": "Telegraph Ave at Alcatraz Ave", "lat": 37.850221874496789, "long": -122.26017236709596, "sidewalk width": 0, "notes": null, "note": null }, "geometry": { "type": "Point", "coordinates": [ -122.260172367095961, 37.850221874496789 ] } },
{ "type": "Feature", "properties": { "id": "OK-A4", "start_count": 296, "end_count": 246, "combined_count": 542, "name": "62nd St at Claremont Ave", "lat": 37.8494355, "long": -122.2525406, "sidewalk width": 0, "notes": null, "note": null }, "geometry": { "type": "Point", "coordinates": [ -122.2525406, 37.8494355 ] } },
{ "type": "Feature", "properties": { "id": "OK-AA3", "start_count": 165, "end_count": 176, "combined_count": 341, "name": "65th St at San Pablo Ave", "lat": 37.848145908310649, "long": -122.2851545595561, "sidewalk width": 0, "notes": null, "note": null }, "geometry": { "type": "Point", "coordinates": [ -122.285154559556105, 37.848145908310649 ] } },
{ "type": "Feature", "properties": { "id": "OK-B1", "start_count": 213, "end_count": 201, "combined_count": 414, "name": "Alcatraz Ave at Shattuck Ave", "lat": 37.849594967776646, "long": -122.26556897163393, "sidewalk width": 0, "notes": null, "note": null }, "geometry": { "type": "Point", "coordinates": [ -122.265568971633925, 37.849594967776646 ] } },
{ "type": "Feature", "properties": { "id": "OK-B2", "start_count": 162, "end_count": 142, "combined_count": 304, "name": "Bushrod Park", "lat": 37.8465156, "long": -122.2653043, "sidewalk width": 0, "notes": null, "note": null }, "geometry": { "type": "Point", "coordinates": [ -122.2653043, 37.8465156 ] } },
{ "type": "Feature", "properties": { "id": "OK-B3", "start_count": 165, "end_count": 147, "combined_count": 312, "name": "Telegraph Ave at 58th St", "lat": 37.8444927, "long": -122.261351, "sidewalk width": 0, "notes": null, "note": null }, "geometry": { "type": "Point", "coordinates": [ -122.261351, 37.8444927 ] } },
{ "type": "Feature", "properties": { "id": "OK-B4", "start_count": 1066, "end_count": 1082, "combined_count": 2148, "name": "Rockridge BART", "lat": 37.844278753990672, "long": -122.251900434494, "sidewalk width": 12, "notes": null, "note": "plaza" }, "geometry": { "type": "Point", "coordinates": [ -122.251900434494004, 37.844278753990672 ] } },
{ "type": "Feature", "properties": { "id": "OK-B5", "start_count": 155, "end_count": 158, "combined_count": 313, "name": "College Ave at Taft Ave", "lat": 37.8417999, "long": -122.2515349, "sidewalk width": 0, "notes": null, "note": null }, "geometry": { "type": "Point", "coordinates": [ -122.2515349, 37.8417999 ] } },
{ "type": "Feature", "properties": { "id": "OK-C2", "start_count": 147, "end_count": 154, "combined_count": 301, "name": "Dover St at 57th St", "lat": 37.8426295, "long": -122.267738, "sidewalk width": 0, "notes": null, "note": null }, "geometry": { "type": "Point", "coordinates": [ -122.267738, 37.8426295 ] } },
{ "type": "Feature", "properties": { "id": "OK-C3", "start_count": 189, "end_count": 163, "combined_count": 352, "name": "55th St at Telegraph Ave", "lat": 37.8401858, "long": -122.2618225, "sidewalk width": 0, "notes": null, "note": null }, "geometry": { "type": "Point", "coordinates": [ -122.2618225, 37.8401858 ] } },
{ "type": "Feature", "properties": { "id": "OK-C4", "start_count": 226, "end_count": 201, "combined_count": 427, "name": "Miles Ave at Cavour St", "lat": 37.8388, "long": -122.258732, "sidewalk width": 0, "notes": null, "note": null }, "geometry": { "type": "Point", "coordinates": [ -122.258732, 37.8388 ] } },
{ "type": "Feature", "properties": { "id": "OK-C5", "start_count": 151, "end_count": 143, "combined_count": 294, "name": "College Ave at Bryant Ave", "lat": 37.8381269, "long": -122.2512714, "sidewalk width": 0, "notes": null, "note": null }, "geometry": { "type": "Point", "coordinates": [ -122.2512714, 37.8381269 ] } },
{ "type": "Feature", "properties": { "id": "OK-D0", "start_count": 175, "end_count": 154, "combined_count": 329, "name": "Lowell St at Stanford Ave", "lat": 37.843252684675363, "long": -122.27698119645331, "sidewalk width": 0, "notes": null, "note": null }, "geometry": { "type": "Point", "coordinates": [ -122.276981196453306, 37.843252684675363 ] } },
{ "type": "Feature", "properties": { "id": "OK-D2", "start_count": 228, "end_count": 252, "combined_count": 480, "name": "Genoa St at 55th St", "lat": 37.8396488, "long": -122.2717561, "sidewalk width": 0, "notes": null, "note": null }, "geometry": { "type": "Point", "coordinates": [ -122.2717561, 37.8396488 ] } },
{ "type": "Feature", "properties": { "id": "OK-D3-1", "start_count": 134, "end_count": 103, "combined_count": 237, "name": "Shattuck Ave at 55th St", "lat": 37.8403643, "long": -122.2644881, "sidewalk width": 0, "notes": null, "note": null }, "geometry": { "type": "Point", "coordinates": [ -122.2644881, 37.8403643 ] } },
{ "type": "Feature", "properties": { "id": "OK-D3-2", "start_count": 94, "end_count": 98, "combined_count": 192, "name": "52nd St at MLK Jr Way", "lat": 37.837369, "long": -122.267656, "sidewalk width": 0, "notes": null, "note": null }, "geometry": { "type": "Point", "coordinates": [ -122.267656, 37.837369 ] } },
{ "type": "Feature", "properties": { "id": "OK-D4", "start_count": 564, "end_count": 565, "combined_count": 1129, "name": "Telegraph Ave at 49th St", "lat": 37.83575, "long": -122.262654, "sidewalk width": 0, "notes": null, "note": null }, "geometry": { "type": "Point", "coordinates": [ -122.262654, 37.83575 ] } },
{ "type": "Feature", "properties": { "id": "OK-D5", "start_count": 250, "end_count": 224, "combined_count": 474, "name": "Broadway at Coronado Ave", "lat": 37.8357883, "long": -122.2516207, "sidewalk width": 0, "notes": null, "note": null }, "geometry": { "type": "Point", "coordinates": [ -122.2516207, 37.8357883 ] } },
{ "type": "Feature", "properties": { "id": "OK-E3", "start_count": 92, "end_count": 78, "combined_count": 170, "name": "45th St at MLK Jr Way", "lat": 37.8335577, "long": -122.2674183, "sidewalk width": 0, "notes": null, "note": null }, "geometry": { "type": "Point", "coordinates": [ -122.2674183, 37.8335577 ] } },
{ "type": "Feature", "properties": { "id": "OK-E4", "start_count": 313, "end_count": 296, "combined_count": 609, "name": "Shattuck Ave at Telegraph Ave", "lat": 37.833538871616042, "long": -122.26369366575599, "sidewalk width": 0, "notes": null, "note": null }, "geometry": { "type": "Point", "coordinates": [ -122.263693665755994, 37.833538871616042 ] } },
{ "type": "Feature", "properties": { "id": "OK-E5", "start_count": 215, "end_count": 204, "combined_count": 419, "name": "45th St at Manila", "lat": 37.833293522232097, "long": -122.25622415542604, "sidewalk width": 0, "notes": null, "note": null }, "geometry": { "type": "Point", "coordinates": [ -122.25622415542604, 37.833293522232097 ] } },
{ "type": "Feature", "properties": { "id": "OK-F2-2", "start_count": 140, "end_count": 147, "combined_count": 287, "name": "Market St at 45th St", "lat": 37.834174, "long": -122.272968, "sidewalk width": 0, "notes": null, "note": null }, "geometry": { "type": "Point", "coordinates": [ -122.272968, 37.834174 ] } },
{ "type": "Feature", "properties": { "id": "OK-F3", "start_count": 190, "end_count": 149, "combined_count": 339, "name": "West St at 40th St", "lat": 37.8302232, "long": -122.2709501, "sidewalk width": 0, "notes": null, "note": null }, "geometry": { "type": "Point", "coordinates": [ -122.2709501, 37.8302232 ] } },
{ "type": "Feature", "properties": { "id": "OK-F4", "start_count": 1688, "end_count": 1710, "combined_count": 3398, "name": "MacArthur BART", "lat": 37.8285951, "long": -122.2663493, "sidewalk width": 23, "notes": null, "note": null }, "geometry": { "type": "Point", "coordinates": [ -122.2663493, 37.8285951 ] } },
{ "type": "Feature", "properties": { "id": "OK-F5", "start_count": 317, "end_count": 279, "combined_count": 596, "name": "Broadway at 40th St", "lat": 37.8277573, "long": -122.2567156, "sidewalk width": 0, "notes": null, "note": null }, "geometry": { "type": "Point", "coordinates": [ -122.2567156, 37.8277573 ] } },
{ "type": "Feature", "properties": { "id": "OK-F5-1", "start_count": 211, "end_count": 192, "combined_count": 403, "name": "Webster St at 40th St", "lat": 37.828763857423993, "long": -122.26075912464113, "sidewalk width": 0, "notes": null, "note": null }, "geometry": { "type": "Point", "coordinates": [ -122.260759124641126, 37.828763857423993 ] } },
{ "type": "Feature", "properties": { "id": "OK-F6", "start_count": 670, "end_count": 686, "combined_count": 1356, "name": "40th St at Piedmont Ave", "lat": 37.825785004382006, "long": -122.25346968515623, "sidewalk width": 11, "notes": null, "note": "40th: 38ft" }, "geometry": { "type": "Point", "coordinates": [ -122.253469685156233, 37.825785004382006 ] } },
{ "type": "Feature", "properties": { "id": "OK-G2", "start_count": 243, "end_count": 231, "combined_count": 474, "name": "Market St at 40th St", "lat": 37.8305452, "long": -122.2739367, "sidewalk width": 0, "notes": null, "note": null }, "geometry": { "type": "Point", "coordinates": [ -122.2739367, 37.8305452 ] } },
{ "type": "Feature", "properties": { "id": "OK-G3", "start_count": 103, "end_count": 120, "combined_count": 223, "name": "37th St at West St", "lat": 37.826695586409677, "long": -122.27179706096648, "sidewalk width": 0, "notes": null, "note": null }, "geometry": { "type": "Point", "coordinates": [ -122.271797060966477, 37.826695586409677 ] } },
{ "type": "Feature", "properties": { "id": "OK-G4", "start_count": 132, "end_count": 117, "combined_count": 249, "name": "MacArthur Blvd at Telegraph Ave", "lat": 37.8262863, "long": -122.2651002, "sidewalk width": 0, "notes": null, "note": null }, "geometry": { "type": "Point", "coordinates": [ -122.2651002, 37.8262863 ] } },
{ "type": "Feature", "properties": { "id": "OK-G5", "start_count": 214, "end_count": 207, "combined_count": 421, "name": "Mosswood Park", "lat": 37.824892529951121, "long": -122.26043654610294, "sidewalk width": 0, "notes": null, "note": null }, "geometry": { "type": "Point", "coordinates": [ -122.260436546102937, 37.824892529951121 ] } },
{ "type": "Feature", "properties": { "id": "OK-G6", "start_count": 266, "end_count": 254, "combined_count": 520, "name": "Piedmont Ave at MacArthur Blvd", "lat": 37.823143222649385, "long": -122.2569505732544, "sidewalk width": 0, "notes": null, "note": null }, "geometry": { "type": "Point", "coordinates": [ -122.2569505732544, 37.823143222649385 ] } },
{ "type": "Feature", "properties": { "id": "OK-H15", "start_count": 80, "end_count": 73, "combined_count": 153, "name": "Fruitvale Ave at MacArthur Blvd", "lat": 37.80062512497625, "long": -122.21611092147261, "sidewalk width": 0, "notes": null, "note": null }, "geometry": { "type": "Point", "coordinates": [ -122.216110921472605, 37.80062512497625 ] } },
{ "type": "Feature", "properties": { "id": "OK-H16", "start_count": 91, "end_count": 94, "combined_count": 185, "name": "MacArthur Blvd at Hopkins Pl", "lat": 37.798567140759921, "long": -122.20808543953552, "sidewalk width": 0, "notes": null, "note": null }, "geometry": { "type": "Point", "coordinates": [ -122.208085439535523, 37.798567140759921 ] } },
{ "type": "Feature", "properties": { "id": "OK-H2", "start_count": 238, "end_count": 237, "combined_count": 475, "name": "32nd St at Adeline St", "lat": 37.8238474, "long": -122.2811926, "sidewalk width": 0, "notes": null, "note": null }, "geometry": { "type": "Point", "coordinates": [ -122.2811926, 37.8238474 ] } },
{ "type": "Feature", "properties": { "id": "OK-H2-2", "start_count": 41, "end_count": 46, "combined_count": 87, "name": "Brockhurst St at San Pablo Ave", "lat": 37.823522790214049, "long": -122.27718830108644, "sidewalk width": 0, "notes": null, "note": null }, "geometry": { "type": "Point", "coordinates": [ -122.27718830108644, 37.823522790214049 ] } },
{ "type": "Feature", "properties": { "id": "OK-H3-2", "start_count": 162, "end_count": 180, "combined_count": 342, "name": "West St at Brockhurst St", "lat": 37.822683859450208, "long": -122.27292420364392, "sidewalk width": 0, "notes": null, "note": null }, "geometry": { "type": "Point", "coordinates": [ -122.272924203643925, 37.822683859450208 ] } },
{ "type": "Feature", "properties": { "id": "OK-H4-3", "start_count": 87, "end_count": 59, "combined_count": 146, "name": "34th St at Telegraph Ave", "lat": 37.822467677145127, "long": -122.26597130298616, "sidewalk width": 0, "notes": null, "note": null }, "geometry": { "type": "Point", "coordinates": [ -122.265971302986159, 37.822467677145127 ] } },
{ "type": "Feature", "properties": { "id": "OK-H5", "start_count": 682, "end_count": 674, "combined_count": 1356, "name": "Broadway at 30th St", "lat": 37.8193814, "long": -122.2619284, "sidewalk width": 11, "notes": null, "note": "broadway" }, "geometry": { "type": "Point", "coordinates": [ -122.2619284, 37.8193814 ] } },
{ "type": "Feature", "properties": { "id": "OK-H9-1", "start_count": 493, "end_count": 524, "combined_count": 1017, "name": "Grand Ave at Santa Clara Ave", "lat": 37.8127441, "long": -122.2472152, "sidewalk width": 0, "notes": null, "note": null }, "geometry": { "type": "Point", "coordinates": [ -122.2472152, 37.8127441 ] } },
{ "type": "Feature", "properties": { "id": "OK-H9-2", "start_count": 369, "end_count": 382, "combined_count": 751, "name": "Lakeshore Ave at Trestle Glen Rd", "lat": 37.8110807, "long": -122.2432677, "sidewalk width": 0, "notes": null, "note": null }, "geometry": { "type": "Point", "coordinates": [ -122.2432677, 37.8110807 ] } },
{ "type": "Feature", "properties": { "id": "OK-I17", "start_count": 1, "end_count": 1, "combined_count": 2, "name": "Brookdale Ave at 35th Ave", "lat": 37.788436, "long": -122.210008, "sidewalk width": 0, "notes": null, "note": null }, "geometry": { "type": "Point", "coordinates": [ -122.210008, 37.788436 ] } },
{ "type": "Feature", "properties": { "id": "OK-I18", "start_count": 25, "end_count": 27, "combined_count": 52, "name": "Magee Ave at MacArthur Blvd", "lat": 37.793446, "long": -122.199504, "sidewalk width": 0, "notes": null, "note": null }, "geometry": { "type": "Point", "coordinates": [ -122.199504, 37.793446 ] } },
{ "type": "Feature", "properties": { "id": "OK-I3", "start_count": 57, "end_count": 49, "combined_count": 106, "name": "27th St at San Pablo Ave", "lat": 37.817886105449404, "long": -122.27595852149544, "sidewalk width": 0, "notes": null, "note": null }, "geometry": { "type": "Point", "coordinates": [ -122.27595852149544, 37.817886105449404 ] } },
{ "type": "Feature", "properties": { "id": "OK-I4", "start_count": 29, "end_count": 33, "combined_count": 62, "name": "MLK Jr Way at 27th St", "lat": 37.817350256930574, "long": -122.27147850614034, "sidewalk width": 0, "notes": null, "note": null }, "geometry": { "type": "Point", "coordinates": [ -122.27147850614034, 37.817350256930574 ] } },
{ "type": "Feature", "properties": { "id": "OK-I5", "start_count": 342, "end_count": 318, "combined_count": 660, "name": "Telegraph Ave at 27th St", "lat": 37.816073115011406, "long": -122.26788640022278, "sidewalk width": 0, "notes": null, "note": null }, "geometry": { "type": "Point", "coordinates": [ -122.267886400222778, 37.816073115011406 ] } },
{ "type": "Feature", "properties": { "id": "OK-I6", "start_count": 949, "end_count": 966, "combined_count": 1915, "name": "Bay Pl at Vernon St", "lat": 37.812250218726369, "long": -122.2607185732995, "sidewalk width": 19, "notes": null, "note": "trees" }, "geometry": { "type": "Point", "coordinates": [ -122.260718573299499, 37.812250218726369 ] } },
{ "type": "Feature", "properties": { "id": "OK-I6-2", "start_count": 368, "end_count": 349, "combined_count": 717, "name": "26th St at Broadway", "lat": 37.814824064138662, "long": -122.26424569694971, "sidewalk width": 0, "notes": null, "note": null }, "geometry": { "type": "Point", "coordinates": [ -122.264245696949715, 37.814824064138662 ] } },
{ "type": "Feature", "properties": { "id": "OK-I8", "start_count": 748, "end_count": 776, "combined_count": 1524, "name": "Grand Ave at Perkins St", "lat": 37.80889393398715, "long": -122.25646018981932, "sidewalk width": 13, "notes": null, "note": "park, lake" }, "geometry": { "type": "Point", "coordinates": [ -122.256460189819322, 37.80889393398715 ] } },
{ "type": "Feature", "properties": { "id": "OK-I9", "start_count": 753, "end_count": 851, "combined_count": 1604, "name": "El Embarcadero at Grand Ave", "lat": 37.808715, "long": -122.2492512, "sidewalk width": 16, "notes": null, "note": "IN park, by lake" }, "geometry": { "type": "Point", "coordinates": [ -122.2492512, 37.808715 ] } },
{ "type": "Feature", "properties": { "id": "OK-J16", "start_count": 44, "end_count": 43, "combined_count": 87, "name": "Lynde St at Fruitvale Ave", "lat": 37.791142, "long": -122.219512, "sidewalk width": 0, "notes": null, "note": null }, "geometry": { "type": "Point", "coordinates": [ -122.219512, 37.791142 ] } },
{ "type": "Feature", "properties": { "id": "OK-J3", "start_count": 80, "end_count": 79, "combined_count": 159, "name": "24th St at Market St", "lat": 37.8160598, "long": -122.2782444, "sidewalk width": 0, "notes": null, "note": null }, "geometry": { "type": "Point", "coordinates": [ -122.2782444, 37.8160598 ] } },
{ "type": "Feature", "properties": { "id": "OK-J4", "start_count": 74, "end_count": 73, "combined_count": 147, "name": "Isabella St at San Pablo Ave", "lat": 37.814988230424163, "long": -122.2748440504074, "sidewalk width": 0, "notes": null, "note": null }, "geometry": { "type": "Point", "coordinates": [ -122.274844050407395, 37.814988230424163 ] } },
{ "type": "Feature", "properties": { "id": "OK-J5", "start_count": 477, "end_count": 504, "combined_count": 981, "name": "23rd St at Telegraph Ave", "lat": 37.812581085817413, "long": -122.26857304573061, "sidewalk width": 0, "notes": null, "note": null }, "geometry": { "type": "Point", "coordinates": [ -122.268573045730605, 37.812581085817413 ] } },
{ "type": "Feature", "properties": { "id": "OK-J6-1", "start_count": 731, "end_count": 756, "combined_count": 1487, "name": "Grand Ave at Webster St", "lat": 37.8113768, "long": -122.2651925, "sidewalk width": -1, "notes": null, "note": "road ????" }, "geometry": { "type": "Point", "coordinates": [ -122.2651925, 37.8113768 ] } },
{ "type": "Feature", "properties": { "id": "OK-J6-2", "start_count": 297, "end_count": 317, "combined_count": 614, "name": "Snow Park", "lat": 37.807813182179032, "long": -122.26449608802795, "sidewalk width": 0, "notes": null, "note": null }, "geometry": { "type": "Point", "coordinates": [ -122.264496088027954, 37.807813182179032 ] } },
{ "type": "Feature", "properties": { "id": "OK-J9", "start_count": 403, "end_count": 403, "combined_count": 806, "name": "Brooklyn Ave at Lakeshore Ave", "lat": 37.805132884810568, "long": -122.25036793093621, "sidewalk width": 0, "notes": null, "note": null }, "geometry": { "type": "Point", "coordinates": [ -122.250367930936207, 37.805132884810568 ] } },
{ "type": "Feature", "properties": { "id": "OK-K1", "start_count": 227, "end_count": 238, "combined_count": 465, "name": "Raimondi Park", "lat": 37.81493053721438, "long": -122.29295340721799, "sidewalk width": 0, "notes": null, "note": null }, "geometry": { "type": "Point", "coordinates": [ -122.292953407217993, 37.81493053721438 ] } },
{ "type": "Feature", "properties": { "id": "OK-K1-2", "start_count": 333, "end_count": 340, "combined_count": 673, "name": "Mandela Parkway at W Grand Ave", "lat": 37.815778523025031, "long": -122.2894739973806, "sidewalk width": 0, "notes": null, "note": null }, "geometry": { "type": "Point", "coordinates": [ -122.289473997380597, 37.815778523025031 ] } },
{ "type": "Feature", "properties": { "id": "OK-K10", "start_count": 349, "end_count": 327, "combined_count": 676, "name": "21st St at 5th Ave", "lat": 37.800459411713945, "long": -122.24745869636536, "sidewalk width": 0, "notes": null, "note": null }, "geometry": { "type": "Point", "coordinates": [ -122.247458696365356, 37.800459411713945 ] } },
{ "type": "Feature", "properties": { "id": "OK-K11", "start_count": 78, "end_count": 93, "combined_count": 171, "name": "11th Ave at 19th St", "lat": 37.794565813816412, "long": -122.24442771710704, "sidewalk width": 0, "notes": null, "note": null }, "geometry": { "type": "Point", "coordinates": [ -122.244427717107044, 37.794565813816412 ] } },
{ "type": "Feature", "properties": { "id": "OK-K12", "start_count": 8, "end_count": 7, "combined_count": 15, "name": "16th Ave at E 21st St", "lat": 37.793449, "long": -122.239736, "sidewalk width": 0, "notes": null, "note": null }, "geometry": { "type": "Point", "coordinates": [ -122.239736, 37.793449 ] } },
{ "type": "Feature", "properties": { "id": "OK-K14", "start_count": 7, "end_count": 4, "combined_count": 11, "name": "E 21st St at 23rd Ave", "lat": 37.788560663436911, "long": -122.2315811650537, "sidewalk width": 0, "notes": null, "note": null }, "geometry": { "type": "Point", "coordinates": [ -122.231581165053697, 37.788560663436911 ] } },
{ "type": "Feature", "properties": { "id": "OK-K17", "start_count": 12, "end_count": 17, "combined_count": 29, "name": "Foothill Blvd at Harrington Ave", "lat": 37.77993, "long": -122.2177284, "sidewalk width": 0, "notes": null, "note": null }, "geometry": { "type": "Point", "coordinates": [ -122.2177284, 37.77993 ] } },
{ "type": "Feature", "properties": { "id": "OK-K2", "start_count": 222, "end_count": 223, "combined_count": 445, "name": "DeFremery Park", "lat": 37.8123315, "long": -122.2851712, "sidewalk width": 0, "notes": null, "note": null }, "geometry": { "type": "Point", "coordinates": [ -122.2851712, 37.8123315 ] } },
{ "type": "Feature", "properties": { "id": "OK-K3", "start_count": 159, "end_count": 175, "combined_count": 334, "name": "Marston Campbell Park", "lat": 37.8098236, "long": -122.2801923, "sidewalk width": 0, "notes": null, "note": null }, "geometry": { "type": "Point", "coordinates": [ -122.2801923, 37.8098236 ] } },
{ "type": "Feature", "properties": { "id": "OK-K4", "start_count": 117, "end_count": 114, "combined_count": 231, "name": "San Pablo Ave at MLK Jr Way", "lat": 37.8113514, "long": -122.2734217, "sidewalk width": 0, "notes": null, "note": null }, "geometry": { "type": "Point", "coordinates": [ -122.2734217, 37.8113514 ] } },
{ "type": "Feature", "properties": { "id": "OK-K5-1", "start_count": 533, "end_count": 530, "combined_count": 1063, "name": "Telegraph Ave at 19th St", "lat": 37.8087021, "long": -122.2699271, "sidewalk width": 0, "notes": null, "note": null }, "geometry": { "type": "Point", "coordinates": [ -122.2699271, 37.8087021 ] } },
{ "type": "Feature", "properties": { "id": "OK-K5-2", "start_count": 1185, "end_count": 1165, "combined_count": 2350, "name": "19th Street BART", "lat": 37.809368612134847, "long": -122.26795077323914, "sidewalk width": 10, "notes": null, "note": null }, "geometry": { "type": "Point", "coordinates": [ -122.267950773239136, 37.809368612134847 ] } },
{ "type": "Feature", "properties": { "id": "OK-K6", "start_count": 344, "end_count": 370, "combined_count": 714, "name": "Webster St at 19th St", "lat": 37.807216525000001, "long": -122.266566157, "sidewalk width": 0, "notes": null, "note": null }, "geometry": { "type": "Point", "coordinates": [ -122.266566157, 37.807216525 ] } },
{ "type": "Feature", "properties": { "id": "OK-K7", "start_count": 428, "end_count": 425, "combined_count": 853, "name": "Madison St at 17th St", "lat": 37.804036784023602, "long": -122.26240932941435, "sidewalk width": 0, "notes": null, "note": null }, "geometry": { "type": "Point", "coordinates": [ -122.262409329414353, 37.804036784023602 ] } },
{ "type": "Feature", "properties": { "id": "OK-K9", "start_count": 401, "end_count": 429, "combined_count": 830, "name": "2nd Ave at E 18th St", "lat": 37.800213566969802, "long": -122.25381016731262, "sidewalk width": 0, "notes": null, "note": null }, "geometry": { "type": "Point", "coordinates": [ -122.253810167312622, 37.800213566969802 ] } },
{ "type": "Feature", "properties": { "id": "OK-K9-2", "start_count": 171, "end_count": 178, "combined_count": 349, "name": "E 18th St at 4th Ave", "lat": 37.799206741250792, "long": -122.25129128429244, "sidewalk width": 0, "notes": null, "note": null }, "geometry": { "type": "Point", "coordinates": [ -122.251291284292435, 37.799206741250792 ] } },
{ "type": "Feature", "properties": { "id": "OK-L0", "start_count": 192, "end_count": 200, "combined_count": 392, "name": "Willow Park", "lat": 37.812362549565719, "long": -122.29609629373002, "sidewalk width": 0, "notes": null, "note": null }, "geometry": { "type": "Point", "coordinates": [ -122.296096293730017, 37.812362549565719 ] } },
{ "type": "Feature", "properties": { "id": "OK-L1", "start_count": 210, "end_count": 198, "combined_count": 408, "name": "14th St at Mandela Pkwy", "lat": 37.8107432, "long": -122.2914153, "sidewalk width": 0, "notes": null, "note": null }, "geometry": { "type": "Point", "coordinates": [ -122.2914153, 37.8107432 ] } },
{ "type": "Feature", "properties": { "id": "OK-L10", "start_count": 57, "end_count": 57, "combined_count": 114, "name": "6th Ave at E 12th St", "lat": 37.794416665999996, "long": -122.25373947600001, "sidewalk width": 0, "notes": null, "note": null }, "geometry": { "type": "Point", "coordinates": [ -122.253739476, 37.794416666 ] } },
{ "type": "Feature", "properties": { "id": "OK-L11", "start_count": 54, "end_count": 50, "combined_count": 104, "name": "10th Ave at E 15th St", "lat": 37.7927143, "long": -122.2487796, "sidewalk width": 0, "notes": null, "note": null }, "geometry": { "type": "Point", "coordinates": [ -122.2487796, 37.7927143 ] } },
{ "type": "Feature", "properties": { "id": "OK-L12", "start_count": 43, "end_count": 57, "combined_count": 100, "name": "San Antonio Park", "lat": 37.790139851853638, "long": -122.24237322807312, "sidewalk width": 0, "notes": null, "note": null }, "geometry": { "type": "Point", "coordinates": [ -122.24237322807312, 37.790139851853638 ] } },
{ "type": "Feature", "properties": { "id": "OK-L14", "start_count": 35, "end_count": 32, "combined_count": 67, "name": "23rd Ave at Foothill Blvd", "lat": 37.7851915, "long": -122.2343822, "sidewalk width": 0, "notes": null, "note": null }, "geometry": { "type": "Point", "coordinates": [ -122.2343822, 37.7851915 ] } },
{ "type": "Feature", "properties": { "id": "OK-L16", "start_count": 25, "end_count": 25, "combined_count": 50, "name": "Foothill Blvd at Fruitvale Ave", "lat": 37.7837569, "long": -122.2226033, "sidewalk width": 0, "notes": null, "note": null }, "geometry": { "type": "Point", "coordinates": [ -122.2226033, 37.7837569 ] } },
{ "type": "Feature", "properties": { "id": "OK-L19", "start_count": 24, "end_count": 28, "combined_count": 52, "name": "Bond St at High St", "lat": 37.774152564302362, "long": -122.21239820122716, "sidewalk width": 0, "notes": null, "note": null }, "geometry": { "type": "Point", "coordinates": [ -122.21239820122716, 37.774152564302362 ] } },
{ "type": "Feature", "properties": { "id": "OK-L3", "start_count": 78, "end_count": 81, "combined_count": 159, "name": "14th St at Filbert St", "lat": 37.80874983465997, "long": -122.28328227996823, "sidewalk width": 0, "notes": null, "note": null }, "geometry": { "type": "Point", "coordinates": [ -122.283282279968233, 37.80874983465997 ] } },
{ "type": "Feature", "properties": { "id": "OK-L4", "start_count": 343, "end_count": 337, "combined_count": 680, "name": "Jefferson St at 14th St", "lat": 37.805207, "long": -122.275156, "sidewalk width": 0, "notes": null, "note": null }, "geometry": { "type": "Point", "coordinates": [ -122.275156, 37.805207 ] } },
{ "type": "Feature", "properties": { "id": "OK-L5", "start_count": 758, "end_count": 717, "combined_count": 1475, "name": "Frank H Ogawa Plaza", "lat": 37.804562354930297, "long": -122.27173805236816, "sidewalk width": 20, "notes": null, "note": "actual plaza" }, "geometry": { "type": "Point", "coordinates": [ -122.271738052368164, 37.804562354930297 ] } },
{ "type": "Feature", "properties": { "id": "OK-L6", "start_count": 382, "end_count": 359, "combined_count": 741, "name": "Franklin St at 13th St", "lat": 37.803030135756188, "long": -122.27049618959428, "sidewalk width": 0, "notes": null, "note": null }, "geometry": { "type": "Point", "coordinates": [ -122.270496189594283, 37.803030135756188 ] } },
{ "type": "Feature", "properties": { "id": "OK-L6-2", "start_count": 280, "end_count": 265, "combined_count": 545, "name": "13th St at Webster St", "lat": 37.802688402040665, "long": -122.26914636790752, "sidewalk width": 0, "notes": null, "note": null }, "geometry": { "type": "Point", "coordinates": [ -122.269146367907524, 37.802688402040665 ] } },
{ "type": "Feature", "properties": { "id": "OK-L7", "start_count": 155, "end_count": 140, "combined_count": 295, "name": "Jackson St at 11th St", "lat": 37.800001631188778, "long": -122.26643800735472, "sidewalk width": 0, "notes": null, "note": null }, "geometry": { "type": "Point", "coordinates": [ -122.266438007354722, 37.800001631188778 ] } },
{ "type": "Feature", "properties": { "id": "OK-L7-2", "start_count": 433, "end_count": 388, "combined_count": 821, "name": "Lakeside Dr at 14th St", "lat": 37.8013189, "long": -122.2626418, "sidewalk width": 0, "notes": null, "note": null }, "geometry": { "type": "Point", "coordinates": [ -122.2626418, 37.8013189 ] } },
{ "type": "Feature", "properties": { "id": "OK-L8", "start_count": 250, "end_count": 264, "combined_count": 514, "name": "10th St at Fallon St", "lat": 37.7976728, "long": -122.2629973, "sidewalk width": 0, "notes": null, "note": null }, "geometry": { "type": "Point", "coordinates": [ -122.2629973, 37.7976728 ] } },
{ "type": "Feature", "properties": { "id": "OK-L8-2", "start_count": 207, "end_count": 179, "combined_count": 386, "name": "Lakeshore Ave", "lat": 37.798895960984211, "long": -122.25869433497589, "sidewalk width": 0, "notes": null, "note": null }, "geometry": { "type": "Point", "coordinates": [ -122.258694334975885, 37.798895960984211 ] } },
{ "type": "Feature", "properties": { "id": "OK-L9", "start_count": 174, "end_count": 150, "combined_count": 324, "name": "4th Ave at E 12th St", "lat": 37.795913, "long": -122.255547, "sidewalk width": 0, "notes": null, "note": null }, "geometry": { "type": "Point", "coordinates": [ -122.255547, 37.795913 ] } },
{ "type": "Feature", "properties": { "id": "OK-M14", "start_count": 13, "end_count": 16, "combined_count": 29, "name": "26th Ave at International Blvd", "lat": 37.781123, "long": -122.2329915, "sidewalk width": 0, "notes": null, "note": null }, "geometry": { "type": "Point", "coordinates": [ -122.2329915, 37.781123 ] } },
{ "type": "Feature", "properties": { "id": "OK-M16", "start_count": 40, "end_count": 41, "combined_count": 81, "name": "Farnam St at Fruitvale Ave", "lat": 37.778058, "long": -122.2254, "sidewalk width": 0, "notes": null, "note": null }, "geometry": { "type": "Point", "coordinates": [ -122.2254, 37.778058 ] } },
{ "type": "Feature", "properties": { "id": "OK-M3", "start_count": 101, "end_count": 101, "combined_count": 202, "name": "10th St at Chestnut St", "lat": 37.8063553, "long": -122.2860187, "sidewalk width": 0, "notes": null, "note": null }, "geometry": { "type": "Point", "coordinates": [ -122.2860187, 37.8063553 ] } },
{ "type": "Feature", "properties": { "id": "OK-M5", "start_count": 331, "end_count": 331, "combined_count": 662, "name": "Washington St at 8th St", "lat": 37.8007544, "long": -122.2748943, "sidewalk width": 0, "notes": null, "note": null }, "geometry": { "type": "Point", "coordinates": [ -122.2748943, 37.8007544 ] } },
{ "type": "Feature", "properties": { "id": "OK-M6", "start_count": 360, "end_count": 376, "combined_count": 736, "name": "Franklin St at 9th St", "lat": 37.8005161, "long": -122.2720799, "sidewalk width": 0, "notes": null, "note": null }, "geometry": { "type": "Point", "coordinates": [ -122.2720799, 37.8005161 ] } },
{ "type": "Feature", "properties": { "id": "OK-M7", "start_count": 1042, "end_count": 923, "combined_count": 1965, "name": "Lake Merritt BART", "lat": 37.7973195, "long": -122.2653199, "sidewalk width": 16, "notes": null, "note": "plaza" }, "geometry": { "type": "Point", "coordinates": [ -122.2653199, 37.7973195 ] } },
{ "type": "Feature", "properties": { "id": "OK-N1", "start_count": 1438, "end_count": 1395, "combined_count": 2833, "name": "West Oakland BART", "lat": 37.8051895, "long": -122.29461686454056, "sidewalk width": 21, "notes": null, "note": null }, "geometry": { "type": "Point", "coordinates": [ -122.294616864540558, 37.8051895 ] } },
{ "type": "Feature", "properties": { "id": "OK-N10", "start_count": 381, "end_count": 411, "combined_count": 792, "name": "Brooklyn Basin", "lat": 37.787440960713923, "long": -122.25555462691868, "sidewalk width": 0, "notes": null, "note": null }, "geometry": { "type": "Point", "coordinates": [ -122.255554626918681, 37.787440960713923 ] } },
{ "type": "Feature", "properties": { "id": "OK-N17", "start_count": 147, "end_count": 145, "combined_count": 292, "name": "Fruitvale BART", "lat": 37.7752321, "long": -122.2244982, "sidewalk width": 0, "notes": null, "note": null }, "geometry": { "type": "Point", "coordinates": [ -122.2244982, 37.7752321 ] } },
{ "type": "Feature", "properties": { "id": "OK-N5", "start_count": 313, "end_count": 346, "combined_count": 659, "name": "Jack London Square", "lat": 37.796248, "long": -122.279352, "sidewalk width": 0, "notes": null, "note": null }, "geometry": { "type": "Point", "coordinates": [ -122.279352, 37.796248 ] } },
{ "type": "Feature", "properties": { "id": "OK-N6", "start_count": 462, "end_count": 502, "combined_count": 964, "name": "Webster St at 2nd St", "lat": 37.795194764385954, "long": -122.27396965026855, "sidewalk width": 0, "notes": null, "note": null }, "geometry": { "type": "Point", "coordinates": [ -122.273969650268555, 37.795194764385954 ] } },
{ "type": "Feature", "properties": { "id": "OK-N7", "start_count": 248, "end_count": 268, "combined_count": 516, "name": "Second St at Oak St", "lat": 37.792831459495922, "long": -122.26827767083098, "sidewalk width": 0, "notes": null, "note": null }, "geometry": { "type": "Point", "coordinates": [ -122.268277670830983, 37.792831459495922 ] } }
]
}
