{
"type": "FeatureCollection",
"name": "stations23_clustered",
"crs": { "type": "name", "properties": { "name": "urn:ogc:def:crs:OGC:1.3:CRS84" } },
"features": [
{ "type": "Feature", "properties": { "id": "BK-A3", "start_count": 1225, "end_count": 1014, "combined_count": 2239, "name": "College Ave at Alcatraz Ave", "lat": 37.8513755, "long": -122.2525233, "estimated_pop": 9668, "n_blockgroups": 16, "estimated_jobs": 5448, "estimated_activity": 15116, "emp_pop_balance": 0.5635, "dist_to_bart_mi": 0.478, "cluster": 3 }, "geometry": { "type": "Point", "coordinates": [ -122.2525233, 37.8513755 ] } },
{ "type": "Feature", "properties": { "id": "BK-A7", "start_count": 1604, "end_count": 1519, "combined_count": 3123, "name": "Vine St at Shattuck Ave", "lat": 37.880222445906789, "long": -122.26959228515624, "estimated_pop": 12025, "n_blockgroups": 20, "estimated_jobs": 15618, "estimated_activity": 27643, "emp_pop_balance": 1.2987, "dist_to_bart_mi": 0.639, "cluster": 2 }, "geometry": { "type": "Point", "coordinates": [ -122.269592285156236, 37.880222445906789 ] } },
{ "type": "Feature", "properties": { "id": "BK-B7", "start_count": 977, "end_count": 989, "combined_count": 1966, "name": "Virginia St at Shattuck Ave", "lat": 37.876572549106847, "long": -122.26952791213988, "estimated_pop": 13222, "n_blockgroups": 21, "estimated_jobs": 24380, "estimated_activity": 37602, "emp_pop_balance": 1.8438, "dist_to_bart_mi": 0.389, "cluster": 2 }, "geometry": { "type": "Point", "coordinates": [ -122.269527912139878, 37.876572549106847 ] } },
{ "type": "Feature", "properties": { "id": "BK-C1", "start_count": 783, "end_count": 1084, "combined_count": 1867, "name": "Fifth St at Delaware St", "lat": 37.870407115465376, "long": -122.29967594146729, "estimated_pop": 5533, "n_blockgroups": 11, "estimated_jobs": 5062, "estimated_activity": 10595, "emp_pop_balance": 0.9149, "dist_to_bart_mi": 0.914, "cluster": 0 }, "geometry": { "type": "Point", "coordinates": [ -122.299675941467285, 37.870407115465376 ] } },
{ "type": "Feature", "properties": { "id": "BK-C5", "start_count": 1394, "end_count": 1405, "combined_count": 2799, "name": "North Berkeley BART Station", "lat": 37.873558, "long": -122.283093, "estimated_pop": 10677, "n_blockgroups": 15, "estimated_jobs": 6286, "estimated_activity": 16963, "emp_pop_balance": 0.5887, "dist_to_bart_mi": 0.026, "cluster": 3 }, "geometry": { "type": "Point", "coordinates": [ -122.283093, 37.873558 ] } },
{ "type": "Feature", "properties": { "id": "BK-C6", "start_count": 1366, "end_count": 1545, "combined_count": 2911, "name": "MLK Jr Way at University Ave", "lat": 37.8717192, "long": -122.2730677, "estimated_pop": 14252, "n_blockgroups": 21, "estimated_jobs": 28915, "estimated_activity": 43167, "emp_pop_balance": 2.0289, "dist_to_bart_mi": 0.261, "cluster": 2 }, "geometry": { "type": "Point", "coordinates": [ -122.2730677, 37.8717192 ] } },
{ "type": "Feature", "properties": { "id": "BK-C7", "start_count": 1189, "end_count": 1174, "combined_count": 2363, "name": "Shattuck Ave at Hearst Ave", "lat": 37.873676214598248, "long": -122.26848721504211, "estimated_pop": 13314, "n_blockgroups": 22, "estimated_jobs": 27076, "estimated_activity": 40390, "emp_pop_balance": 2.0336, "dist_to_bart_mi": 0.184, "cluster": 2 }, "geometry": { "type": "Point", "coordinates": [ -122.268487215042114, 37.873676214598248 ] } },
{ "type": "Feature", "properties": { "id": "BK-C8", "start_count": 1304, "end_count": 1318, "combined_count": 2622, "name": "University Ave at Oxford St", "lat": 37.8723555, "long": -122.2664467, "estimated_pop": 14496, "n_blockgroups": 24, "estimated_jobs": 26582, "estimated_activity": 41078, "emp_pop_balance": 1.8337, "dist_to_bart_mi": 0.131, "cluster": 2 }, "geometry": { "type": "Point", "coordinates": [ -122.2664467, 37.8723555 ] } },
{ "type": "Feature", "properties": { "id": "BK-C9", "start_count": 1662, "end_count": 817, "combined_count": 2479, "name": "Hearst Ave at Euclid Ave", "lat": 37.8753207, "long": -122.2601554, "estimated_pop": 9004, "n_blockgroups": 17, "estimated_jobs": 17676, "estimated_activity": 26681, "emp_pop_balance": 1.9631, "dist_to_bart_mi": 0.528, "cluster": 2 }, "geometry": { "type": "Point", "coordinates": [ -122.2601554, 37.8753207 ] } },
{ "type": "Feature", "properties": { "id": "BK-D1", "start_count": 1318, "end_count": 1884, "combined_count": 3202, "name": "Addison St at Fourth St", "lat": 37.866249, "long": -122.2993708, "estimated_pop": 4711, "n_blockgroups": 9, "estimated_jobs": 4091, "estimated_activity": 8803, "emp_pop_balance": 0.8684, "dist_to_bart_mi": 1.013, "cluster": 0 }, "geometry": { "type": "Point", "coordinates": [ -122.2993708, 37.866249 ] } },
{ "type": "Feature", "properties": { "id": "BK-D10", "start_count": 2581, "end_count": 1384, "combined_count": 3965, "name": "Bancroft Way at College Ave", "lat": 37.8693603, "long": -122.2543374, "estimated_pop": 17682, "n_blockgroups": 16, "estimated_jobs": 2764, "estimated_activity": 20446, "emp_pop_balance": 0.1563, "dist_to_bart_mi": 0.735, "cluster": 3 }, "geometry": { "type": "Point", "coordinates": [ -122.2543374, 37.8693603 ] } },
{ "type": "Feature", "properties": { "id": "BK-D2", "start_count": 540, "end_count": 897, "combined_count": 1437, "name": "10th St at University Ave", "lat": 37.869060475453928, "long": -122.29339957237242, "estimated_pop": 8711, "n_blockgroups": 15, "estimated_jobs": 4120, "estimated_activity": 12831, "emp_pop_balance": 0.473, "dist_to_bart_mi": 0.697, "cluster": 3 }, "geometry": { "type": "Point", "coordinates": [ -122.293399572372422, 37.869060475453928 ] } },
{ "type": "Feature", "properties": { "id": "BK-D4", "start_count": 692, "end_count": 858, "combined_count": 1550, "name": "West St at University Ave", "lat": 37.869966707604043, "long": -122.28653311729433, "estimated_pop": 11186, "n_blockgroups": 16, "estimated_jobs": 5061, "estimated_activity": 16247, "emp_pop_balance": 0.4524, "dist_to_bart_mi": 0.314, "cluster": 3 }, "geometry": { "type": "Point", "coordinates": [ -122.286533117294326, 37.869966707604043 ] } },
{ "type": "Feature", "properties": { "id": "BK-D5", "start_count": 573, "end_count": 731, "combined_count": 1304, "name": "California St at University Ave", "lat": 37.870555329057453, "long": -122.27972030639648, "estimated_pop": 12095, "n_blockgroups": 19, "estimated_jobs": 8521, "estimated_activity": 20615, "emp_pop_balance": 0.7045, "dist_to_bart_mi": 0.363, "cluster": 2 }, "geometry": { "type": "Point", "coordinates": [ -122.279720306396484, 37.870555329057453 ] } },
{ "type": "Feature", "properties": { "id": "BK-D7-1", "start_count": 4062, "end_count": 4016, "combined_count": 8078, "name": "Downtown Berkeley BART", "lat": 37.870139, "long": -122.268422, "estimated_pop": 15562, "n_blockgroups": 21, "estimated_jobs": 28523, "estimated_activity": 44085, "emp_pop_balance": 1.8329, "dist_to_bart_mi": 0.011, "cluster": 2 }, "geometry": { "type": "Point", "coordinates": [ -122.268422, 37.870139 ] } },
{ "type": "Feature", "properties": { "id": "BK-D7-2", "start_count": 1388, "end_count": 1512, "combined_count": 2900, "name": "Berkeley Civic Center", "lat": 37.8690599, "long": -122.270556, "estimated_pop": 14754, "n_blockgroups": 21, "estimated_jobs": 24582, "estimated_activity": 39336, "emp_pop_balance": 1.6662, "dist_to_bart_mi": 0.133, "cluster": 2 }, "geometry": { "type": "Point", "coordinates": [ -122.270556, 37.8690599 ] } },
{ "type": "Feature", "properties": { "id": "BK-E10", "start_count": 1254, "end_count": 487, "combined_count": 1741, "name": "Haste St at College Ave", "lat": 37.86641794050319, "long": -122.25379943847656, "estimated_pop": 21051, "n_blockgroups": 17, "estimated_jobs": 3535, "estimated_activity": 24586, "emp_pop_balance": 0.1679, "dist_to_bart_mi": 0.796, "cluster": 3 }, "geometry": { "type": "Point", "coordinates": [ -122.253799438476562, 37.86641794050319 ] } },
{ "type": "Feature", "properties": { "id": "BK-E3", "start_count": 93, "end_count": 139, "combined_count": 232, "name": "Channing Way at San Pablo Ave", "lat": 37.862817106708022, "long": -122.2902952903697, "estimated_pop": 8669, "n_blockgroups": 14, "estimated_jobs": 2499, "estimated_activity": 11168, "emp_pop_balance": 0.2883, "dist_to_bart_mi": 0.846, "cluster": 3 }, "geometry": { "type": "Point", "coordinates": [ -122.290295290369698, 37.862817106708022 ] } },
{ "type": "Feature", "properties": { "id": "BK-E7", "start_count": 1771, "end_count": 1810, "combined_count": 3581, "name": "Channing Way at Shattuck Ave", "lat": 37.8658466, "long": -122.2674431, "estimated_pop": 18902, "n_blockgroups": 23, "estimated_jobs": 13509, "estimated_activity": 32411, "emp_pop_balance": 0.7147, "dist_to_bart_mi": 0.255, "cluster": 2 }, "geometry": { "type": "Point", "coordinates": [ -122.2674431, 37.8658466 ] } },
{ "type": "Feature", "properties": { "id": "BK-E8", "start_count": 1196, "end_count": 1072, "combined_count": 2268, "name": "Fulton St at Bancroft Way", "lat": 37.8677892, "long": -122.2658964, "estimated_pop": 18504, "n_blockgroups": 23, "estimated_jobs": 21606, "estimated_activity": 40111, "emp_pop_balance": 1.1676, "dist_to_bart_mi": 0.148, "cluster": 2 }, "geometry": { "type": "Point", "coordinates": [ -122.2658964, 37.8677892 ] } },
{ "type": "Feature", "properties": { "id": "BK-E9-1", "start_count": 3934, "end_count": 3127, "combined_count": 7061, "name": "Bancroft Way at Telegraph Ave", "lat": 37.8689109, "long": -122.2587857, "estimated_pop": 21101, "n_blockgroups": 21, "estimated_jobs": 5010, "estimated_activity": 26111, "emp_pop_balance": 0.2374, "dist_to_bart_mi": 0.494, "cluster": 3 }, "geometry": { "type": "Point", "coordinates": [ -122.2587857, 37.8689109 ] } },
{ "type": "Feature", "properties": { "id": "BK-E9-2", "start_count": 1784, "end_count": 1306, "combined_count": 3090, "name": "Haste St at Telegraph Ave", "lat": 37.8660431, "long": -122.2588044, "estimated_pop": 23879, "n_blockgroups": 21, "estimated_jobs": 4860, "estimated_activity": 28739, "emp_pop_balance": 0.2035, "dist_to_bart_mi": 0.551, "cluster": 2 }, "geometry": { "type": "Point", "coordinates": [ -122.2588044, 37.8660431 ] } },
{ "type": "Feature", "properties": { "id": "BK-F10", "start_count": 1092, "end_count": 681, "combined_count": 1773, "name": "Derby St at College Ave", "lat": 37.8618037, "long": -122.2535687, "estimated_pop": 20900, "n_blockgroups": 19, "estimated_jobs": 5082, "estimated_activity": 25982, "emp_pop_balance": 0.2432, "dist_to_bart_mi": 0.945, "cluster": 3 }, "geometry": { "type": "Point", "coordinates": [ -122.2535687, 37.8618037 ] } },
{ "type": "Feature", "properties": { "id": "BK-F2", "start_count": 936, "end_count": 1099, "combined_count": 2035, "name": "Ninth St at Parker St", "lat": 37.8588682, "long": -122.2912095, "estimated_pop": 5562, "n_blockgroups": 9, "estimated_jobs": 1783, "estimated_activity": 7346, "emp_pop_balance": 0.3206, "dist_to_bart_mi": 1.115, "cluster": 3 }, "geometry": { "type": "Point", "coordinates": [ -122.2912095, 37.8588682 ] } },
{ "type": "Feature", "properties": { "id": "BK-F7", "start_count": 1272, "end_count": 1238, "combined_count": 2510, "name": "Milvia St at Derby St", "lat": 37.860124599116851, "long": -122.2693844139576, "estimated_pop": 15432, "n_blockgroups": 23, "estimated_jobs": 5442, "estimated_activity": 20874, "emp_pop_balance": 0.3527, "dist_to_bart_mi": 0.506, "cluster": 3 }, "geometry": { "type": "Point", "coordinates": [ -122.269384413957596, 37.860124599116851 ] } },
{ "type": "Feature", "properties": { "id": "BK-F8", "start_count": 1779, "end_count": 1908, "combined_count": 3687, "name": "Parker St at Fulton St", "lat": 37.8624644, "long": -122.2647911, "estimated_pop": 20421, "n_blockgroups": 24, "estimated_jobs": 7939, "estimated_activity": 28360, "emp_pop_balance": 0.3888, "dist_to_bart_mi": 0.519, "cluster": 2 }, "geometry": { "type": "Point", "coordinates": [ -122.2647911, 37.8624644 ] } },
{ "type": "Feature", "properties": { "id": "BK-F9", "start_count": 1346, "end_count": 1208, "combined_count": 2554, "name": "Telegraph Ave at Carleton St", "lat": 37.8623199, "long": -122.258801, "estimated_pop": 23621, "n_blockgroups": 25, "estimated_jobs": 6305, "estimated_activity": 29926, "emp_pop_balance": 0.2669, "dist_to_bart_mi": 0.707, "cluster": 3 }, "geometry": { "type": "Point", "coordinates": [ -122.258801, 37.8623199 ] } },
{ "type": "Feature", "properties": { "id": "BK-G4", "start_count": 893, "end_count": 1372, "combined_count": 2265, "name": "San Pablo Park", "lat": 37.855783320301988, "long": -122.28312671184538, "estimated_pop": 13146, "n_blockgroups": 15, "estimated_jobs": 5957, "estimated_activity": 19103, "emp_pop_balance": 0.4531, "dist_to_bart_mi": 0.968, "cluster": 3 }, "geometry": { "type": "Point", "coordinates": [ -122.283126711845384, 37.855783320301988 ] } },
{ "type": "Feature", "properties": { "id": "BK-G7", "start_count": 2041, "end_count": 2174, "combined_count": 4215, "name": "Oregon St at Adeline St", "lat": 37.8575672, "long": -122.2675583, "estimated_pop": 10658, "n_blockgroups": 16, "estimated_jobs": 1462, "estimated_activity": 12120, "emp_pop_balance": 0.1372, "dist_to_bart_mi": 0.744, "cluster": 3 }, "geometry": { "type": "Point", "coordinates": [ -122.2675583, 37.8575672 ] } },
{ "type": "Feature", "properties": { "id": "BK-G8", "start_count": 888, "end_count": 732, "combined_count": 1620, "name": "Ellsworth St at Russell St", "lat": 37.857607747399882, "long": -122.26160466670989, "estimated_pop": 13752, "n_blockgroups": 23, "estimated_jobs": 5621, "estimated_activity": 19373, "emp_pop_balance": 0.4088, "dist_to_bart_mi": 0.349, "cluster": 3 }, "geometry": { "type": "Point", "coordinates": [ -122.261604666709886, 37.857607747399882 ] } },
{ "type": "Feature", "properties": { "id": "BK-H10", "start_count": 1827, "end_count": 1601, "combined_count": 3428, "name": "Russell St at College Ave", "lat": 37.8584732, "long": -122.2532529, "estimated_pop": 14456, "n_blockgroups": 19, "estimated_jobs": 7316, "estimated_activity": 21772, "emp_pop_balance": 0.5061, "dist_to_bart_mi": 0.549, "cluster": 3 }, "geometry": { "type": "Point", "coordinates": [ -122.2532529, 37.8584732 ] } },
{ "type": "Feature", "properties": { "id": "BK-H3", "start_count": 1444, "end_count": 1649, "combined_count": 3093, "name": "Ninth St at Heinz Ave", "lat": 37.853906961643801, "long": -122.2896981239319, "estimated_pop": 13146, "n_blockgroups": 15, "estimated_jobs": 5957, "estimated_activity": 19103, "emp_pop_balance": 0.4531, "dist_to_bart_mi": 0.968, "cluster": 3 }, "geometry": { "type": "Point", "coordinates": [ -122.289698123931899, 37.853906961643801 ] } },
{ "type": "Feature", "properties": { "id": "BK-H6", "start_count": 2525, "end_count": 2592, "combined_count": 5117, "name": "Ashby BART Station", "lat": 37.8524766, "long": -122.2702132, "estimated_pop": 5576, "n_blockgroups": 11, "estimated_jobs": 3315, "estimated_activity": 8891, "emp_pop_balance": 0.5945, "dist_to_bart_mi": 1.061, "cluster": 0 }, "geometry": { "type": "Point", "coordinates": [ -122.2702132, 37.8524766 ] } },
{ "type": "Feature", "properties": { "id": "BK-H8", "start_count": 862, "end_count": 797, "combined_count": 1659, "name": "Fulton St at Ashby Ave", "lat": 37.855573661828792, "long": -122.2635653614998, "estimated_pop": 13385, "n_blockgroups": 19, "estimated_jobs": 3567, "estimated_activity": 16952, "emp_pop_balance": 0.2665, "dist_to_bart_mi": 0.025, "cluster": 3 }, "geometry": { "type": "Point", "coordinates": [ -122.263565361499801, 37.855573661828792 ] } },
{ "type": "Feature", "properties": { "id": "BK-H9", "start_count": 1147, "end_count": 1044, "combined_count": 2191, "name": "Telegraph Ave at Ashby Ave", "lat": 37.8559558, "long": -122.2597949, "estimated_pop": 12624, "n_blockgroups": 20, "estimated_jobs": 7038, "estimated_activity": 19662, "emp_pop_balance": 0.5575, "dist_to_bart_mi": 0.381, "cluster": 3 }, "geometry": { "type": "Point", "coordinates": [ -122.2597949, 37.8559558 ] } },
{ "type": "Feature", "properties": { "id": "BK-I5", "start_count": 1278, "end_count": 1461, "combined_count": 2739, "name": "Woolsey St at Sacramento St", "lat": 37.8505777, "long": -122.2781754, "estimated_pop": 12944, "n_blockgroups": 17, "estimated_jobs": 7136, "estimated_activity": 20080, "emp_pop_balance": 0.5513, "dist_to_bart_mi": 0.578, "cluster": 3 }, "geometry": { "type": "Point", "coordinates": [ -122.2781754, 37.8505777 ] } },
{ "type": "Feature", "properties": { "id": "BK-I6", "start_count": 696, "end_count": 772, "combined_count": 1468, "name": "Harmon St at Adeline St", "lat": 37.849735, "long": -122.270582, "estimated_pop": 9668, "n_blockgroups": 16, "estimated_jobs": 5448, "estimated_activity": 15116, "emp_pop_balance": 0.5635, "dist_to_bart_mi": 0.478, "cluster": 3 }, "geometry": { "type": "Point", "coordinates": [ -122.270582, 37.849735 ] } },
{ "type": "Feature", "properties": { "id": "EM-1", "start_count": 0, "end_count": 1, "combined_count": 1, "name": "Emeryville Depot", "lat": 37.830296182687, "long": -122.2894299030304, "estimated_pop": 13329, "n_blockgroups": 19, "estimated_jobs": 2526, "estimated_activity": 15855, "emp_pop_balance": 0.1895, "dist_to_bart_mi": 0.471, "cluster": 3 }, "geometry": { "type": "Point", "coordinates": [ -122.289429903030396, 37.830296182687 ] } },
{ "type": "Feature", "properties": { "id": "EM-A1", "start_count": 690, "end_count": 763, "combined_count": 1453, "name": "59th St at Horton St", "lat": 37.8409452, "long": -122.2913604, "estimated_pop": 13062, "n_blockgroups": 19, "estimated_jobs": 2968, "estimated_activity": 16030, "emp_pop_balance": 0.2272, "dist_to_bart_mi": 0.19, "cluster": 3 }, "geometry": { "type": "Point", "coordinates": [ -122.2913604, 37.8409452 ] } },
{ "type": "Feature", "properties": { "id": "EM-A2", "start_count": 743, "end_count": 923, "combined_count": 1666, "name": "Doyle St at 59th St", "lat": 37.8419238, "long": -122.2880451, "estimated_pop": 1996, "n_blockgroups": 11, "estimated_jobs": 6120, "estimated_activity": 8116, "emp_pop_balance": 3.0664, "dist_to_bart_mi": 1.237, "cluster": 0 }, "geometry": { "type": "Point", "coordinates": [ -122.2880451, 37.8419238 ] } },
{ "type": "Feature", "properties": { "id": "EM-B0-2", "start_count": 209, "end_count": 276, "combined_count": 485, "name": "2100 Powell St", "lat": 37.839543082665628, "long": -122.2987177222967, "estimated_pop": 8832, "n_blockgroups": 15, "estimated_jobs": 12569, "estimated_activity": 21401, "emp_pop_balance": 1.4232, "dist_to_bart_mi": 1.423, "cluster": 0 }, "geometry": { "type": "Point", "coordinates": [ -122.298717722296701, 37.839543082665628 ] } },
{ "type": "Feature", "properties": { "id": "EM-B1", "start_count": 566, "end_count": 788, "combined_count": 1354, "name": "Emeryville Public Market", "lat": 37.840521166949692, "long": -122.29352831840517, "estimated_pop": 10162, "n_blockgroups": 15, "estimated_jobs": 10943, "estimated_activity": 21105, "emp_pop_balance": 1.0769, "dist_to_bart_mi": 1.236, "cluster": 0 }, "geometry": { "type": "Point", "coordinates": [ -122.293528318405166, 37.840521166949692 ] } },
{ "type": "Feature", "properties": { "id": "EM-B2", "start_count": 417, "end_count": 442, "combined_count": 859, "name": "Stanford Ave at Hollis St", "lat": 37.8384435, "long": -122.2886647, "estimated_pop": 8041, "n_blockgroups": 12, "estimated_jobs": 5997, "estimated_activity": 14039, "emp_pop_balance": 0.7458, "dist_to_bart_mi": 1.061, "cluster": 0 }, "geometry": { "type": "Point", "coordinates": [ -122.2886647, 37.8384435 ] } },
{ "type": "Feature", "properties": { "id": "EM-C1", "start_count": 593, "end_count": 798, "combined_count": 1391, "name": "65th St at Hollis St", "lat": 37.8467842, "long": -122.2913761, "estimated_pop": 1246, "n_blockgroups": 4, "estimated_jobs": 4325, "estimated_activity": 5571, "emp_pop_balance": 3.4706, "dist_to_bart_mi": 2.24, "cluster": 0 }, "geometry": { "type": "Point", "coordinates": [ -122.2913761, 37.8467842 ] } },
{ "type": "Feature", "properties": { "id": "EM-C2", "start_count": 267, "end_count": 351, "combined_count": 618, "name": "53rd St at Hollis St", "lat": 37.8361823, "long": -122.2871801, "estimated_pop": 5411, "n_blockgroups": 6, "estimated_jobs": 10935, "estimated_activity": 16346, "emp_pop_balance": 2.0207, "dist_to_bart_mi": 1.815, "cluster": 0 }, "geometry": { "type": "Point", "coordinates": [ -122.2871801, 37.8361823 ] } },
{ "type": "Feature", "properties": { "id": "EM-C3", "start_count": 462, "end_count": 610, "combined_count": 1072, "name": "47th St at San Pablo Ave", "lat": 37.8356703, "long": -122.2811258, "estimated_pop": 7633, "n_blockgroups": 14, "estimated_jobs": 12716, "estimated_activity": 20349, "emp_pop_balance": 1.6659, "dist_to_bart_mi": 1.538, "cluster": 0 }, "geometry": { "type": "Point", "coordinates": [ -122.2811258, 37.8356703 ] } },
{ "type": "Feature", "properties": { "id": "EM-D2", "start_count": 630, "end_count": 847, "combined_count": 1477, "name": "Horton St at 40th St", "lat": 37.8297046, "long": -122.2876102, "estimated_pop": 8392, "n_blockgroups": 15, "estimated_jobs": 11995, "estimated_activity": 20387, "emp_pop_balance": 1.4293, "dist_to_bart_mi": 1.356, "cluster": 0 }, "geometry": { "type": "Point", "coordinates": [ -122.2876102, 37.8297046 ] } },
{ "type": "Feature", "properties": { "id": "EM-D3", "start_count": 298, "end_count": 516, "combined_count": 814, "name": "Emeryville Town Hall", "lat": 37.8312752, "long": -122.2856333, "estimated_pop": 7761, "n_blockgroups": 14, "estimated_jobs": 8946, "estimated_activity": 16707, "emp_pop_balance": 1.1527, "dist_to_bart_mi": 1.238, "cluster": 0 }, "geometry": { "type": "Point", "coordinates": [ -122.2856333, 37.8312752 ] } },
{ "type": "Feature", "properties": { "id": "EM-D4", "start_count": 628, "end_count": 697, "combined_count": 1325, "name": "Adeline St at 40th St", "lat": 37.8312769, "long": -122.2782669, "estimated_pop": 4430, "n_blockgroups": 12, "estimated_jobs": 9822, "estimated_activity": 14251, "emp_pop_balance": 2.2173, "dist_to_bart_mi": 1.429, "cluster": 0 }, "geometry": { "type": "Point", "coordinates": [ -122.2782669, 37.8312769 ] } },
{ "type": "Feature", "properties": { "id": "OK-A2", "start_count": 747, "end_count": 695, "combined_count": 1442, "name": "Telegraph Ave at Alcatraz Ave", "lat": 37.850221874496789, "long": -122.26017236709596, "estimated_pop": 7265, "n_blockgroups": 16, "estimated_jobs": 10529, "estimated_activity": 17794, "emp_pop_balance": 1.4492, "dist_to_bart_mi": 1.214, "cluster": 0 }, "geometry": { "type": "Point", "coordinates": [ -122.260172367095961, 37.850221874496789 ] } },
{ "type": "Feature", "properties": { "id": "OK-A4", "start_count": 797, "end_count": 633, "combined_count": 1430, "name": "62nd St at Claremont Ave", "lat": 37.8494355, "long": -122.2525406, "estimated_pop": 9966, "n_blockgroups": 18, "estimated_jobs": 7573, "estimated_activity": 17539, "emp_pop_balance": 0.7599, "dist_to_bart_mi": 0.903, "cluster": 0 }, "geometry": { "type": "Point", "coordinates": [ -122.2525406, 37.8494355 ] } },
{ "type": "Feature", "properties": { "id": "OK-B1", "start_count": 581, "end_count": 663, "combined_count": 1244, "name": "Alcatraz Ave at Shattuck Ave", "lat": 37.849594967776646, "long": -122.26556897163393, "estimated_pop": 3308, "n_blockgroups": 12, "estimated_jobs": 6249, "estimated_activity": 9557, "emp_pop_balance": 1.8889, "dist_to_bart_mi": 1.135, "cluster": 0 }, "geometry": { "type": "Point", "coordinates": [ -122.265568971633925, 37.849594967776646 ] } },
{ "type": "Feature", "properties": { "id": "OK-B2", "start_count": 592, "end_count": 559, "combined_count": 1151, "name": "Bushrod Park", "lat": 37.8465156, "long": -122.2653043, "estimated_pop": 2312, "n_blockgroups": 11, "estimated_jobs": 6741, "estimated_activity": 9052, "emp_pop_balance": 2.9158, "dist_to_bart_mi": 1.295, "cluster": 0 }, "geometry": { "type": "Point", "coordinates": [ -122.2653043, 37.8465156 ] } },
{ "type": "Feature", "properties": { "id": "OK-B3", "start_count": 432, "end_count": 409, "combined_count": 841, "name": "Telegraph Ave at 58th St", "lat": 37.8444927, "long": -122.261351, "estimated_pop": 5444, "n_blockgroups": 17, "estimated_jobs": 7371, "estimated_activity": 12815, "emp_pop_balance": 1.354, "dist_to_bart_mi": 1.038, "cluster": 0 }, "geometry": { "type": "Point", "coordinates": [ -122.261351, 37.8444927 ] } },
{ "type": "Feature", "properties": { "id": "OK-B4", "start_count": 2837, "end_count": 2282, "combined_count": 5119, "name": "Rockridge BART Station", "lat": 37.844278753990672, "long": -122.251900434494, "estimated_pop": 10079, "n_blockgroups": 17, "estimated_jobs": 5577, "estimated_activity": 15656, "emp_pop_balance": 0.5533, "dist_to_bart_mi": 0.642, "cluster": 3 }, "geometry": { "type": "Point", "coordinates": [ -122.251900434494004, 37.844278753990672 ] } },
{ "type": "Feature", "properties": { "id": "OK-B5", "start_count": 548, "end_count": 387, "combined_count": 935, "name": "College Ave at Taft Ave", "lat": 37.8417999, "long": -122.2515349, "estimated_pop": 11996, "n_blockgroups": 16, "estimated_jobs": 5637, "estimated_activity": 17633, "emp_pop_balance": 0.4699, "dist_to_bart_mi": 0.542, "cluster": 3 }, "geometry": { "type": "Point", "coordinates": [ -122.2515349, 37.8417999 ] } },
{ "type": "Feature", "properties": { "id": "OK-C2", "start_count": 779, "end_count": 750, "combined_count": 1529, "name": "Dover St at 57th St", "lat": 37.8426295, "long": -122.267738, "estimated_pop": 9709, "n_blockgroups": 15, "estimated_jobs": 4259, "estimated_activity": 13968, "emp_pop_balance": 0.4387, "dist_to_bart_mi": 0.344, "cluster": 3 }, "geometry": { "type": "Point", "coordinates": [ -122.267738, 37.8426295 ] } },
{ "type": "Feature", "properties": { "id": "OK-C3", "start_count": 552, "end_count": 614, "combined_count": 1166, "name": "55th St at Telegraph Ave", "lat": 37.8401858, "long": -122.2618225, "estimated_pop": 9940, "n_blockgroups": 17, "estimated_jobs": 5062, "estimated_activity": 15002, "emp_pop_balance": 0.5093, "dist_to_bart_mi": 0.887, "cluster": 3 }, "geometry": { "type": "Point", "coordinates": [ -122.2618225, 37.8401858 ] } },
{ "type": "Feature", "properties": { "id": "OK-C4", "start_count": 674, "end_count": 824, "combined_count": 1498, "name": "Miles Ave at Cavour St", "lat": 37.8388, "long": -122.258732, "estimated_pop": 12895, "n_blockgroups": 19, "estimated_jobs": 4539, "estimated_activity": 17434, "emp_pop_balance": 0.352, "dist_to_bart_mi": 0.297, "cluster": 3 }, "geometry": { "type": "Point", "coordinates": [ -122.258732, 37.8388 ] } },
{ "type": "Feature", "properties": { "id": "OK-C5", "start_count": 556, "end_count": 499, "combined_count": 1055, "name": "College Ave at Bryant Ave", "lat": 37.8381269, "long": -122.2512714, "estimated_pop": 12478, "n_blockgroups": 20, "estimated_jobs": 2725, "estimated_activity": 15203, "emp_pop_balance": 0.2183, "dist_to_bart_mi": 0.471, "cluster": 3 }, "geometry": { "type": "Point", "coordinates": [ -122.2512714, 37.8381269 ] } },
{ "type": "Feature", "properties": { "id": "OK-D2", "start_count": 1305, "end_count": 1318, "combined_count": 2623, "name": "Genoa St at 55th St", "lat": 37.8396488, "long": -122.2717561, "estimated_pop": 11647, "n_blockgroups": 19, "estimated_jobs": 2563, "estimated_activity": 14210, "emp_pop_balance": 0.2201, "dist_to_bart_mi": 0.51, "cluster": 3 }, "geometry": { "type": "Point", "coordinates": [ -122.2717561, 37.8396488 ] } },
{ "type": "Feature", "properties": { "id": "OK-D3-1", "start_count": 497, "end_count": 404, "combined_count": 901, "name": "Shattuck Ave at 55th St", "lat": 37.8403643, "long": -122.2644881, "estimated_pop": 8883, "n_blockgroups": 15, "estimated_jobs": 2822, "estimated_activity": 11705, "emp_pop_balance": 0.3177, "dist_to_bart_mi": 0.014, "cluster": 3 }, "geometry": { "type": "Point", "coordinates": [ -122.2644881, 37.8403643 ] } },
{ "type": "Feature", "properties": { "id": "OK-D3-2", "start_count": 186, "end_count": 163, "combined_count": 349, "name": "52nd St at MLK Jr Way", "lat": 37.837369, "long": -122.267656, "estimated_pop": 8233, "n_blockgroups": 14, "estimated_jobs": 2623, "estimated_activity": 10857, "emp_pop_balance": 0.3186, "dist_to_bart_mi": 0.185, "cluster": 3 }, "geometry": { "type": "Point", "coordinates": [ -122.267656, 37.837369 ] } },
{ "type": "Feature", "properties": { "id": "OK-D4", "start_count": 2021, "end_count": 1895, "combined_count": 3916, "name": "Telegraph Ave at 49th St", "lat": 37.83575, "long": -122.262654, "estimated_pop": 11474, "n_blockgroups": 19, "estimated_jobs": 3523, "estimated_activity": 14997, "emp_pop_balance": 0.307, "dist_to_bart_mi": 0.682, "cluster": 3 }, "geometry": { "type": "Point", "coordinates": [ -122.262654, 37.83575 ] } },
{ "type": "Feature", "properties": { "id": "OK-D5", "start_count": 777, "end_count": 673, "combined_count": 1450, "name": "Broadway at Coronado Ave", "lat": 37.8357883, "long": -122.2516207, "estimated_pop": 10705, "n_blockgroups": 19, "estimated_jobs": 4002, "estimated_activity": 14708, "emp_pop_balance": 0.3738, "dist_to_bart_mi": 0.611, "cluster": 3 }, "geometry": { "type": "Point", "coordinates": [ -122.2516207, 37.8357883 ] } },
{ "type": "Feature", "properties": { "id": "OK-E3", "start_count": 195, "end_count": 200, "combined_count": 395, "name": "45th St at MLK Jr Way", "lat": 37.8335577, "long": -122.2674183, "estimated_pop": 10261, "n_blockgroups": 20, "estimated_jobs": 3763, "estimated_activity": 14023, "emp_pop_balance": 0.3667, "dist_to_bart_mi": 0.535, "cluster": 3 }, "geometry": { "type": "Point", "coordinates": [ -122.2674183, 37.8335577 ] } },
{ "type": "Feature", "properties": { "id": "OK-E4", "start_count": 1188, "end_count": 1041, "combined_count": 2229, "name": "Shattuck Ave at Telegraph Ave", "lat": 37.833538871616042, "long": -122.26369366575599, "estimated_pop": 7687, "n_blockgroups": 14, "estimated_jobs": 2444, "estimated_activity": 10132, "emp_pop_balance": 0.318, "dist_to_bart_mi": 0.438, "cluster": 3 }, "geometry": { "type": "Point", "coordinates": [ -122.263693665755994, 37.833538871616042 ] } },
{ "type": "Feature", "properties": { "id": "OK-E5", "start_count": 523, "end_count": 493, "combined_count": 1016, "name": "45th St at Manila", "lat": 37.833293522232097, "long": -122.25622415542604, "estimated_pop": 12138, "n_blockgroups": 17, "estimated_jobs": 2958, "estimated_activity": 15096, "emp_pop_balance": 0.2437, "dist_to_bart_mi": 0.746, "cluster": 3 }, "geometry": { "type": "Point", "coordinates": [ -122.25622415542604, 37.833293522232097 ] } },
{ "type": "Feature", "properties": { "id": "OK-F2-2", "start_count": 530, "end_count": 525, "combined_count": 1055, "name": "Market St at 45th St", "lat": 37.834174, "long": -122.272968, "estimated_pop": 12549, "n_blockgroups": 20, "estimated_jobs": 4558, "estimated_activity": 17108, "emp_pop_balance": 0.3632, "dist_to_bart_mi": 0.777, "cluster": 3 }, "geometry": { "type": "Point", "coordinates": [ -122.272968, 37.834174 ] } },
{ "type": "Feature", "properties": { "id": "OK-F3", "start_count": 644, "end_count": 564, "combined_count": 1208, "name": "West St at 40th St", "lat": 37.8302232, "long": -122.2709501, "estimated_pop": 10988, "n_blockgroups": 18, "estimated_jobs": 4483, "estimated_activity": 15471, "emp_pop_balance": 0.408, "dist_to_bart_mi": 0.738, "cluster": 3 }, "geometry": { "type": "Point", "coordinates": [ -122.2709501, 37.8302232 ] } },
{ "type": "Feature", "properties": { "id": "OK-F4", "start_count": 5494, "end_count": 5426, "combined_count": 10920, "name": "MacArthur BART Station", "lat": 37.8285951, "long": -122.2663493, "estimated_pop": 11807, "n_blockgroups": 22, "estimated_jobs": 5157, "estimated_activity": 16964, "emp_pop_balance": 0.4368, "dist_to_bart_mi": 0.573, "cluster": 3 }, "geometry": { "type": "Point", "coordinates": [ -122.2663493, 37.8285951 ] } },
{ "type": "Feature", "properties": { "id": "OK-F5", "start_count": 1371, "end_count": 1227, "combined_count": 2598, "name": "Broadway at 40th St", "lat": 37.8277573, "long": -122.2567156, "estimated_pop": 11154, "n_blockgroups": 18, "estimated_jobs": 4973, "estimated_activity": 16127, "emp_pop_balance": 0.4459, "dist_to_bart_mi": 0.515, "cluster": 3 }, "geometry": { "type": "Point", "coordinates": [ -122.2567156, 37.8277573 ] } },
{ "type": "Feature", "properties": { "id": "OK-F6", "start_count": 1615, "end_count": 1457, "combined_count": 3072, "name": "40th St at Piedmont Ave", "lat": 37.825785004382006, "long": -122.25346968515623, "estimated_pop": 8057, "n_blockgroups": 13, "estimated_jobs": 2825, "estimated_activity": 10882, "emp_pop_balance": 0.3506, "dist_to_bart_mi": 0.598, "cluster": 3 }, "geometry": { "type": "Point", "coordinates": [ -122.253469685156233, 37.825785004382006 ] } },
{ "type": "Feature", "properties": { "id": "OK-G2", "start_count": 480, "end_count": 454, "combined_count": 934, "name": "Market St at 40th St", "lat": 37.8305452, "long": -122.2739367, "estimated_pop": 11577, "n_blockgroups": 19, "estimated_jobs": 4955, "estimated_activity": 16533, "emp_pop_balance": 0.428, "dist_to_bart_mi": 0.311, "cluster": 3 }, "geometry": { "type": "Point", "coordinates": [ -122.2739367, 37.8305452 ] } },
{ "type": "Feature", "properties": { "id": "OK-G3", "start_count": 482, "end_count": 379, "combined_count": 861, "name": "37th St at West St", "lat": 37.826695586409677, "long": -122.27179706096648, "estimated_pop": 11321, "n_blockgroups": 18, "estimated_jobs": 5092, "estimated_activity": 16413, "emp_pop_balance": 0.4498, "dist_to_bart_mi": 0.353, "cluster": 3 }, "geometry": { "type": "Point", "coordinates": [ -122.271797060966477, 37.826695586409677 ] } },
{ "type": "Feature", "properties": { "id": "OK-G4", "start_count": 669, "end_count": 535, "combined_count": 1204, "name": "MacArthur Blvd at Telegraph Ave", "lat": 37.8262863, "long": -122.2651002, "estimated_pop": 10475, "n_blockgroups": 17, "estimated_jobs": 5373, "estimated_activity": 15848, "emp_pop_balance": 0.5129, "dist_to_bart_mi": 0.65, "cluster": 3 }, "geometry": { "type": "Point", "coordinates": [ -122.2651002, 37.8262863 ] } },
{ "type": "Feature", "properties": { "id": "OK-G5", "start_count": 699, "end_count": 794, "combined_count": 1493, "name": "Mosswood Park", "lat": 37.824892529951121, "long": -122.26043654610294, "estimated_pop": 11873, "n_blockgroups": 19, "estimated_jobs": 4762, "estimated_activity": 16635, "emp_pop_balance": 0.401, "dist_to_bart_mi": 0.485, "cluster": 3 }, "geometry": { "type": "Point", "coordinates": [ -122.260436546102937, 37.824892529951121 ] } },
{ "type": "Feature", "properties": { "id": "OK-H2", "start_count": 830, "end_count": 818, "combined_count": 1648, "name": "32nd St at Adeline St", "lat": 37.8238474, "long": -122.2811926, "estimated_pop": 12431, "n_blockgroups": 18, "estimated_jobs": 4326, "estimated_activity": 16756, "emp_pop_balance": 0.348, "dist_to_bart_mi": 0.237, "cluster": 3 }, "geometry": { "type": "Point", "coordinates": [ -122.2811926, 37.8238474 ] } },
{ "type": "Feature", "properties": { "id": "OK-H2-2", "start_count": 193, "end_count": 241, "combined_count": 434, "name": "Brockhurst St at San Pablo Ave", "lat": 37.823522790214049, "long": -122.27718830108644, "estimated_pop": 11305, "n_blockgroups": 16, "estimated_jobs": 4558, "estimated_activity": 15863, "emp_pop_balance": 0.4032, "dist_to_bart_mi": 0.043, "cluster": 3 }, "geometry": { "type": "Point", "coordinates": [ -122.27718830108644, 37.823522790214049 ] } },
{ "type": "Feature", "properties": { "id": "OK-H3-2", "start_count": 567, "end_count": 558, "combined_count": 1125, "name": "West St at Brockhurst St", "lat": 37.822683859450208, "long": -122.27292420364392, "estimated_pop": 12807, "n_blockgroups": 20, "estimated_jobs": 12633, "estimated_activity": 25440, "emp_pop_balance": 0.9863, "dist_to_bart_mi": 0.564, "cluster": 2 }, "geometry": { "type": "Point", "coordinates": [ -122.272924203643925, 37.822683859450208 ] } },
{ "type": "Feature", "properties": { "id": "OK-H4-3", "start_count": 637, "end_count": 705, "combined_count": 1342, "name": "34th St at Telegraph Ave", "lat": 37.822467677145127, "long": -122.26597130298616, "estimated_pop": 11434, "n_blockgroups": 20, "estimated_jobs": 10056, "estimated_activity": 21491, "emp_pop_balance": 0.8795, "dist_to_bart_mi": 0.335, "cluster": 2 }, "geometry": { "type": "Point", "coordinates": [ -122.265971302986159, 37.822467677145127 ] } },
{ "type": "Feature", "properties": { "id": "OK-H5", "start_count": 1908, "end_count": 1938, "combined_count": 3846, "name": "Broadway at 30th St", "lat": 37.8193814, "long": -122.2619284, "estimated_pop": 13630, "n_blockgroups": 23, "estimated_jobs": 12232, "estimated_activity": 25862, "emp_pop_balance": 0.8974, "dist_to_bart_mi": 0.767, "cluster": 2 }, "geometry": { "type": "Point", "coordinates": [ -122.2619284, 37.8193814 ] } },
{ "type": "Feature", "properties": { "id": "OK-H9-1", "start_count": 1250, "end_count": 1519, "combined_count": 2769, "name": "Grand Ave at Santa Clara Ave", "lat": 37.8127441, "long": -122.2472152, "estimated_pop": 12019, "n_blockgroups": 19, "estimated_jobs": 4291, "estimated_activity": 16310, "emp_pop_balance": 0.3571, "dist_to_bart_mi": 0.4, "cluster": 3 }, "geometry": { "type": "Point", "coordinates": [ -122.2472152, 37.8127441 ] } },
{ "type": "Feature", "properties": { "id": "OK-H9-2", "start_count": 1080, "end_count": 1171, "combined_count": 2251, "name": "Lakeshore Ave at Trestle Glen Rd", "lat": 37.8110807, "long": -122.2432677, "estimated_pop": 12643, "n_blockgroups": 18, "estimated_jobs": 3309, "estimated_activity": 15951, "emp_pop_balance": 0.2617, "dist_to_bart_mi": 0.316, "cluster": 3 }, "geometry": { "type": "Point", "coordinates": [ -122.2432677, 37.8110807 ] } },
{ "type": "Feature", "properties": { "id": "OK-I3", "start_count": 332, "end_count": 444, "combined_count": 776, "name": "San Pablo Ave at 27th St", "lat": 37.8178269, "long": -122.2756976, "estimated_pop": 10802, "n_blockgroups": 19, "estimated_jobs": 7817, "estimated_activity": 18619, "emp_pop_balance": 0.7237, "dist_to_bart_mi": 0.215, "cluster": 3 }, "geometry": { "type": "Point", "coordinates": [ -122.2756976, 37.8178269 ] } },
{ "type": "Feature", "properties": { "id": "OK-I4", "start_count": 186, "end_count": 166, "combined_count": 352, "name": "27th St at MLK Jr Way", "lat": 37.8170154, "long": -122.2717615, "estimated_pop": 11579, "n_blockgroups": 20, "estimated_jobs": 14624, "estimated_activity": 26202, "emp_pop_balance": 1.263, "dist_to_bart_mi": 0.455, "cluster": 2 }, "geometry": { "type": "Point", "coordinates": [ -122.2717615, 37.8170154 ] } },
{ "type": "Feature", "properties": { "id": "OK-I5", "start_count": 1463, "end_count": 1502, "combined_count": 2965, "name": "Telegraph Ave at 27th St", "lat": 37.816073115011406, "long": -122.26788640022278, "estimated_pop": 14244, "n_blockgroups": 22, "estimated_jobs": 13730, "estimated_activity": 27974, "emp_pop_balance": 0.9639, "dist_to_bart_mi": 0.679, "cluster": 2 }, "geometry": { "type": "Point", "coordinates": [ -122.267886400222778, 37.816073115011406 ] } },
{ "type": "Feature", "properties": { "id": "OK-I6", "start_count": 3606, "end_count": 3609, "combined_count": 7215, "name": "Bay Pl at Vernon St", "lat": 37.8114831, "long": -122.2605061, "estimated_pop": 9889, "n_blockgroups": 17, "estimated_jobs": 1919, "estimated_activity": 11808, "emp_pop_balance": 0.194, "dist_to_bart_mi": 1.82, "cluster": 0 }, "geometry": { "type": "Point", "coordinates": [ -122.2605061, 37.8114831 ] } },
{ "type": "Feature", "properties": { "id": "OK-I8", "start_count": 2482, "end_count": 2665, "combined_count": 5147, "name": "Grand Ave at Perkins St", "lat": 37.80889393398715, "long": -122.25646018981932, "estimated_pop": 9971, "n_blockgroups": 16, "estimated_jobs": 1515, "estimated_activity": 11486, "emp_pop_balance": 0.152, "dist_to_bart_mi": 1.849, "cluster": 0 }, "geometry": { "type": "Point", "coordinates": [ -122.256460189819322, 37.80889393398715 ] } },
{ "type": "Feature", "properties": { "id": "OK-I9", "start_count": 3310, "end_count": 3720, "combined_count": 7030, "name": "El Embarcadero at Grand Ave", "lat": 37.808715, "long": -122.2492512, "estimated_pop": 8748, "n_blockgroups": 14, "estimated_jobs": 2450, "estimated_activity": 11198, "emp_pop_balance": 0.2801, "dist_to_bart_mi": 0.863, "cluster": 3 }, "geometry": { "type": "Point", "coordinates": [ -122.2492512, 37.808715 ] } },
{ "type": "Feature", "properties": { "id": "OK-J3", "start_count": 305, "end_count": 271, "combined_count": 576, "name": "24th St at Market St", "lat": 37.8160598, "long": -122.2782444, "estimated_pop": 11254, "n_blockgroups": 15, "estimated_jobs": 2573, "estimated_activity": 13827, "emp_pop_balance": 0.2286, "dist_to_bart_mi": 0.682, "cluster": 3 }, "geometry": { "type": "Point", "coordinates": [ -122.2782444, 37.8160598 ] } },
{ "type": "Feature", "properties": { "id": "OK-J4", "start_count": 361, "end_count": 358, "combined_count": 719, "name": "Isabella St at San Pablo Ave", "lat": 37.814988230424163, "long": -122.2748440504074, "estimated_pop": 11688, "n_blockgroups": 17, "estimated_jobs": 4656, "estimated_activity": 16344, "emp_pop_balance": 0.3984, "dist_to_bart_mi": 0.551, "cluster": 3 }, "geometry": { "type": "Point", "coordinates": [ -122.274844050407395, 37.814988230424163 ] } },
{ "type": "Feature", "properties": { "id": "OK-J5", "start_count": 1515, "end_count": 1651, "combined_count": 3166, "name": "23rd St at Telegraph Ave", "lat": 37.812581085817413, "long": -122.26857304573061, "estimated_pop": 11694, "n_blockgroups": 18, "estimated_jobs": 7613, "estimated_activity": 19307, "emp_pop_balance": 0.6511, "dist_to_bart_mi": 0.458, "cluster": 3 }, "geometry": { "type": "Point", "coordinates": [ -122.268573045730605, 37.812581085817413 ] } },
{ "type": "Feature", "properties": { "id": "OK-J6-1", "start_count": 2893, "end_count": 3091, "combined_count": 5984, "name": "Grand Ave at Webster St", "lat": 37.8113768, "long": -122.2651925, "estimated_pop": 13636, "n_blockgroups": 20, "estimated_jobs": 11630, "estimated_activity": 25266, "emp_pop_balance": 0.8529, "dist_to_bart_mi": 0.721, "cluster": 2 }, "geometry": { "type": "Point", "coordinates": [ -122.2651925, 37.8113768 ] } },
{ "type": "Feature", "properties": { "id": "OK-J6-2", "start_count": 1244, "end_count": 1194, "combined_count": 2438, "name": "Snow Park", "lat": 37.807813182179032, "long": -122.26449608802795, "estimated_pop": 15384, "n_blockgroups": 23, "estimated_jobs": 3474, "estimated_activity": 18858, "emp_pop_balance": 0.2258, "dist_to_bart_mi": 1.159, "cluster": 3 }, "geometry": { "type": "Point", "coordinates": [ -122.264496088027954, 37.807813182179032 ] } },
{ "type": "Feature", "properties": { "id": "OK-K10", "start_count": 1114, "end_count": 1038, "combined_count": 2152, "name": "21st St at 5th Ave", "lat": 37.800459411713945, "long": -122.24745869636536, "estimated_pop": 11734, "n_blockgroups": 21, "estimated_jobs": 2616, "estimated_activity": 14351, "emp_pop_balance": 0.223, "dist_to_bart_mi": 1.354, "cluster": 3 }, "geometry": { "type": "Point", "coordinates": [ -122.247458696365356, 37.800459411713945 ] } },
{ "type": "Feature", "properties": { "id": "OK-K17", "start_count": 68, "end_count": 55, "combined_count": 123, "name": "Foothill Blvd at Harrington Ave", "lat": 37.77993, "long": -122.2177284, "estimated_pop": 11810, "n_blockgroups": 18, "estimated_jobs": 4118, "estimated_activity": 15927, "emp_pop_balance": 0.3487, "dist_to_bart_mi": 0.744, "cluster": 3 }, "geometry": { "type": "Point", "coordinates": [ -122.2177284, 37.77993 ] } },
{ "type": "Feature", "properties": { "id": "OK-K2", "start_count": 654, "end_count": 708, "combined_count": 1362, "name": "DeFremery Park", "lat": 37.8123315, "long": -122.2851712, "estimated_pop": 13051, "n_blockgroups": 21, "estimated_jobs": 9096, "estimated_activity": 22147, "emp_pop_balance": 0.697, "dist_to_bart_mi": 0.608, "cluster": 2 }, "geometry": { "type": "Point", "coordinates": [ -122.2851712, 37.8123315 ] } },
{ "type": "Feature", "properties": { "id": "OK-K3", "start_count": 785, "end_count": 793, "combined_count": 1578, "name": "Marston Campbell Park", "lat": 37.8098236, "long": -122.2801923, "estimated_pop": 14111, "n_blockgroups": 23, "estimated_jobs": 18542, "estimated_activity": 32653, "emp_pop_balance": 1.314, "dist_to_bart_mi": 0.489, "cluster": 2 }, "geometry": { "type": "Point", "coordinates": [ -122.2801923, 37.8098236 ] } },
{ "type": "Feature", "properties": { "id": "OK-K4", "start_count": 231, "end_count": 207, "combined_count": 438, "name": "San Pablo Ave at MLK Jr Way", "lat": 37.8113514, "long": -122.2734217, "estimated_pop": 16193, "n_blockgroups": 20, "estimated_jobs": 22477, "estimated_activity": 38671, "emp_pop_balance": 1.388, "dist_to_bart_mi": 0.451, "cluster": 2 }, "geometry": { "type": "Point", "coordinates": [ -122.2734217, 37.8113514 ] } },
{ "type": "Feature", "properties": { "id": "OK-K5-1", "start_count": 2156, "end_count": 2338, "combined_count": 4494, "name": "Telegraph Ave at 19th St", "lat": 37.8087021, "long": -122.2699271, "estimated_pop": 15193, "n_blockgroups": 20, "estimated_jobs": 22897, "estimated_activity": 38090, "emp_pop_balance": 1.5071, "dist_to_bart_mi": 0.449, "cluster": 2 }, "geometry": { "type": "Point", "coordinates": [ -122.2699271, 37.8087021 ] } },
{ "type": "Feature", "properties": { "id": "OK-K5-2", "start_count": 3957, "end_count": 4158, "combined_count": 8115, "name": "19th Street BART Station", "lat": 37.809368612134847, "long": -122.26795077323914, "estimated_pop": 14265, "n_blockgroups": 25, "estimated_jobs": 10627, "estimated_activity": 24892, "emp_pop_balance": 0.745, "dist_to_bart_mi": 0.624, "cluster": 2 }, "geometry": { "type": "Point", "coordinates": [ -122.267950773239136, 37.809368612134847 ] } },
{ "type": "Feature", "properties": { "id": "OK-K6", "start_count": 1054, "end_count": 1127, "combined_count": 2181, "name": "Webster St at 19th St", "lat": 37.806969760955937, "long": -122.26658821105956, "estimated_pop": 14448, "n_blockgroups": 22, "estimated_jobs": 3562, "estimated_activity": 18010, "emp_pop_balance": 0.2465, "dist_to_bart_mi": 1.018, "cluster": 3 }, "geometry": { "type": "Point", "coordinates": [ -122.266588211059556, 37.806969760955937 ] } },
{ "type": "Feature", "properties": { "id": "OK-K7", "start_count": 1651, "end_count": 1453, "combined_count": 3104, "name": "Madison St at 17th St", "lat": 37.804036784023602, "long": -122.26240932941435, "estimated_pop": 11404, "n_blockgroups": 19, "estimated_jobs": 3455, "estimated_activity": 14859, "emp_pop_balance": 0.3029, "dist_to_bart_mi": 0.728, "cluster": 3 }, "geometry": { "type": "Point", "coordinates": [ -122.262409329414353, 37.804036784023602 ] } },
{ "type": "Feature", "properties": { "id": "OK-K9", "start_count": 2140, "end_count": 2493, "combined_count": 4633, "name": "2nd Ave at E 18th St", "lat": 37.800213566969802, "long": -122.25381016731262, "estimated_pop": 13662, "n_blockgroups": 19, "estimated_jobs": 7006, "estimated_activity": 20668, "emp_pop_balance": 0.5128, "dist_to_bart_mi": 0.547, "cluster": 3 }, "geometry": { "type": "Point", "coordinates": [ -122.253810167312622, 37.800213566969802 ] } },
{ "type": "Feature", "properties": { "id": "OK-L1", "start_count": 1257, "end_count": 1277, "combined_count": 2534, "name": "14th St at Mandela Pkwy", "lat": 37.8107432, "long": -122.2914153, "estimated_pop": 13690, "n_blockgroups": 24, "estimated_jobs": 33633, "estimated_activity": 47323, "emp_pop_balance": 2.4569, "dist_to_bart_mi": 0.252, "cluster": 2 }, "geometry": { "type": "Point", "coordinates": [ -122.2914153, 37.8107432 ] } },
{ "type": "Feature", "properties": { "id": "OK-L10", "start_count": 208, "end_count": 236, "combined_count": 444, "name": "6th Ave at E 12th St (Temporary Location)", "lat": 37.794396, "long": -122.253842, "estimated_pop": 15348, "n_blockgroups": 23, "estimated_jobs": 35227, "estimated_activity": 50574, "emp_pop_balance": 2.2952, "dist_to_bart_mi": 0.221, "cluster": 2 }, "geometry": { "type": "Point", "coordinates": [ -122.253842, 37.794396 ] } },
{ "type": "Feature", "properties": { "id": "OK-L11", "start_count": 149, "end_count": 137, "combined_count": 286, "name": "10th Ave at E 15th St", "lat": 37.7927143, "long": -122.2487796, "estimated_pop": 14470, "n_blockgroups": 25, "estimated_jobs": 51801, "estimated_activity": 66270, "emp_pop_balance": 3.58, "dist_to_bart_mi": 0.201, "cluster": 1 }, "geometry": { "type": "Point", "coordinates": [ -122.2487796, 37.7927143 ] } },
{ "type": "Feature", "properties": { "id": "OK-L12", "start_count": 104, "end_count": 108, "combined_count": 212, "name": "San Antonio Park", "lat": 37.790139851853638, "long": -122.24237322807312, "estimated_pop": 13821, "n_blockgroups": 23, "estimated_jobs": 3010, "estimated_activity": 16831, "emp_pop_balance": 0.2178, "dist_to_bart_mi": 0.955, "cluster": 3 }, "geometry": { "type": "Point", "coordinates": [ -122.24237322807312, 37.790139851853638 ] } },
{ "type": "Feature", "properties": { "id": "OK-L14", "start_count": 169, "end_count": 210, "combined_count": 379, "name": "23rd Ave at Foothill Blvd", "lat": 37.7851915, "long": -122.2343822, "estimated_pop": 4857, "n_blockgroups": 12, "estimated_jobs": 1948, "estimated_activity": 6805, "emp_pop_balance": 0.401, "dist_to_bart_mi": 0.695, "cluster": 3 }, "geometry": { "type": "Point", "coordinates": [ -122.2343822, 37.7851915 ] } },
{ "type": "Feature", "properties": { "id": "OK-L16", "start_count": 100, "end_count": 108, "combined_count": 208, "name": "Foothill Blvd at Fruitvale Ave", "lat": 37.7837569, "long": -122.2226033, "estimated_pop": 5713, "n_blockgroups": 13, "estimated_jobs": 2101, "estimated_activity": 7814, "emp_pop_balance": 0.3678, "dist_to_bart_mi": 0.799, "cluster": 3 }, "geometry": { "type": "Point", "coordinates": [ -122.2226033, 37.7837569 ] } },
{ "type": "Feature", "properties": { "id": "OK-L19", "start_count": 118, "end_count": 125, "combined_count": 243, "name": "Bond St at High St", "lat": 37.774152564302362, "long": -122.21239820122716, "estimated_pop": 18121, "n_blockgroups": 23, "estimated_jobs": 2036, "estimated_activity": 20158, "emp_pop_balance": 0.1124, "dist_to_bart_mi": 0.974, "cluster": 3 }, "geometry": { "type": "Point", "coordinates": [ -122.21239820122716, 37.774152564302362 ] } },
{ "type": "Feature", "properties": { "id": "OK-L3", "start_count": 332, "end_count": 408, "combined_count": 740, "name": "14th St at Filbert St", "lat": 37.80874983465997, "long": -122.28328227996823, "estimated_pop": 17191, "n_blockgroups": 24, "estimated_jobs": 1970, "estimated_activity": 19161, "emp_pop_balance": 0.1146, "dist_to_bart_mi": 1.133, "cluster": 3 }, "geometry": { "type": "Point", "coordinates": [ -122.283282279968233, 37.80874983465997 ] } },
{ "type": "Feature", "properties": { "id": "OK-L4", "start_count": 434, "end_count": 446, "combined_count": 880, "name": "MLK Jr Way at 14th St", "lat": 37.8061628, "long": -122.2760402, "estimated_pop": 18832, "n_blockgroups": 24, "estimated_jobs": 1932, "estimated_activity": 20764, "emp_pop_balance": 0.1026, "dist_to_bart_mi": 1.006, "cluster": 3 }, "geometry": { "type": "Point", "coordinates": [ -122.2760402, 37.8061628 ] } },
{ "type": "Feature", "properties": { "id": "OK-L5", "start_count": 1995, "end_count": 1967, "combined_count": 3962, "name": "Frank H Ogawa Plaza", "lat": 37.804562354930297, "long": -122.27173805236816, "estimated_pop": 17221, "n_blockgroups": 19, "estimated_jobs": 2532, "estimated_activity": 19753, "emp_pop_balance": 0.1471, "dist_to_bart_mi": 0.499, "cluster": 3 }, "geometry": { "type": "Point", "coordinates": [ -122.271738052368164, 37.804562354930297 ] } },
{ "type": "Feature", "properties": { "id": "OK-L6", "start_count": 901, "end_count": 926, "combined_count": 1827, "name": "13th St at Franklin St", "lat": 37.803030135756188, "long": -122.27049618959428, "estimated_pop": 9271, "n_blockgroups": 14, "estimated_jobs": 2505, "estimated_activity": 11775, "emp_pop_balance": 0.2702, "dist_to_bart_mi": 0.749, "cluster": 3 }, "geometry": { "type": "Point", "coordinates": [ -122.270496189594283, 37.803030135756188 ] } },
{ "type": "Feature", "properties": { "id": "OK-L6-2", "start_count": 528, "end_count": 533, "combined_count": 1061, "name": "13th St at Webster St", "lat": 37.802688402040665, "long": -122.26914636790752, "estimated_pop": 12255, "n_blockgroups": 19, "estimated_jobs": 11193, "estimated_activity": 23448, "emp_pop_balance": 0.9134, "dist_to_bart_mi": 0.595, "cluster": 2 }, "geometry": { "type": "Point", "coordinates": [ -122.269146367907524, 37.802688402040665 ] } },
{ "type": "Feature", "properties": { "id": "OK-L7", "start_count": 424, "end_count": 433, "combined_count": 857, "name": "Jackson St at 11th St", "lat": 37.800001631188778, "long": -122.26643800735472, "estimated_pop": 13092, "n_blockgroups": 20, "estimated_jobs": 30797, "estimated_activity": 43889, "emp_pop_balance": 2.3523, "dist_to_bart_mi": 0.319, "cluster": 2 }, "geometry": { "type": "Point", "coordinates": [ -122.266438007354722, 37.800001631188778 ] } },
{ "type": "Feature", "properties": { "id": "OK-L7-2", "start_count": 2021, "end_count": 1885, "combined_count": 3906, "name": "Lakeside Dr at 14th St", "lat": 37.8013189, "long": -122.2626418, "estimated_pop": 13855, "n_blockgroups": 23, "estimated_jobs": 57356, "estimated_activity": 71211, "emp_pop_balance": 4.1398, "dist_to_bart_mi": 0.079, "cluster": 1 }, "geometry": { "type": "Point", "coordinates": [ -122.2626418, 37.8013189 ] } },
{ "type": "Feature", "properties": { "id": "OK-L8", "start_count": 547, "end_count": 602, "combined_count": 1149, "name": "10th St at Fallon St", "lat": 37.7976728, "long": -122.2629973, "estimated_pop": 14676, "n_blockgroups": 27, "estimated_jobs": 50093, "estimated_activity": 64769, "emp_pop_balance": 3.4132, "dist_to_bart_mi": 0.028, "cluster": 1 }, "geometry": { "type": "Point", "coordinates": [ -122.2629973, 37.7976728 ] } },
{ "type": "Feature", "properties": { "id": "OK-L9", "start_count": 324, "end_count": 327, "combined_count": 651, "name": "4th Ave at E 12th St (Temporary Location)", "lat": 37.795913, "long": -122.255547, "estimated_pop": 14265, "n_blockgroups": 23, "estimated_jobs": 64585, "estimated_activity": 78850, "emp_pop_balance": 4.5275, "dist_to_bart_mi": 0.141, "cluster": 1 }, "geometry": { "type": "Point", "coordinates": [ -122.255547, 37.795913 ] } },
{ "type": "Feature", "properties": { "id": "OK-M14", "start_count": 80, "end_count": 98, "combined_count": 178, "name": "26th Ave at International Blvd", "lat": 37.781123, "long": -122.2329915, "estimated_pop": 9319, "n_blockgroups": 23, "estimated_jobs": 46834, "estimated_activity": 56153, "emp_pop_balance": 5.0258, "dist_to_bart_mi": 0.433, "cluster": 1 }, "geometry": { "type": "Point", "coordinates": [ -122.2329915, 37.781123 ] } },
{ "type": "Feature", "properties": { "id": "OK-M16", "start_count": 50, "end_count": 66, "combined_count": 116, "name": "Farnam St at Fruitvale Ave", "lat": 37.778058, "long": -122.2254, "estimated_pop": 14209, "n_blockgroups": 19, "estimated_jobs": 2938, "estimated_activity": 17146, "emp_pop_balance": 0.2067, "dist_to_bart_mi": 0.634, "cluster": 3 }, "geometry": { "type": "Point", "coordinates": [ -122.2254, 37.778058 ] } },
{ "type": "Feature", "properties": { "id": "OK-M2", "start_count": 98, "end_count": 149, "combined_count": 247, "name": "Union St at 10th St", "lat": 37.8072393, "long": -122.2893702, "estimated_pop": 17320, "n_blockgroups": 23, "estimated_jobs": 2878, "estimated_activity": 20197, "emp_pop_balance": 0.1662, "dist_to_bart_mi": 0.751, "cluster": 3 }, "geometry": { "type": "Point", "coordinates": [ -122.2893702, 37.8072393 ] } },
{ "type": "Feature", "properties": { "id": "OK-M3", "start_count": 164, "end_count": 163, "combined_count": 327, "name": "Market St at 8th St", "lat": 37.8036865, "long": -122.282497, "estimated_pop": 6367, "n_blockgroups": 11, "estimated_jobs": 1996, "estimated_activity": 8362, "emp_pop_balance": 0.3135, "dist_to_bart_mi": 0.507, "cluster": 3 }, "geometry": { "type": "Point", "coordinates": [ -122.282497, 37.8036865 ] } },
{ "type": "Feature", "properties": { "id": "OK-M5", "start_count": 917, "end_count": 978, "combined_count": 1895, "name": "Washington St at 8th St", "lat": 37.8007544, "long": -122.2748943, "estimated_pop": 8879, "n_blockgroups": 15, "estimated_jobs": 2140, "estimated_activity": 11019, "emp_pop_balance": 0.241, "dist_to_bart_mi": 0.448, "cluster": 3 }, "geometry": { "type": "Point", "coordinates": [ -122.2748943, 37.8007544 ] } },
{ "type": "Feature", "properties": { "id": "OK-M6", "start_count": 1004, "end_count": 1022, "combined_count": 2026, "name": "Franklin St at 9th St", "lat": 37.8005161, "long": -122.2720799, "estimated_pop": 13917, "n_blockgroups": 18, "estimated_jobs": 3624, "estimated_activity": 17542, "emp_pop_balance": 0.2604, "dist_to_bart_mi": 0.636, "cluster": 3 }, "geometry": { "type": "Point", "coordinates": [ -122.2720799, 37.8005161 ] } },
{ "type": "Feature", "properties": { "id": "OK-M7", "start_count": 3058, "end_count": 2327, "combined_count": 5385, "name": "Lake Merritt BART Station", "lat": 37.7973195, "long": -122.2653199, "estimated_pop": 14785, "n_blockgroups": 19, "estimated_jobs": 2744, "estimated_activity": 17529, "emp_pop_balance": 0.1856, "dist_to_bart_mi": 0.936, "cluster": 3 }, "geometry": { "type": "Point", "coordinates": [ -122.2653199, 37.7973195 ] } },
{ "type": "Feature", "properties": { "id": "OK-N1", "start_count": 3270, "end_count": 3274, "combined_count": 6544, "name": "West Oakland BART Station", "lat": 37.8051895, "long": -122.29461686454056, "estimated_pop": 12810, "n_blockgroups": 20, "estimated_jobs": 2135, "estimated_activity": 14945, "emp_pop_balance": 0.1667, "dist_to_bart_mi": 1.327, "cluster": 3 }, "geometry": { "type": "Point", "coordinates": [ -122.294616864540558, 37.8051895 ] } },
{ "type": "Feature", "properties": { "id": "OK-N17", "start_count": 294, "end_count": 294, "combined_count": 588, "name": "Fruitvale BART Station", "lat": 37.7752321, "long": -122.2244982, "estimated_pop": 14651, "n_blockgroups": 21, "estimated_jobs": 2777, "estimated_activity": 17428, "emp_pop_balance": 0.1895, "dist_to_bart_mi": 0.882, "cluster": 3 }, "geometry": { "type": "Point", "coordinates": [ -122.2244982, 37.7752321 ] } },
{ "type": "Feature", "properties": { "id": "OK-N5", "start_count": 946, "end_count": 1337, "combined_count": 2283, "name": "Jack London Square", "lat": 37.796248, "long": -122.279352, "estimated_pop": 20666, "n_blockgroups": 24, "estimated_jobs": 2733, "estimated_activity": 23399, "emp_pop_balance": 0.1322, "dist_to_bart_mi": 0.607, "cluster": 3 }, "geometry": { "type": "Point", "coordinates": [ -122.279352, 37.796248 ] } },
{ "type": "Feature", "properties": { "id": "OK-N6", "start_count": 1776, "end_count": 2168, "combined_count": 3944, "name": "Webster St at 2nd St", "lat": 37.795194764385954, "long": -122.27396965026855, "estimated_pop": 12503, "n_blockgroups": 18, "estimated_jobs": 2301, "estimated_activity": 14804, "emp_pop_balance": 0.184, "dist_to_bart_mi": 0.666, "cluster": 3 }, "geometry": { "type": "Point", "coordinates": [ -122.273969650268555, 37.795194764385954 ] } }
]
}
