{
"type": "FeatureCollection",
"name": "stations_24",
"crs": { "type": "name", "properties": { "name": "urn:ogc:def:crs:OGC:1.3:CRS84" } },
"features": [
{ "type": "Feature", "properties": { "name": "10th Ave at E 15th St", "start_count": 280, "end_count": 300, "combined_count": 580, "station_id": "OK-L11", "lat": 37.7927143, "long": -122.2487796 }, "geometry": { "type": "Point", "coordinates": [ -122.2487796, 37.7927143 ] } },
{ "type": "Feature", "properties": { "name": "10th St at Chestnut St", "start_count": 353, "end_count": 351, "combined_count": 704, "station_id": "OK-M3", "lat": 37.8063553, "long": -122.2860187 }, "geometry": { "type": "Point", "coordinates": [ -122.2860187, 37.8063553 ] } },
{ "type": "Feature", "properties": { "name": "10th St at Fallon St", "start_count": 1035, "end_count": 1057, "combined_count": 2092, "station_id": "OK-L8", "lat": 37.7976728, "long": -122.2629973 }, "geometry": { "type": "Point", "coordinates": [ -122.2629973, 37.7976728 ] } },
{ "type": "Feature", "properties": { "name": "10th St at University Ave", "start_count": 493, "end_count": 682, "combined_count": 1175, "station_id": "BK-D2", "lat": 37.869060475453928, "long": -122.29339957237242 }, "geometry": { "type": "Point", "coordinates": [ -122.293399572372422, 37.869060475453928 ] } },
{ "type": "Feature", "properties": { "name": "13th St at Franklin St", "start_count": 101, "end_count": 100, "combined_count": 201, "station_id": "OK-L6", "lat": 37.803030135756188, "long": -122.27049618959428 }, "geometry": { "type": "Point", "coordinates": [ -122.270496189594283, 37.803030135756188 ] } },
{ "type": "Feature", "properties": { "name": "13th St at Webster St", "start_count": 803, "end_count": 737, "combined_count": 1540, "station_id": "OK-L6-2", "lat": 37.802688402040665, "long": -122.26914636790752 }, "geometry": { "type": "Point", "coordinates": [ -122.269146367907524, 37.802688402040665 ] } },
{ "type": "Feature", "properties": { "name": "14th St at Filbert St", "start_count": 395, "end_count": 452, "combined_count": 847, "station_id": "OK-L3", "lat": 37.80874983465997, "long": -122.28328227996823 }, "geometry": { "type": "Point", "coordinates": [ -122.283282279968233, 37.80874983465997 ] } },
{ "type": "Feature", "properties": { "name": "14th St at Mandela Pkwy", "start_count": 1363, "end_count": 1326, "combined_count": 2689, "station_id": "OK-L1", "lat": 37.8107432, "long": -122.2914153 }, "geometry": { "type": "Point", "coordinates": [ -122.2914153, 37.8107432 ] } },
{ "type": "Feature", "properties": { "name": "19th Street BART", "start_count": 4212, "end_count": 4259, "combined_count": 8471, "station_id": "OK-K5-2", "lat": 37.809701681, "long": -122.267633796 }, "geometry": { "type": "Point", "coordinates": [ -122.267633796, 37.809701681 ] } },
{ "type": "Feature", "properties": { "name": "19th Street BART Station", "start_count": 1663, "end_count": 1689, "combined_count": 3352, "station_id": "OK-K5-2", "lat": 37.809368612134847, "long": -122.26795077323914 }, "geometry": { "type": "Point", "coordinates": [ -122.267950773239136, 37.809368612134847 ] } },
{ "type": "Feature", "properties": { "name": "2100 Powell St", "start_count": 367, "end_count": 442, "combined_count": 809, "station_id": "EM-B0-2", "lat": 37.839543082665628, "long": -122.2987177222967 }, "geometry": { "type": "Point", "coordinates": [ -122.298717722296701, 37.839543082665628 ] } },
{ "type": "Feature", "properties": { "name": "21st St at 5th Ave", "start_count": 1696, "end_count": 1730, "combined_count": 3426, "station_id": "OK-K10", "lat": 37.800459411713945, "long": -122.24745869636536 }, "geometry": { "type": "Point", "coordinates": [ -122.247458696365356, 37.800459411713945 ] } },
{ "type": "Feature", "properties": { "name": "23rd Ave at Foothill Blvd", "start_count": 375, "end_count": 372, "combined_count": 747, "station_id": "OK-L14", "lat": 37.7851915, "long": -122.2343822 }, "geometry": { "type": "Point", "coordinates": [ -122.2343822, 37.7851915 ] } },
{ "type": "Feature", "properties": { "name": "23rd St at Telegraph Ave", "start_count": 1894, "end_count": 2023, "combined_count": 3917, "station_id": "OK-J5", "lat": 37.812581085817413, "long": -122.26857304573061 }, "geometry": { "type": "Point", "coordinates": [ -122.268573045730605, 37.812581085817413 ] } },
{ "type": "Feature", "properties": { "name": "24th St at Market St", "start_count": 522, "end_count": 540, "combined_count": 1062, "station_id": "OK-J3", "lat": 37.8160598, "long": -122.2782444 }, "geometry": { "type": "Point", "coordinates": [ -122.2782444, 37.8160598 ] } },
{ "type": "Feature", "properties": { "name": "26th Ave at International Blvd", "start_count": 146, "end_count": 153, "combined_count": 299, "station_id": "OK-M14", "lat": 37.781123, "long": -122.2329915 }, "geometry": { "type": "Point", "coordinates": [ -122.2329915, 37.781123 ] } },
{ "type": "Feature", "properties": { "name": "27th St at MLK Jr Way", "start_count": 21, "end_count": 19, "combined_count": 40, "station_id": "OK-I4", "lat": 37.8170154, "long": -122.2717615 }, "geometry": { "type": "Point", "coordinates": [ -122.2717615, 37.8170154 ] } },
{ "type": "Feature", "properties": { "name": "27th St at San Pablo Ave", "start_count": 364, "end_count": 360, "combined_count": 724, "station_id": "OK-I3", "lat": 37.817886105449404, "long": -122.27595852149544 }, "geometry": { "type": "Point", "coordinates": [ -122.27595852149544, 37.817886105449404 ] } },
{ "type": "Feature", "properties": { "name": "2nd Ave at E 18th St", "start_count": 3521, "end_count": 3681, "combined_count": 7202, "station_id": "OK-K9", "lat": 37.800213566969802, "long": -122.25381016731262 }, "geometry": { "type": "Point", "coordinates": [ -122.253810167312622, 37.800213566969802 ] } },
{ "type": "Feature", "properties": { "name": "32nd St at Adeline St", "start_count": 1309, "end_count": 1301, "combined_count": 2610, "station_id": "OK-H2", "lat": 37.8238474, "long": -122.2811926 }, "geometry": { "type": "Point", "coordinates": [ -122.2811926, 37.8238474 ] } },
{ "type": "Feature", "properties": { "name": "34th St at Telegraph Ave", "start_count": 805, "end_count": 727, "combined_count": 1532, "station_id": "OK-H4-3", "lat": 37.822467677145127, "long": -122.26597130298616 }, "geometry": { "type": "Point", "coordinates": [ -122.265971302986159, 37.822467677145127 ] } },
{ "type": "Feature", "properties": { "name": "37th St at West St", "start_count": 698, "end_count": 649, "combined_count": 1347, "station_id": "OK-G3", "lat": 37.826695586409677, "long": -122.27179706096648 }, "geometry": { "type": "Point", "coordinates": [ -122.271797060966477, 37.826695586409677 ] } },
{ "type": "Feature", "properties": { "name": "40th St at Piedmont Ave", "start_count": 3159, "end_count": 3111, "combined_count": 6270, "station_id": "OK-F6", "lat": 37.825785004382006, "long": -122.25346968515623 }, "geometry": { "type": "Point", "coordinates": [ -122.253469685156233, 37.825785004382006 ] } },
{ "type": "Feature", "properties": { "name": "45th St at MLK Jr Way", "start_count": 486, "end_count": 457, "combined_count": 943, "station_id": "OK-E3", "lat": 37.8335577, "long": -122.2674183 }, "geometry": { "type": "Point", "coordinates": [ -122.2674183, 37.8335577 ] } },
{ "type": "Feature", "properties": { "name": "45th St at Manila", "start_count": 1153, "end_count": 1140, "combined_count": 2293, "station_id": "OK-E5", "lat": 37.833293522232097, "long": -122.25622415542604 }, "geometry": { "type": "Point", "coordinates": [ -122.25622415542604, 37.833293522232097 ] } },
{ "type": "Feature", "properties": { "name": "47th St at San Pablo Ave", "start_count": 815, "end_count": 948, "combined_count": 1763, "station_id": "EM-C3", "lat": 37.8356703, "long": -122.2811258 }, "geometry": { "type": "Point", "coordinates": [ -122.2811258, 37.8356703 ] } },
{ "type": "Feature", "properties": { "name": "4th Ave at E 12th St", "start_count": 599, "end_count": 579, "combined_count": 1178, "station_id": "OK-L9", "lat": 37.795913, "long": -122.255547 }, "geometry": { "type": "Point", "coordinates": [ -122.255547, 37.795913 ] } },
{ "type": "Feature", "properties": { "name": "4th Ave at E 12th St (Temporary Location)", "start_count": 184, "end_count": 161, "combined_count": 345, "station_id": "OK-L9", "lat": 37.795913, "long": -122.255547 }, "geometry": { "type": "Point", "coordinates": [ -122.255547, 37.795913 ] } },
{ "type": "Feature", "properties": { "name": "52nd St at MLK Jr Way", "start_count": 281, "end_count": 292, "combined_count": 573, "station_id": "OK-D3-2", "lat": 37.837369, "long": -122.267656 }, "geometry": { "type": "Point", "coordinates": [ -122.267656, 37.837369 ] } },
{ "type": "Feature", "properties": { "name": "53rd St at Hollis St", "start_count": 297, "end_count": 378, "combined_count": 675, "station_id": "EM-C2", "lat": 37.8361823, "long": -122.2871801 }, "geometry": { "type": "Point", "coordinates": [ -122.2871801, 37.8361823 ] } },
{ "type": "Feature", "properties": { "name": "55th St at Telegraph Ave", "start_count": 435, "end_count": 459, "combined_count": 894, "station_id": "OK-C3", "lat": 37.8401858, "long": -122.2618225 }, "geometry": { "type": "Point", "coordinates": [ -122.2618225, 37.8401858 ] } },
{ "type": "Feature", "properties": { "name": "59th St at Horton St", "start_count": 843, "end_count": 809, "combined_count": 1652, "station_id": "EM-A1", "lat": 37.8409452, "long": -122.2913604 }, "geometry": { "type": "Point", "coordinates": [ -122.2913604, 37.8409452 ] } },
{ "type": "Feature", "properties": { "name": "62nd St at Claremont Ave", "start_count": 1450, "end_count": 1275, "combined_count": 2725, "station_id": "OK-A4", "lat": 37.8494355, "long": -122.2525406 }, "geometry": { "type": "Point", "coordinates": [ -122.2525406, 37.8494355 ] } },
{ "type": "Feature", "properties": { "name": "65th St at Hollis St", "start_count": 954, "end_count": 1090, "combined_count": 2044, "station_id": "EM-C1", "lat": 37.8467842, "long": -122.2913761 }, "geometry": { "type": "Point", "coordinates": [ -122.2913761, 37.8467842 ] } },
{ "type": "Feature", "properties": { "name": "6th Ave at E 12th St", "start_count": 174, "end_count": 183, "combined_count": 357, "station_id": "OK-L10", "lat": 37.794368863000003, "long": -122.253845453 }, "geometry": { "type": "Point", "coordinates": [ -122.253845453, 37.794368863 ] } },
{ "type": "Feature", "properties": { "name": "6th Ave at E 12th St (Temporary Location)", "start_count": 117, "end_count": 120, "combined_count": 237, "station_id": "OK-L10", "lat": 37.794396, "long": -122.253842 }, "geometry": { "type": "Point", "coordinates": [ -122.253842, 37.794396 ] } },
{ "type": "Feature", "properties": { "name": "Addison St at California St", "start_count": 790, "end_count": 818, "combined_count": 1608, "station_id": "BK-D5", "lat": 37.869763016999997, "long": -122.27925694 }, "geometry": { "type": "Point", "coordinates": [ -122.27925694, 37.869763017 ] } },
{ "type": "Feature", "properties": { "name": "Addison St at Fourth St", "start_count": 1928, "end_count": 2209, "combined_count": 4137, "station_id": "BK-D1", "lat": 37.866249, "long": -122.2993708 }, "geometry": { "type": "Point", "coordinates": [ -122.2993708, 37.866249 ] } },
{ "type": "Feature", "properties": { "name": "Adeline St at 40th St", "start_count": 893, "end_count": 1005, "combined_count": 1898, "station_id": "EM-D4", "lat": 37.8312769, "long": -122.2782669 }, "geometry": { "type": "Point", "coordinates": [ -122.2782669, 37.8312769 ] } },
{ "type": "Feature", "properties": { "name": "Alcatraz Ave at Shattuck Ave", "start_count": 989, "end_count": 925, "combined_count": 1914, "station_id": "OK-B1", "lat": 37.849594967776646, "long": -122.26556897163393 }, "geometry": { "type": "Point", "coordinates": [ -122.265568971633925, 37.849594967776646 ] } },
{ "type": "Feature", "properties": { "name": "Ashby BART", "start_count": 2826, "end_count": 2835, "combined_count": 5661, "station_id": "BK-H6", "lat": 37.8524766, "long": -122.2702132 }, "geometry": { "type": "Point", "coordinates": [ -122.2702132, 37.8524766 ] } },
{ "type": "Feature", "properties": { "name": "Ashby BART Station", "start_count": 1049, "end_count": 1053, "combined_count": 2102, "station_id": "BK-H6", "lat": 37.8524766, "long": -122.2702132 }, "geometry": { "type": "Point", "coordinates": [ -122.2702132, 37.8524766 ] } },
{ "type": "Feature", "properties": { "name": "Bancroft Way at College Ave", "start_count": 2786, "end_count": 2523, "combined_count": 5309, "station_id": "BK-D10", "lat": 37.869394312305865, "long": -122.25433029666108 }, "geometry": { "type": "Point", "coordinates": [ -122.254330296661081, 37.869394312305865 ] } },
{ "type": "Feature", "properties": { "name": "Bancroft Way at Telegraph Ave", "start_count": 7605, "end_count": 6745, "combined_count": 14350, "station_id": "BK-E9-1", "lat": 37.8689109, "long": -122.2587857 }, "geometry": { "type": "Point", "coordinates": [ -122.2587857, 37.8689109 ] } },
{ "type": "Feature", "properties": { "name": "Bay Pl at Vernon St", "start_count": 4315, "end_count": 4342, "combined_count": 8657, "station_id": "OK-I6", "lat": 37.812250218726369, "long": -122.2607185732995 }, "geometry": { "type": "Point", "coordinates": [ -122.260718573299499, 37.812250218726369 ] } },
{ "type": "Feature", "properties": { "name": "Bay Street Plaza", "start_count": 455, "end_count": 559, "combined_count": 1014, "station_id": "EM-C1-2", "lat": 37.834574108061645, "long": -122.29206176011056 }, "geometry": { "type": "Point", "coordinates": [ -122.292061760110556, 37.834574108061645 ] } },
{ "type": "Feature", "properties": { "name": "Berkeley Civic Center", "start_count": 2214, "end_count": 2223, "combined_count": 4437, "station_id": "BK-D7-2", "lat": 37.8690599, "long": -122.270556 }, "geometry": { "type": "Point", "coordinates": [ -122.270556, 37.8690599 ] } },
{ "type": "Feature", "properties": { "name": "Bond St at High St", "start_count": 143, "end_count": 119, "combined_count": 262, "station_id": "OK-L19", "lat": 37.774152564302362, "long": -122.21239820122716 }, "geometry": { "type": "Point", "coordinates": [ -122.21239820122716, 37.774152564302362 ] } },
{ "type": "Feature", "properties": { "name": "Broadway at 30th St", "start_count": 3163, "end_count": 3060, "combined_count": 6223, "station_id": "OK-H5", "lat": 37.8193814, "long": -122.2619284 }, "geometry": { "type": "Point", "coordinates": [ -122.2619284, 37.8193814 ] } },
{ "type": "Feature", "properties": { "name": "Broadway at 40th St", "start_count": 2097, "end_count": 2048, "combined_count": 4145, "station_id": "OK-F5", "lat": 37.8277573, "long": -122.2567156 }, "geometry": { "type": "Point", "coordinates": [ -122.2567156, 37.8277573 ] } },
{ "type": "Feature", "properties": { "name": "Broadway at Coronado Ave", "start_count": 1285, "end_count": 989, "combined_count": 2274, "station_id": "OK-D5", "lat": 37.8357883, "long": -122.2516207 }, "geometry": { "type": "Point", "coordinates": [ -122.2516207, 37.8357883 ] } },
{ "type": "Feature", "properties": { "name": "Brockhurst St at San Pablo Ave", "start_count": 241, "end_count": 317, "combined_count": 558, "station_id": "OK-H2-2", "lat": 37.823522790214049, "long": -122.27718830108644 }, "geometry": { "type": "Point", "coordinates": [ -122.27718830108644, 37.823522790214049 ] } },
{ "type": "Feature", "properties": { "name": "Bushrod Park", "start_count": 641, "end_count": 660, "combined_count": 1301, "station_id": "OK-B2", "lat": 37.8465156, "long": -122.2653043 }, "geometry": { "type": "Point", "coordinates": [ -122.2653043, 37.8465156 ] } },
{ "type": "Feature", "properties": { "name": "California St at University Ave", "start_count": 147, "end_count": 199, "combined_count": 346, "station_id": "BK-D5", "lat": 37.870555329057453, "long": -122.27972030639648 }, "geometry": { "type": "Point", "coordinates": [ -122.279720306396484, 37.870555329057453 ] } },
{ "type": "Feature", "properties": { "name": "Channing Way at San Pablo Ave", "start_count": 897, "end_count": 1141, "combined_count": 2038, "station_id": "BK-E3", "lat": 37.862817106708022, "long": -122.2902952903697 }, "geometry": { "type": "Point", "coordinates": [ -122.290295290369698, 37.862817106708022 ] } },
{ "type": "Feature", "properties": { "name": "Channing Way at Shattuck Ave", "start_count": 2823, "end_count": 2930, "combined_count": 5753, "station_id": "BK-E7", "lat": 37.8658466, "long": -122.2674431 }, "geometry": { "type": "Point", "coordinates": [ -122.2674431, 37.8658466 ] } },
{ "type": "Feature", "properties": { "name": "College Ave at Alcatraz Ave", "start_count": 1989, "end_count": 1690, "combined_count": 3679, "station_id": "BK-A3", "lat": 37.8513755, "long": -122.2525233 }, "geometry": { "type": "Point", "coordinates": [ -122.2525233, 37.8513755 ] } },
{ "type": "Feature", "properties": { "name": "College Ave at Bryant Ave", "start_count": 829, "end_count": 731, "combined_count": 1560, "station_id": "OK-C5", "lat": 37.8381269, "long": -122.2512714 }, "geometry": { "type": "Point", "coordinates": [ -122.2512714, 37.8381269 ] } },
{ "type": "Feature", "properties": { "name": "College Ave at Taft Ave", "start_count": 864, "end_count": 649, "combined_count": 1513, "station_id": "OK-B5", "lat": 37.8417999, "long": -122.2515349 }, "geometry": { "type": "Point", "coordinates": [ -122.2515349, 37.8417999 ] } },
{ "type": "Feature", "properties": { "name": "DeFremery Park", "start_count": 1263, "end_count": 1310, "combined_count": 2573, "station_id": "OK-K2", "lat": 37.8123315, "long": -122.2851712 }, "geometry": { "type": "Point", "coordinates": [ -122.2851712, 37.8123315 ] } },
{ "type": "Feature", "properties": { "name": "Derby St at College Ave", "start_count": 2249, "end_count": 1859, "combined_count": 4108, "station_id": "BK-F10", "lat": 37.86175955253551, "long": -122.25367726566596 }, "geometry": { "type": "Point", "coordinates": [ -122.253677265665956, 37.86175955253551 ] } },
{ "type": "Feature", "properties": { "name": "Dover St at 57th St", "start_count": 1238, "end_count": 1178, "combined_count": 2416, "station_id": "OK-C2", "lat": 37.8426295, "long": -122.267738 }, "geometry": { "type": "Point", "coordinates": [ -122.267738, 37.8426295 ] } },
{ "type": "Feature", "properties": { "name": "Downtown Berkeley BART", "start_count": 6387, "end_count": 6389, "combined_count": 12776, "station_id": "BK-D7-1", "lat": 37.870139, "long": -122.268422 }, "geometry": { "type": "Point", "coordinates": [ -122.268422, 37.870139 ] } },
{ "type": "Feature", "properties": { "name": "Doyle St at 59th St", "start_count": 677, "end_count": 837, "combined_count": 1514, "station_id": "EM-A2", "lat": 37.8419238, "long": -122.2880451 }, "geometry": { "type": "Point", "coordinates": [ -122.2880451, 37.8419238 ] } },
{ "type": "Feature", "properties": { "name": "El Embarcadero at Grand Ave", "start_count": 4185, "end_count": 4490, "combined_count": 8675, "station_id": "OK-I9", "lat": 37.808715, "long": -122.2492512 }, "geometry": { "type": "Point", "coordinates": [ -122.2492512, 37.808715 ] } },
{ "type": "Feature", "properties": { "name": "Ellsworth St at Russell St", "start_count": 1113, "end_count": 1005, "combined_count": 2118, "station_id": "BK-G8", "lat": 37.857607747399882, "long": -122.26160466670989 }, "geometry": { "type": "Point", "coordinates": [ -122.261604666709886, 37.857607747399882 ] } },
{ "type": "Feature", "properties": { "name": "Emeryville Depot", "start_count": 0, "end_count": 1, "combined_count": 1, "station_id": "EM-1", "lat": 37.830296182687, "long": -122.2894299030304 }, "geometry": { "type": "Point", "coordinates": [ -122.289429903030396, 37.830296182687 ] } },
{ "type": "Feature", "properties": { "name": "Emeryville Public Market", "start_count": 638, "end_count": 851, "combined_count": 1489, "station_id": "EM-B1", "lat": 37.840521166949692, "long": -122.29352831840517 }, "geometry": { "type": "Point", "coordinates": [ -122.293528318405166, 37.840521166949692 ] } },
{ "type": "Feature", "properties": { "name": "Emeryville Town Hall", "start_count": 354, "end_count": 530, "combined_count": 884, "station_id": "EM-D3", "lat": 37.8312752, "long": -122.2856333 }, "geometry": { "type": "Point", "coordinates": [ -122.2856333, 37.8312752 ] } },
{ "type": "Feature", "properties": { "name": "Euclid Ave at Hearst Ave", "start_count": 4331, "end_count": 3486, "combined_count": 7817, "station_id": "BK-C9", "lat": 37.8753207, "long": -122.2601554 }, "geometry": { "type": "Point", "coordinates": [ -122.2601554, 37.8753207 ] } },
{ "type": "Feature", "properties": { "name": "Farnam St at Fruitvale Ave", "start_count": 131, "end_count": 112, "combined_count": 243, "station_id": "OK-M16", "lat": 37.778058, "long": -122.2254 }, "geometry": { "type": "Point", "coordinates": [ -122.2254, 37.778058 ] } },
{ "type": "Feature", "properties": { "name": "Fifth St at Delaware St", "start_count": 1481, "end_count": 1684, "combined_count": 3165, "station_id": "BK-C1", "lat": 37.870407115465376, "long": -122.29967594146729 }, "geometry": { "type": "Point", "coordinates": [ -122.299675941467285, 37.870407115465376 ] } },
{ "type": "Feature", "properties": { "name": "Foothill Blvd at Fruitvale Ave", "start_count": 104, "end_count": 134, "combined_count": 238, "station_id": "OK-L16", "lat": 37.7837569, "long": -122.2226033 }, "geometry": { "type": "Point", "coordinates": [ -122.2226033, 37.7837569 ] } },
{ "type": "Feature", "properties": { "name": "Foothill Blvd at Harrington Ave", "start_count": 136, "end_count": 121, "combined_count": 257, "station_id": "OK-K17", "lat": 37.77993, "long": -122.2177284 }, "geometry": { "type": "Point", "coordinates": [ -122.2177284, 37.77993 ] } },
{ "type": "Feature", "properties": { "name": "Frank H Ogawa Plaza", "start_count": 3690, "end_count": 3675, "combined_count": 7365, "station_id": "OK-L5", "lat": 37.804562354930297, "long": -122.27173805236816 }, "geometry": { "type": "Point", "coordinates": [ -122.271738052368164, 37.804562354930297 ] } },
{ "type": "Feature", "properties": { "name": "Franklin St at 13th St", "start_count": 1326, "end_count": 1261, "combined_count": 2587, "station_id": "OK-L6", "lat": 37.803030135756188, "long": -122.27049618959428 }, "geometry": { "type": "Point", "coordinates": [ -122.270496189594283, 37.803030135756188 ] } },
{ "type": "Feature", "properties": { "name": "Franklin St at 9th St", "start_count": 1903, "end_count": 1872, "combined_count": 3775, "station_id": "OK-M6", "lat": 37.8005161, "long": -122.2720799 }, "geometry": { "type": "Point", "coordinates": [ -122.2720799, 37.8005161 ] } },
{ "type": "Feature", "properties": { "name": "Fruitvale BART", "start_count": 342, "end_count": 295, "combined_count": 637, "station_id": "OK-N17", "lat": 37.7752321, "long": -122.2244982 }, "geometry": { "type": "Point", "coordinates": [ -122.2244982, 37.7752321 ] } },
{ "type": "Feature", "properties": { "name": "Fruitvale BART Station", "start_count": 117, "end_count": 153, "combined_count": 270, "station_id": "OK-N17", "lat": 37.7752321, "long": -122.2244982 }, "geometry": { "type": "Point", "coordinates": [ -122.2244982, 37.7752321 ] } },
{ "type": "Feature", "properties": { "name": "Fulton St at Ashby Ave", "start_count": 1340, "end_count": 1182, "combined_count": 2522, "station_id": "BK-H8", "lat": 37.855573661828792, "long": -122.2635653614998 }, "geometry": { "type": "Point", "coordinates": [ -122.263565361499801, 37.855573661828792 ] } },
{ "type": "Feature", "properties": { "name": "Fulton St at Bancroft Way", "start_count": 1191, "end_count": 1133, "combined_count": 2324, "station_id": "BK-E8", "lat": 37.8677892, "long": -122.2658964 }, "geometry": { "type": "Point", "coordinates": [ -122.2658964, 37.8677892 ] } },
{ "type": "Feature", "properties": { "name": "Genoa St at 55th St", "start_count": 1567, "end_count": 1564, "combined_count": 3131, "station_id": "OK-D2", "lat": 37.8396488, "long": -122.2717561 }, "geometry": { "type": "Point", "coordinates": [ -122.2717561, 37.8396488 ] } },
{ "type": "Feature", "properties": { "name": "Grand Ave at Perkins St", "start_count": 3781, "end_count": 3818, "combined_count": 7599, "station_id": "OK-I8", "lat": 37.80889393398715, "long": -122.25646018981932 }, "geometry": { "type": "Point", "coordinates": [ -122.256460189819322, 37.80889393398715 ] } },
{ "type": "Feature", "properties": { "name": "Grand Ave at Santa Clara Ave", "start_count": 2354, "end_count": 2539, "combined_count": 4893, "station_id": "OK-H9-1", "lat": 37.8127441, "long": -122.2472152 }, "geometry": { "type": "Point", "coordinates": [ -122.2472152, 37.8127441 ] } },
{ "type": "Feature", "properties": { "name": "Grand Ave at Webster St", "start_count": 4246, "end_count": 4307, "combined_count": 8553, "station_id": "OK-J6-1", "lat": 37.8113768, "long": -122.2651925 }, "geometry": { "type": "Point", "coordinates": [ -122.2651925, 37.8113768 ] } },
{ "type": "Feature", "properties": { "name": "Harmon St at Adeline St", "start_count": 1393, "end_count": 1434, "combined_count": 2827, "station_id": "BK-I6", "lat": 37.849735, "long": -122.270582 }, "geometry": { "type": "Point", "coordinates": [ -122.270582, 37.849735 ] } },
{ "type": "Feature", "properties": { "name": "Haste St at College Ave", "start_count": 3034, "end_count": 2340, "combined_count": 5374, "station_id": "BK-E10", "lat": 37.86641794050319, "long": -122.25379943847656 }, "geometry": { "type": "Point", "coordinates": [ -122.253799438476562, 37.86641794050319 ] } },
{ "type": "Feature", "properties": { "name": "Haste St at Telegraph Ave", "start_count": 3474, "end_count": 2807, "combined_count": 6281, "station_id": "BK-E9-2", "lat": 37.8660431, "long": -122.2588044 }, "geometry": { "type": "Point", "coordinates": [ -122.2588044, 37.8660431 ] } },
{ "type": "Feature", "properties": { "name": "Horton St at 40th St", "start_count": 883, "end_count": 1000, "combined_count": 1883, "station_id": "EM-D2", "lat": 37.8297046, "long": -122.2876102 }, "geometry": { "type": "Point", "coordinates": [ -122.2876102, 37.8297046 ] } },
{ "type": "Feature", "properties": { "name": "Isabella St at San Pablo Ave", "start_count": 461, "end_count": 422, "combined_count": 883, "station_id": "OK-J4", "lat": 37.814988230424163, "long": -122.2748440504074 }, "geometry": { "type": "Point", "coordinates": [ -122.274844050407395, 37.814988230424163 ] } },
{ "type": "Feature", "properties": { "name": "Jack London Square", "start_count": 1480, "end_count": 1702, "combined_count": 3182, "station_id": "OK-N5", "lat": 37.796248, "long": -122.279352 }, "geometry": { "type": "Point", "coordinates": [ -122.279352, 37.796248 ] } },
{ "type": "Feature", "properties": { "name": "Jackson St at 11th St", "start_count": 571, "end_count": 574, "combined_count": 1145, "station_id": "OK-L7", "lat": 37.800001631188778, "long": -122.26643800735472 }, "geometry": { "type": "Point", "coordinates": [ -122.266438007354722, 37.800001631188778 ] } },
{ "type": "Feature", "properties": { "name": "Jefferson St at 14th St", "start_count": 836, "end_count": 851, "combined_count": 1687, "station_id": "OK-L4", "lat": 37.805207, "long": -122.275156 }, "geometry": { "type": "Point", "coordinates": [ -122.275156, 37.805207 ] } },
{ "type": "Feature", "properties": { "name": "Lake Merritt BART", "start_count": 2910, "end_count": 2664, "combined_count": 5574, "station_id": "OK-M7", "lat": 37.7973195, "long": -122.2653199 }, "geometry": { "type": "Point", "coordinates": [ -122.2653199, 37.7973195 ] } },
{ "type": "Feature", "properties": { "name": "Lake Merritt BART Station", "start_count": 1260, "end_count": 1065, "combined_count": 2325, "station_id": "OK-M7", "lat": 37.7973195, "long": -122.2653199 }, "geometry": { "type": "Point", "coordinates": [ -122.2653199, 37.7973195 ] } },
{ "type": "Feature", "properties": { "name": "Lakeshore Ave at Trestle Glen Rd", "start_count": 1541, "end_count": 1608, "combined_count": 3149, "station_id": "OK-H9-2", "lat": 37.8110807, "long": -122.2432677 }, "geometry": { "type": "Point", "coordinates": [ -122.2432677, 37.8110807 ] } },
{ "type": "Feature", "properties": { "name": "Lakeside Dr at 14th St", "start_count": 2308, "end_count": 2222, "combined_count": 4530, "station_id": "OK-L7-2", "lat": 37.8013189, "long": -122.2626418 }, "geometry": { "type": "Point", "coordinates": [ -122.2626418, 37.8013189 ] } },
{ "type": "Feature", "properties": { "name": "MLK Jr Way 27th St", "start_count": 78, "end_count": 65, "combined_count": 143, "station_id": "OK-I4", "lat": 37.817350256930574, "long": -122.27147850614034 }, "geometry": { "type": "Point", "coordinates": [ -122.27147850614034, 37.817350256930574 ] } },
{ "type": "Feature", "properties": { "name": "MLK Jr Way at 14th St", "start_count": 83, "end_count": 105, "combined_count": 188, "station_id": "OK-L4", "lat": 37.8061628, "long": -122.2760402 }, "geometry": { "type": "Point", "coordinates": [ -122.2760402, 37.8061628 ] } },
{ "type": "Feature", "properties": { "name": "MLK Jr Way at 27th St", "start_count": 386, "end_count": 383, "combined_count": 769, "station_id": "OK-I4", "lat": 37.817232966, "long": -122.27155816600001 }, "geometry": { "type": "Point", "coordinates": [ -122.271558166, 37.817232966 ] } },
{ "type": "Feature", "properties": { "name": "MLK Jr Way at University Ave", "start_count": 2634, "end_count": 2574, "combined_count": 5208, "station_id": "BK-C6", "lat": 37.8717192, "long": -122.2730677 }, "geometry": { "type": "Point", "coordinates": [ -122.2730677, 37.8717192 ] } },
{ "type": "Feature", "properties": { "name": "MacArthur BART", "start_count": 5704, "end_count": 5905, "combined_count": 11609, "station_id": "OK-F4", "lat": 37.8285951, "long": -122.2663493 }, "geometry": { "type": "Point", "coordinates": [ -122.2663493, 37.8285951 ] } },
{ "type": "Feature", "properties": { "name": "MacArthur BART Station", "start_count": 2364, "end_count": 2389, "combined_count": 4753, "station_id": "OK-F4", "lat": 37.8285951, "long": -122.2663493 }, "geometry": { "type": "Point", "coordinates": [ -122.2663493, 37.8285951 ] } },
{ "type": "Feature", "properties": { "name": "MacArthur Blvd at Telegraph Ave", "start_count": 627, "end_count": 597, "combined_count": 1224, "station_id": "OK-G4", "lat": 37.8262863, "long": -122.2651002 }, "geometry": { "type": "Point", "coordinates": [ -122.2651002, 37.8262863 ] } },
{ "type": "Feature", "properties": { "name": "Madison St at 17th St", "start_count": 2629, "end_count": 2550, "combined_count": 5179, "station_id": "OK-K7", "lat": 37.804036784023602, "long": -122.26240932941435 }, "geometry": { "type": "Point", "coordinates": [ -122.262409329414353, 37.804036784023602 ] } },
{ "type": "Feature", "properties": { "name": "Market St at 40th St", "start_count": 610, "end_count": 646, "combined_count": 1256, "station_id": "OK-G2", "lat": 37.8305452, "long": -122.2739367 }, "geometry": { "type": "Point", "coordinates": [ -122.2739367, 37.8305452 ] } },
{ "type": "Feature", "properties": { "name": "Market St at 45th St", "start_count": 975, "end_count": 960, "combined_count": 1935, "station_id": "OK-F2-2", "lat": 37.834174, "long": -122.272968 }, "geometry": { "type": "Point", "coordinates": [ -122.272968, 37.834174 ] } },
{ "type": "Feature", "properties": { "name": "Marston Campbell Park", "start_count": 696, "end_count": 661, "combined_count": 1357, "station_id": "OK-K3", "lat": 37.8098236, "long": -122.2801923 }, "geometry": { "type": "Point", "coordinates": [ -122.2801923, 37.8098236 ] } },
{ "type": "Feature", "properties": { "name": "Miles Ave at Cavour St", "start_count": 1257, "end_count": 1277, "combined_count": 2534, "station_id": "OK-C4", "lat": 37.8388, "long": -122.258732 }, "geometry": { "type": "Point", "coordinates": [ -122.258732, 37.8388 ] } },
{ "type": "Feature", "properties": { "name": "Milvia St at Derby St", "start_count": 1830, "end_count": 1868, "combined_count": 3698, "station_id": "BK-F7", "lat": 37.860124599116851, "long": -122.2693844139576 }, "geometry": { "type": "Point", "coordinates": [ -122.269384413957596, 37.860124599116851 ] } },
{ "type": "Feature", "properties": { "name": "Mosswood Park", "start_count": 1229, "end_count": 1218, "combined_count": 2447, "station_id": "OK-G5", "lat": 37.824892529951121, "long": -122.26043654610294 }, "geometry": { "type": "Point", "coordinates": [ -122.260436546102937, 37.824892529951121 ] } },
{ "type": "Feature", "properties": { "name": "Ninth St at Heinz Ave", "start_count": 2218, "end_count": 2296, "combined_count": 4514, "station_id": "BK-H3", "lat": 37.853906961643801, "long": -122.2896981239319 }, "geometry": { "type": "Point", "coordinates": [ -122.289698123931899, 37.853906961643801 ] } },
{ "type": "Feature", "properties": { "name": "Ninth St at Parker St", "start_count": 1081, "end_count": 1237, "combined_count": 2318, "station_id": "BK-F2", "lat": 37.8588682, "long": -122.2912095 }, "geometry": { "type": "Point", "coordinates": [ -122.2912095, 37.8588682 ] } },
{ "type": "Feature", "properties": { "name": "Ninth St at University Ave", "start_count": 241, "end_count": 268, "combined_count": 509, "station_id": "BK-D2", "lat": 37.868456799781171, "long": -122.29431033809128 }, "geometry": { "type": "Point", "coordinates": [ -122.294310338091279, 37.868456799781171 ] } },
{ "type": "Feature", "properties": { "name": "North Berkeley BART", "start_count": 1399, "end_count": 1600, "combined_count": 2999, "station_id": "BK-C5", "lat": 37.873745203, "long": -122.282939911 }, "geometry": { "type": "Point", "coordinates": [ -122.282939911, 37.873745203 ] } },
{ "type": "Feature", "properties": { "name": "North Berkeley BART Station", "start_count": 619, "end_count": 659, "combined_count": 1278, "station_id": "BK-C5", "lat": 37.873855699812196, "long": -122.28298832384976 }, "geometry": { "type": "Point", "coordinates": [ -122.282988323849764, 37.873855699812196 ] } },
{ "type": "Feature", "properties": { "name": "Oregon St at Adeline St", "start_count": 3141, "end_count": 3165, "combined_count": 6306, "station_id": "BK-G7", "lat": 37.8575672, "long": -122.2675583 }, "geometry": { "type": "Point", "coordinates": [ -122.2675583, 37.8575672 ] } },
{ "type": "Feature", "properties": { "name": "Parker St at Fulton St", "start_count": 3248, "end_count": 3174, "combined_count": 6422, "station_id": "BK-F8", "lat": 37.8624644, "long": -122.2647911 }, "geometry": { "type": "Point", "coordinates": [ -122.2647911, 37.8624644 ] } },
{ "type": "Feature", "properties": { "name": "Raimondi Park", "start_count": 1520, "end_count": 1544, "combined_count": 3064, "station_id": "OK-K1", "lat": 37.81493053721438, "long": -122.29295340721799 }, "geometry": { "type": "Point", "coordinates": [ -122.292953407217993, 37.81493053721438 ] } },
{ "type": "Feature", "properties": { "name": "Rockridge BART", "start_count": 3419, "end_count": 3304, "combined_count": 6723, "station_id": "OK-B4", "lat": 37.844341993, "long": -122.252010107 }, "geometry": { "type": "Point", "coordinates": [ -122.252010107, 37.844341993 ] } },
{ "type": "Feature", "properties": { "name": "Rockridge BART Station", "start_count": 1470, "end_count": 1255, "combined_count": 2725, "station_id": "OK-B4", "lat": 37.844278753990672, "long": -122.251900434494 }, "geometry": { "type": "Point", "coordinates": [ -122.251900434494004, 37.844278753990672 ] } },
{ "type": "Feature", "properties": { "name": "Russell St at College Ave", "start_count": 2319, "end_count": 2002, "combined_count": 4321, "station_id": "BK-H10", "lat": 37.8584732, "long": -122.2532529 }, "geometry": { "type": "Point", "coordinates": [ -122.2532529, 37.8584732 ] } },
{ "type": "Feature", "properties": { "name": "San Antonio Park", "start_count": 254, "end_count": 255, "combined_count": 509, "station_id": "OK-L12", "lat": 37.790139851853638, "long": -122.24237322807312 }, "geometry": { "type": "Point", "coordinates": [ -122.24237322807312, 37.790139851853638 ] } },
{ "type": "Feature", "properties": { "name": "San Jose Diridon Station", "start_count": 1, "end_count": 0, "combined_count": 1, "station_id": "SJ-M7-1", "lat": 37.329732, "long": -121.901782 }, "geometry": { "type": "Point", "coordinates": [ -121.901782, 37.329732 ] } },
{ "type": "Feature", "properties": { "name": "San Pablo Ave at 27th St", "start_count": 42, "end_count": 43, "combined_count": 85, "station_id": "OK-I3", "lat": 37.8178269, "long": -122.2756976 }, "geometry": { "type": "Point", "coordinates": [ -122.2756976, 37.8178269 ] } },
{ "type": "Feature", "properties": { "name": "San Pablo Ave at MLK Jr Way", "start_count": 332, "end_count": 351, "combined_count": 683, "station_id": "OK-K4", "lat": 37.8113514, "long": -122.2734217 }, "geometry": { "type": "Point", "coordinates": [ -122.2734217, 37.8113514 ] } },
{ "type": "Feature", "properties": { "name": "San Pablo Park", "start_count": 1007, "end_count": 1377, "combined_count": 2384, "station_id": "BK-G4", "lat": 37.855783320301988, "long": -122.28312671184538 }, "geometry": { "type": "Point", "coordinates": [ -122.283126711845384, 37.855783320301988 ] } },
{ "type": "Feature", "properties": { "name": "Shattuck Ave at 55th St", "start_count": 813, "end_count": 749, "combined_count": 1562, "station_id": "OK-D3-1", "lat": 37.8403643, "long": -122.2644881 }, "geometry": { "type": "Point", "coordinates": [ -122.2644881, 37.8403643 ] } },
{ "type": "Feature", "properties": { "name": "Shattuck Ave at Hearst Ave", "start_count": 996, "end_count": 1008, "combined_count": 2004, "station_id": "BK-C7", "lat": 37.873676214598248, "long": -122.26848721504211 }, "geometry": { "type": "Point", "coordinates": [ -122.268487215042114, 37.873676214598248 ] } },
{ "type": "Feature", "properties": { "name": "Shattuck Ave at Telegraph Ave", "start_count": 2254, "end_count": 2138, "combined_count": 4392, "station_id": "OK-E4", "lat": 37.833538871616042, "long": -122.26369366575599 }, "geometry": { "type": "Point", "coordinates": [ -122.263693665755994, 37.833538871616042 ] } },
{ "type": "Feature", "properties": { "name": "Snow Park", "start_count": 1690, "end_count": 1680, "combined_count": 3370, "station_id": "OK-J6-2", "lat": 37.807813182179032, "long": -122.26449608802795 }, "geometry": { "type": "Point", "coordinates": [ -122.264496088027954, 37.807813182179032 ] } },
{ "type": "Feature", "properties": { "name": "Stanford Ave at Hollis St", "start_count": 385, "end_count": 413, "combined_count": 798, "station_id": "EM-B2", "lat": 37.8384435, "long": -122.2886647 }, "geometry": { "type": "Point", "coordinates": [ -122.2886647, 37.8384435 ] } },
{ "type": "Feature", "properties": { "name": "Telegraph Ave at 19th St", "start_count": 2666, "end_count": 2722, "combined_count": 5388, "station_id": "OK-K5-1", "lat": 37.8087021, "long": -122.2699271 }, "geometry": { "type": "Point", "coordinates": [ -122.2699271, 37.8087021 ] } },
{ "type": "Feature", "properties": { "name": "Telegraph Ave at 27th St", "start_count": 1981, "end_count": 1963, "combined_count": 3944, "station_id": "OK-I5", "lat": 37.816073115011406, "long": -122.26788640022278 }, "geometry": { "type": "Point", "coordinates": [ -122.267886400222778, 37.816073115011406 ] } },
{ "type": "Feature", "properties": { "name": "Telegraph Ave at 49th St", "start_count": 3596, "end_count": 3480, "combined_count": 7076, "station_id": "OK-D4", "lat": 37.83575, "long": -122.262654 }, "geometry": { "type": "Point", "coordinates": [ -122.262654, 37.83575 ] } },
{ "type": "Feature", "properties": { "name": "Telegraph Ave at 58th St", "start_count": 634, "end_count": 629, "combined_count": 1263, "station_id": "OK-B3", "lat": 37.8444927, "long": -122.261351 }, "geometry": { "type": "Point", "coordinates": [ -122.261351, 37.8444927 ] } },
{ "type": "Feature", "properties": { "name": "Telegraph Ave at Alcatraz Ave", "start_count": 1202, "end_count": 1120, "combined_count": 2322, "station_id": "OK-A2", "lat": 37.850221874496789, "long": -122.26017236709596 }, "geometry": { "type": "Point", "coordinates": [ -122.260172367095961, 37.850221874496789 ] } },
{ "type": "Feature", "properties": { "name": "Telegraph Ave at Ashby Ave", "start_count": 2885, "end_count": 2812, "combined_count": 5697, "station_id": "BK-H9", "lat": 37.8559558, "long": -122.2597949 }, "geometry": { "type": "Point", "coordinates": [ -122.2597949, 37.8559558 ] } },
{ "type": "Feature", "properties": { "name": "Telegraph Ave at Carleton St", "start_count": 2575, "end_count": 2306, "combined_count": 4881, "station_id": "BK-F9", "lat": 37.8623199, "long": -122.258801 }, "geometry": { "type": "Point", "coordinates": [ -122.258801, 37.8623199 ] } },
{ "type": "Feature", "properties": { "name": "Union St at 10th St", "start_count": 91, "end_count": 85, "combined_count": 176, "station_id": "OK-M2", "lat": 37.8072393, "long": -122.2893702 }, "geometry": { "type": "Point", "coordinates": [ -122.2893702, 37.8072393 ] } },
{ "type": "Feature", "properties": { "name": "University Ave at Oxford St", "start_count": 2849, "end_count": 2865, "combined_count": 5714, "station_id": "BK-C8", "lat": 37.8723555, "long": -122.2664467 }, "geometry": { "type": "Point", "coordinates": [ -122.2664467, 37.8723555 ] } },
{ "type": "Feature", "properties": { "name": "Vine St at Shattuck Ave", "start_count": 2339, "end_count": 2322, "combined_count": 4661, "station_id": "BK-A7", "lat": 37.880222445906789, "long": -122.26959228515624 }, "geometry": { "type": "Point", "coordinates": [ -122.269592285156236, 37.880222445906789 ] } },
{ "type": "Feature", "properties": { "name": "Virginia St at Shattuck Ave", "start_count": 1846, "end_count": 1822, "combined_count": 3668, "station_id": "BK-B7", "lat": 37.876572549106847, "long": -122.26952791213988 }, "geometry": { "type": "Point", "coordinates": [ -122.269527912139878, 37.876572549106847 ] } },
{ "type": "Feature", "properties": { "name": "Washington St at 8th St", "start_count": 1292, "end_count": 1392, "combined_count": 2684, "station_id": "OK-M5", "lat": 37.8007544, "long": -122.2748943 }, "geometry": { "type": "Point", "coordinates": [ -122.2748943, 37.8007544 ] } },
{ "type": "Feature", "properties": { "name": "Webster St at 19th St", "start_count": 1550, "end_count": 1625, "combined_count": 3175, "station_id": "OK-K6", "lat": 37.806969760955937, "long": -122.26658821105956 }, "geometry": { "type": "Point", "coordinates": [ -122.266588211059556, 37.806969760955937 ] } },
{ "type": "Feature", "properties": { "name": "Webster St at 2nd St", "start_count": 2454, "end_count": 2727, "combined_count": 5181, "station_id": "OK-N6", "lat": 37.795194764385954, "long": -122.27396965026855 }, "geometry": { "type": "Point", "coordinates": [ -122.273969650268555, 37.795194764385954 ] } },
{ "type": "Feature", "properties": { "name": "West Oakland BART", "start_count": 3613, "end_count": 3539, "combined_count": 7152, "station_id": "OK-N1", "lat": 37.8051895, "long": -122.29461686454056 }, "geometry": { "type": "Point", "coordinates": [ -122.294616864540558, 37.8051895 ] } },
{ "type": "Feature", "properties": { "name": "West Oakland BART Station", "start_count": 1373, "end_count": 1384, "combined_count": 2757, "station_id": "OK-N1", "lat": 37.8051895, "long": -122.29461686454056 }, "geometry": { "type": "Point", "coordinates": [ -122.294616864540558, 37.8051895 ] } },
{ "type": "Feature", "properties": { "name": "West St at 40th St", "start_count": 766, "end_count": 786, "combined_count": 1552, "station_id": "OK-F3", "lat": 37.8302232, "long": -122.2709501 }, "geometry": { "type": "Point", "coordinates": [ -122.2709501, 37.8302232 ] } },
{ "type": "Feature", "properties": { "name": "West St at Brockhurst St", "start_count": 620, "end_count": 632, "combined_count": 1252, "station_id": "OK-H3-2", "lat": 37.822683859450208, "long": -122.27292420364392 }, "geometry": { "type": "Point", "coordinates": [ -122.272924203643925, 37.822683859450208 ] } },
{ "type": "Feature", "properties": { "name": "West St at University Ave", "start_count": 1296, "end_count": 1527, "combined_count": 2823, "station_id": "BK-D4", "lat": 37.869966707604043, "long": -122.28653311729433 }, "geometry": { "type": "Point", "coordinates": [ -122.286533117294326, 37.869966707604043 ] } },
{ "type": "Feature", "properties": { "name": "Woolsey St at Sacramento St", "start_count": 1790, "end_count": 1909, "combined_count": 3699, "station_id": "BK-I5", "lat": 37.8505777, "long": -122.2781754 }, "geometry": { "type": "Point", "coordinates": [ -122.2781754, 37.8505777 ] } }
]
}
