{
"type": "FeatureCollection",
"name": "stations_21",
"crs": { "type": "name", "properties": { "name": "urn:ogc:def:crs:OGC:1.3:CRS84" } },
"features": [
{ "type": "Feature", "properties": { "id": "BK-A3", "start_count": 1167, "end_count": 971, "combined_count": 2138, "name": "College Ave at Alcatraz Ave", "lat": 37.8513755, "long": -122.2525233 }, "geometry": { "type": "Point", "coordinates": [ -122.2525233, 37.8513755 ] } },
{ "type": "Feature", "properties": { "id": "BK-A7", "start_count": 1424, "end_count": 1312, "combined_count": 2736, "name": "Vine St at Shattuck Ave", "lat": 37.880222445906789, "long": -122.26959228515624 }, "geometry": { "type": "Point", "coordinates": [ -122.269592285156236, 37.880222445906789 ] } },
{ "type": "Feature", "properties": { "id": "BK-B7", "start_count": 1267, "end_count": 928, "combined_count": 2195, "name": "Virginia St at Shattuck Ave", "lat": 37.876572549106847, "long": -122.26952791213988 }, "geometry": { "type": "Point", "coordinates": [ -122.269527912139878, 37.876572549106847 ] } },
{ "type": "Feature", "properties": { "id": "BK-B9", "start_count": 72, "end_count": 49, "combined_count": 121, "name": "Hearst Ave at Euclid Ave", "lat": 37.875111692864451, "long": -122.26055324077606 }, "geometry": { "type": "Point", "coordinates": [ -122.260553240776062, 37.875111692864451 ] } },
{ "type": "Feature", "properties": { "id": "BK-C1", "start_count": 724, "end_count": 979, "combined_count": 1703, "name": "Fifth St at Delaware St", "lat": 37.870407115465376, "long": -122.29967594146729 }, "geometry": { "type": "Point", "coordinates": [ -122.299675941467285, 37.870407115465376 ] } },
{ "type": "Feature", "properties": { "id": "BK-C5", "start_count": 1367, "end_count": 1287, "combined_count": 2654, "name": "North Berkeley BART Station", "lat": 37.873558, "long": -122.283093 }, "geometry": { "type": "Point", "coordinates": [ -122.283093, 37.873558 ] } },
{ "type": "Feature", "properties": { "id": "BK-C6", "start_count": 1725, "end_count": 1808, "combined_count": 3533, "name": "MLK Jr Way at University Ave", "lat": 37.8717192, "long": -122.2730677 }, "geometry": { "type": "Point", "coordinates": [ -122.2730677, 37.8717192 ] } },
{ "type": "Feature", "properties": { "id": "BK-C7", "start_count": 1555, "end_count": 1465, "combined_count": 3020, "name": "Shattuck Ave at Hearst Ave", "lat": 37.873676214598248, "long": -122.26848721504211 }, "geometry": { "type": "Point", "coordinates": [ -122.268487215042114, 37.873676214598248 ] } },
{ "type": "Feature", "properties": { "id": "BK-C8", "start_count": 1645, "end_count": 1559, "combined_count": 3204, "name": "University Ave at Oxford St", "lat": 37.8723555, "long": -122.2664467 }, "geometry": { "type": "Point", "coordinates": [ -122.2664467, 37.8723555 ] } },
{ "type": "Feature", "properties": { "id": "BK-C9", "start_count": 2002, "end_count": 1189, "combined_count": 3191, "name": "Hearst Ave at Euclid Ave", "lat": 37.875111692864451, "long": -122.26055324077606 }, "geometry": { "type": "Point", "coordinates": [ -122.260553240776062, 37.875111692864451 ] } },
{ "type": "Feature", "properties": { "id": "BK-D1", "start_count": 1721, "end_count": 2480, "combined_count": 4201, "name": "Addison St at Fourth St", "lat": 37.866249, "long": -122.2993708 }, "geometry": { "type": "Point", "coordinates": [ -122.2993708, 37.866249 ] } },
{ "type": "Feature", "properties": { "id": "BK-D10", "start_count": 2975, "end_count": 1734, "combined_count": 4709, "name": "Bancroft Way at College Ave", "lat": 37.86936, "long": -122.254337 }, "geometry": { "type": "Point", "coordinates": [ -122.254337, 37.86936 ] } },
{ "type": "Feature", "properties": { "id": "BK-D2", "start_count": 675, "end_count": 1029, "combined_count": 1704, "name": "10th St at University Ave", "lat": 37.869060475453928, "long": -122.29339957237242 }, "geometry": { "type": "Point", "coordinates": [ -122.293399572372422, 37.869060475453928 ] } },
{ "type": "Feature", "properties": { "id": "BK-D4", "start_count": 986, "end_count": 1180, "combined_count": 2166, "name": "West St at University Ave", "lat": 37.869966707604043, "long": -122.28653311729433 }, "geometry": { "type": "Point", "coordinates": [ -122.286533117294326, 37.869966707604043 ] } },
{ "type": "Feature", "properties": { "id": "BK-D5", "start_count": 814, "end_count": 981, "combined_count": 1795, "name": "California St at University Ave", "lat": 37.870555329057453, "long": -122.27972030639648 }, "geometry": { "type": "Point", "coordinates": [ -122.279720306396484, 37.870555329057453 ] } },
{ "type": "Feature", "properties": { "id": "BK-D7-1", "start_count": 2552, "end_count": 2710, "combined_count": 5262, "name": "Downtown Berkeley BART", "lat": 37.870139, "long": -122.268422 }, "geometry": { "type": "Point", "coordinates": [ -122.268422, 37.870139 ] } },
{ "type": "Feature", "properties": { "id": "BK-D7-2", "start_count": 1371, "end_count": 1518, "combined_count": 2889, "name": "Berkeley Civic Center", "lat": 37.8690599, "long": -122.270556 }, "geometry": { "type": "Point", "coordinates": [ -122.270556, 37.8690599 ] } },
{ "type": "Feature", "properties": { "id": "BK-E10", "start_count": 1182, "end_count": 727, "combined_count": 1909, "name": "Haste St at College Ave", "lat": 37.86641794050319, "long": -122.25379943847656 }, "geometry": { "type": "Point", "coordinates": [ -122.253799438476562, 37.86641794050319 ] } },
{ "type": "Feature", "properties": { "id": "BK-E2", "start_count": 29, "end_count": 35, "combined_count": 64, "name": "Channing Way at San Pablo Ave", "lat": 37.8628271, "long": -122.2902305 }, "geometry": { "type": "Point", "coordinates": [ -122.2902305, 37.8628271 ] } },
{ "type": "Feature", "properties": { "id": "BK-E3", "start_count": 457, "end_count": 647, "combined_count": 1104, "name": "Channing Way at San Pablo Ave", "lat": 37.8628271, "long": -122.2902305 }, "geometry": { "type": "Point", "coordinates": [ -122.2902305, 37.8628271 ] } },
{ "type": "Feature", "properties": { "id": "BK-E7", "start_count": 2269, "end_count": 2295, "combined_count": 4564, "name": "Channing Way at Shattuck Ave", "lat": 37.8658466, "long": -122.2674431 }, "geometry": { "type": "Point", "coordinates": [ -122.2674431, 37.8658466 ] } },
{ "type": "Feature", "properties": { "id": "BK-E8", "start_count": 1402, "end_count": 1364, "combined_count": 2766, "name": "Fulton St at Bancroft Way", "lat": 37.8677892, "long": -122.2658964 }, "geometry": { "type": "Point", "coordinates": [ -122.2658964, 37.8677892 ] } },
{ "type": "Feature", "properties": { "id": "BK-E9-1", "start_count": 3241, "end_count": 2964, "combined_count": 6205, "name": "Bancroft Way at Telegraph Ave", "lat": 37.8688126, "long": -122.258764 }, "geometry": { "type": "Point", "coordinates": [ -122.258764, 37.8688126 ] } },
{ "type": "Feature", "properties": { "id": "BK-E9-2", "start_count": 2578, "end_count": 1859, "combined_count": 4437, "name": "Haste St at Telegraph Ave", "lat": 37.8660431, "long": -122.2588044 }, "geometry": { "type": "Point", "coordinates": [ -122.2588044, 37.8660431 ] } },
{ "type": "Feature", "properties": { "id": "BK-F10", "start_count": 1595, "end_count": 897, "combined_count": 2492, "name": "Derby St at College Ave", "lat": 37.8618037, "long": -122.2535687 }, "geometry": { "type": "Point", "coordinates": [ -122.2535687, 37.8618037 ] } },
{ "type": "Feature", "properties": { "id": "BK-F2", "start_count": 580, "end_count": 724, "combined_count": 1304, "name": "Ninth St at Parker St", "lat": 37.8588682, "long": -122.2912095 }, "geometry": { "type": "Point", "coordinates": [ -122.2912095, 37.8588682 ] } },
{ "type": "Feature", "properties": { "id": "BK-F7", "start_count": 1395, "end_count": 1528, "combined_count": 2923, "name": "Milvia St at Derby St", "lat": 37.860124599116851, "long": -122.2693844139576 }, "geometry": { "type": "Point", "coordinates": [ -122.269384413957596, 37.860124599116851 ] } },
{ "type": "Feature", "properties": { "id": "BK-F8", "start_count": 1988, "end_count": 2030, "combined_count": 4018, "name": "Parker St at Fulton St", "lat": 37.8624644, "long": -122.2647911 }, "geometry": { "type": "Point", "coordinates": [ -122.2647911, 37.8624644 ] } },
{ "type": "Feature", "properties": { "id": "BK-F9", "start_count": 1597, "end_count": 1298, "combined_count": 2895, "name": "Telegraph Ave at Carleton St", "lat": 37.8623199, "long": -122.258801 }, "geometry": { "type": "Point", "coordinates": [ -122.258801, 37.8623199 ] } },
{ "type": "Feature", "properties": { "id": "BK-G4", "start_count": 635, "end_count": 959, "combined_count": 1594, "name": "San Pablo Park", "lat": 37.855783320301988, "long": -122.28312671184538 }, "geometry": { "type": "Point", "coordinates": [ -122.283126711845384, 37.855783320301988 ] } },
{ "type": "Feature", "properties": { "id": "BK-G7", "start_count": 1636, "end_count": 1828, "combined_count": 3464, "name": "Oregon St at Adeline St", "lat": 37.8575672, "long": -122.2675583 }, "geometry": { "type": "Point", "coordinates": [ -122.2675583, 37.8575672 ] } },
{ "type": "Feature", "properties": { "id": "BK-G8", "start_count": 1164, "end_count": 1039, "combined_count": 2203, "name": "Ellsworth St at Russell St", "lat": 37.857490214571527, "long": -122.26157784461977 }, "geometry": { "type": "Point", "coordinates": [ -122.261577844619765, 37.857490214571527 ] } },
{ "type": "Feature", "properties": { "id": "BK-G9", "start_count": 55, "end_count": 53, "combined_count": 108, "name": "Telegraph Ave at Carleton St", "lat": 37.8623199, "long": -122.258801 }, "geometry": { "type": "Point", "coordinates": [ -122.258801, 37.8623199 ] } },
{ "type": "Feature", "properties": { "id": "BK-H10", "start_count": 1655, "end_count": 1435, "combined_count": 3090, "name": "Russell St at College Ave", "lat": 37.8584732, "long": -122.2532529 }, "geometry": { "type": "Point", "coordinates": [ -122.2532529, 37.8584732 ] } },
{ "type": "Feature", "properties": { "id": "BK-H3", "start_count": 1101, "end_count": 1331, "combined_count": 2432, "name": "Ninth St at Heinz Ave", "lat": 37.853906961643801, "long": -122.2896981239319 }, "geometry": { "type": "Point", "coordinates": [ -122.289698123931899, 37.853906961643801 ] } },
{ "type": "Feature", "properties": { "id": "BK-H6", "start_count": 1556, "end_count": 1655, "combined_count": 3211, "name": "Ashby BART Station", "lat": 37.8524766, "long": -122.2702132 }, "geometry": { "type": "Point", "coordinates": [ -122.2702132, 37.8524766 ] } },
{ "type": "Feature", "properties": { "id": "BK-H8", "start_count": 822, "end_count": 702, "combined_count": 1524, "name": "Fulton St at Ashby Ave", "lat": 37.855573661828792, "long": -122.2635653614998 }, "geometry": { "type": "Point", "coordinates": [ -122.263565361499801, 37.855573661828792 ] } },
{ "type": "Feature", "properties": { "id": "BK-H9", "start_count": 1426, "end_count": 1206, "combined_count": 2632, "name": "Telegraph Ave at Ashby Ave", "lat": 37.8559558, "long": -122.2597949 }, "geometry": { "type": "Point", "coordinates": [ -122.2597949, 37.8559558 ] } },
{ "type": "Feature", "properties": { "id": "BK-I5", "start_count": 775, "end_count": 945, "combined_count": 1720, "name": "Woolsey St at Sacramento St", "lat": 37.8505777, "long": -122.2781754 }, "geometry": { "type": "Point", "coordinates": [ -122.2781754, 37.8505777 ] } },
{ "type": "Feature", "properties": { "id": "BK-I6", "start_count": 598, "end_count": 643, "combined_count": 1241, "name": "Harmon St at Adeline St", "lat": 37.849735, "long": -122.270582 }, "geometry": { "type": "Point", "coordinates": [ -122.270582, 37.849735 ] } },
{ "type": "Feature", "properties": { "id": "EM-A1", "start_count": 431, "end_count": 560, "combined_count": 991, "name": "59th St at Horton St", "lat": 37.8409452, "long": -122.2913604 }, "geometry": { "type": "Point", "coordinates": [ -122.2913604, 37.8409452 ] } },
{ "type": "Feature", "properties": { "id": "EM-A2", "start_count": 880, "end_count": 1084, "combined_count": 1964, "name": "Doyle St at 59th St", "lat": 37.8419238, "long": -122.2880451 }, "geometry": { "type": "Point", "coordinates": [ -122.2880451, 37.8419238 ] } },
{ "type": "Feature", "properties": { "id": "EM-B0-2", "start_count": 205, "end_count": 211, "combined_count": 416, "name": "2100 Powell St", "lat": 37.839543082665628, "long": -122.2987177222967 }, "geometry": { "type": "Point", "coordinates": [ -122.298717722296701, 37.839543082665628 ] } },
{ "type": "Feature", "properties": { "id": "EM-B1", "start_count": 740, "end_count": 864, "combined_count": 1604, "name": "Emeryville Public Market", "lat": 37.840521166949692, "long": -122.29352831840517 }, "geometry": { "type": "Point", "coordinates": [ -122.293528318405166, 37.840521166949692 ] } },
{ "type": "Feature", "properties": { "id": "EM-B2", "start_count": 298, "end_count": 350, "combined_count": 648, "name": "Stanford Ave at Hollis St", "lat": 37.8384435, "long": -122.2886647 }, "geometry": { "type": "Point", "coordinates": [ -122.2886647, 37.8384435 ] } },
{ "type": "Feature", "properties": { "id": "EM-C1", "start_count": 479, "end_count": 645, "combined_count": 1124, "name": "65th St at Hollis St", "lat": 37.8467842, "long": -122.2913761 }, "geometry": { "type": "Point", "coordinates": [ -122.2913761, 37.8467842 ] } },
{ "type": "Feature", "properties": { "id": "EM-C2", "start_count": 90, "end_count": 152, "combined_count": 242, "name": "53rd St at Hollis St", "lat": 37.8361823, "long": -122.2871801 }, "geometry": { "type": "Point", "coordinates": [ -122.2871801, 37.8361823 ] } },
{ "type": "Feature", "properties": { "id": "EM-C3", "start_count": 251, "end_count": 327, "combined_count": 578, "name": "47th St at San Pablo Ave", "lat": 37.835632204585181, "long": -122.28105068206789 }, "geometry": { "type": "Point", "coordinates": [ -122.281050682067885, 37.835632204585181 ] } },
{ "type": "Feature", "properties": { "id": "EM-D2", "start_count": 801, "end_count": 992, "combined_count": 1793, "name": "Horton St at 40th St", "lat": 37.8297046, "long": -122.2876102 }, "geometry": { "type": "Point", "coordinates": [ -122.2876102, 37.8297046 ] } },
{ "type": "Feature", "properties": { "id": "EM-D3", "start_count": 267, "end_count": 323, "combined_count": 590, "name": "Emeryville Town Hall", "lat": 37.8312752, "long": -122.2856333 }, "geometry": { "type": "Point", "coordinates": [ -122.2856333, 37.8312752 ] } },
{ "type": "Feature", "properties": { "id": "EM-D4", "start_count": 543, "end_count": 637, "combined_count": 1180, "name": "Adeline St at 40th St", "lat": 37.8312769, "long": -122.2782669 }, "geometry": { "type": "Point", "coordinates": [ -122.2782669, 37.8312769 ] } },
{ "type": "Feature", "properties": { "id": "OK-A2", "start_count": 799, "end_count": 843, "combined_count": 1642, "name": "Telegraph Ave at Alcatraz Ave", "lat": 37.850221874496789, "long": -122.26017236709596 }, "geometry": { "type": "Point", "coordinates": [ -122.260172367095961, 37.850221874496789 ] } },
{ "type": "Feature", "properties": { "id": "OK-A4", "start_count": 509, "end_count": 402, "combined_count": 911, "name": "College Ave at Harwood Ave", "lat": 37.848152, "long": -122.2521599 }, "geometry": { "type": "Point", "coordinates": [ -122.2521599, 37.848152 ] } },
{ "type": "Feature", "properties": { "id": "OK-B1", "start_count": 437, "end_count": 455, "combined_count": 892, "name": "Alcatraz Ave at Shattuck Ave", "lat": 37.849594967776646, "long": -122.26556897163393 }, "geometry": { "type": "Point", "coordinates": [ -122.265568971633925, 37.849594967776646 ] } },
{ "type": "Feature", "properties": { "id": "OK-B2", "start_count": 591, "end_count": 572, "combined_count": 1163, "name": "Bushrod Park", "lat": 37.8465156, "long": -122.2653043 }, "geometry": { "type": "Point", "coordinates": [ -122.2653043, 37.8465156 ] } },
{ "type": "Feature", "properties": { "id": "OK-B3", "start_count": 377, "end_count": 344, "combined_count": 721, "name": "Telegraph Ave at 58th St", "lat": 37.8444927, "long": -122.261351 }, "geometry": { "type": "Point", "coordinates": [ -122.261351, 37.8444927 ] } },
{ "type": "Feature", "properties": { "id": "OK-B4", "start_count": 2001, "end_count": 1709, "combined_count": 3710, "name": "Rockridge BART Station", "lat": 37.844278753990672, "long": -122.251900434494 }, "geometry": { "type": "Point", "coordinates": [ -122.251900434494004, 37.844278753990672 ] } },
{ "type": "Feature", "properties": { "id": "OK-B5", "start_count": 382, "end_count": 304, "combined_count": 686, "name": "College Ave at Taft Ave", "lat": 37.8417999, "long": -122.2515349 }, "geometry": { "type": "Point", "coordinates": [ -122.2515349, 37.8417999 ] } },
{ "type": "Feature", "properties": { "id": "OK-C2", "start_count": 520, "end_count": 512, "combined_count": 1032, "name": "Dover St at 57th St", "lat": 37.8426295, "long": -122.267738 }, "geometry": { "type": "Point", "coordinates": [ -122.267738, 37.8426295 ] } },
{ "type": "Feature", "properties": { "id": "OK-C3", "start_count": 780, "end_count": 687, "combined_count": 1467, "name": "55th St at Telegraph Ave", "lat": 37.8401858, "long": -122.2618225 }, "geometry": { "type": "Point", "coordinates": [ -122.2618225, 37.8401858 ] } },
{ "type": "Feature", "properties": { "id": "OK-C4", "start_count": 642, "end_count": 588, "combined_count": 1230, "name": "Miles Ave at Cavour St", "lat": 37.8388, "long": -122.258732 }, "geometry": { "type": "Point", "coordinates": [ -122.258732, 37.8388 ] } },
{ "type": "Feature", "properties": { "id": "OK-C5", "start_count": 295, "end_count": 276, "combined_count": 571, "name": "College Ave at Bryant Ave", "lat": 37.8381269, "long": -122.2512714 }, "geometry": { "type": "Point", "coordinates": [ -122.2512714, 37.8381269 ] } },
{ "type": "Feature", "properties": { "id": "OK-D2", "start_count": 719, "end_count": 710, "combined_count": 1429, "name": "Genoa St at 55th St", "lat": 37.8396488, "long": -122.2717561 }, "geometry": { "type": "Point", "coordinates": [ -122.2717561, 37.8396488 ] } },
{ "type": "Feature", "properties": { "id": "OK-D3-1", "start_count": 861, "end_count": 748, "combined_count": 1609, "name": "Shattuck Ave at 55th St", "lat": 37.8403643, "long": -122.2644881 }, "geometry": { "type": "Point", "coordinates": [ -122.2644881, 37.8403643 ] } },
{ "type": "Feature", "properties": { "id": "OK-D3-2", "start_count": 238, "end_count": 197, "combined_count": 435, "name": "Shattuck Ave at 51st St", "lat": 37.8368013, "long": -122.2640037 }, "geometry": { "type": "Point", "coordinates": [ -122.2640037, 37.8368013 ] } },
{ "type": "Feature", "properties": { "id": "OK-D4", "start_count": 1457, "end_count": 1556, "combined_count": 3013, "name": "Telegraph Ave at 49th St", "lat": 37.83575, "long": -122.262654 }, "geometry": { "type": "Point", "coordinates": [ -122.262654, 37.83575 ] } },
{ "type": "Feature", "properties": { "id": "OK-D5", "start_count": 696, "end_count": 572, "combined_count": 1268, "name": "Broadway at Coronado Ave", "lat": 37.8357883, "long": -122.2516207 }, "geometry": { "type": "Point", "coordinates": [ -122.2516207, 37.8357883 ] } },
{ "type": "Feature", "properties": { "id": "OK-E2", "start_count": 9, "end_count": 9, "combined_count": 18, "name": "Market St at 45th St", "lat": 37.834174, "long": -122.272968 }, "geometry": { "type": "Point", "coordinates": [ -122.272968, 37.834174 ] } },
{ "type": "Feature", "properties": { "id": "OK-E3", "start_count": 235, "end_count": 251, "combined_count": 486, "name": "45th St at MLK Jr Way", "lat": 37.8335577, "long": -122.2674183 }, "geometry": { "type": "Point", "coordinates": [ -122.2674183, 37.8335577 ] } },
{ "type": "Feature", "properties": { "id": "OK-E4", "start_count": 812, "end_count": 807, "combined_count": 1619, "name": "Shattuck Ave at Telegraph Ave", "lat": 37.8332786, "long": -122.2634901 }, "geometry": { "type": "Point", "coordinates": [ -122.2634901, 37.8332786 ] } },
{ "type": "Feature", "properties": { "id": "OK-E5", "start_count": 613, "end_count": 572, "combined_count": 1185, "name": "45th St at Manila", "lat": 37.833293522232097, "long": -122.25622415542604 }, "geometry": { "type": "Point", "coordinates": [ -122.25622415542604, 37.833293522232097 ] } },
{ "type": "Feature", "properties": { "id": "OK-F2-2", "start_count": 469, "end_count": 475, "combined_count": 944, "name": "Market St at 45th St", "lat": 37.834174, "long": -122.272968 }, "geometry": { "type": "Point", "coordinates": [ -122.272968, 37.834174 ] } },
{ "type": "Feature", "properties": { "id": "OK-F3", "start_count": 495, "end_count": 457, "combined_count": 952, "name": "West St at 40th St", "lat": 37.8302232, "long": -122.2709501 }, "geometry": { "type": "Point", "coordinates": [ -122.2709501, 37.8302232 ] } },
{ "type": "Feature", "properties": { "id": "OK-F4", "start_count": 3493, "end_count": 3497, "combined_count": 6990, "name": "MacArthur BART Station", "lat": 37.828409973058527, "long": -122.26631462574004 }, "geometry": { "type": "Point", "coordinates": [ -122.266314625740037, 37.828409973058527 ] } },
{ "type": "Feature", "properties": { "id": "OK-F5", "start_count": 1591, "end_count": 1476, "combined_count": 3067, "name": "Broadway at 40th St", "lat": 37.8277573, "long": -122.2567156 }, "geometry": { "type": "Point", "coordinates": [ -122.2567156, 37.8277573 ] } },
{ "type": "Feature", "properties": { "id": "OK-G2", "start_count": 465, "end_count": 408, "combined_count": 873, "name": "Market St at 40th St", "lat": 37.8305452, "long": -122.2739367 }, "geometry": { "type": "Point", "coordinates": [ -122.2739367, 37.8305452 ] } },
{ "type": "Feature", "properties": { "id": "OK-G3", "start_count": 566, "end_count": 547, "combined_count": 1113, "name": "37th St at West St", "lat": 37.826695586409677, "long": -122.27179706096648 }, "geometry": { "type": "Point", "coordinates": [ -122.271797060966477, 37.826695586409677 ] } },
{ "type": "Feature", "properties": { "id": "OK-G4", "start_count": 382, "end_count": 303, "combined_count": 685, "name": "MacArthur Blvd at Telegraph Ave", "lat": 37.8262863, "long": -122.2651002 }, "geometry": { "type": "Point", "coordinates": [ -122.2651002, 37.8262863 ] } },
{ "type": "Feature", "properties": { "id": "OK-G5", "start_count": 1159, "end_count": 1110, "combined_count": 2269, "name": "Mosswood Park", "lat": 37.824892529951121, "long": -122.26043654610294 }, "geometry": { "type": "Point", "coordinates": [ -122.260436546102937, 37.824892529951121 ] } },
{ "type": "Feature", "properties": { "id": "OK-H2", "start_count": 1021, "end_count": 1000, "combined_count": 2021, "name": "32nd St at Adeline St", "lat": 37.8238474, "long": -122.2811926 }, "geometry": { "type": "Point", "coordinates": [ -122.2811926, 37.8238474 ] } },
{ "type": "Feature", "properties": { "id": "OK-H3", "start_count": 557, "end_count": 482, "combined_count": 1039, "name": "Market St at Brockhurst St", "lat": 37.8233214, "long": -122.2757325 }, "geometry": { "type": "Point", "coordinates": [ -122.2757325, 37.8233214 ] } },
{ "type": "Feature", "properties": { "id": "OK-H4-3", "start_count": 859, "end_count": 868, "combined_count": 1727, "name": "34th St at Telegraph Ave", "lat": 37.8225475, "long": -122.2663179 }, "geometry": { "type": "Point", "coordinates": [ -122.2663179, 37.8225475 ] } },
{ "type": "Feature", "properties": { "id": "OK-H5", "start_count": 1653, "end_count": 1578, "combined_count": 3231, "name": "Broadway at 30th St", "lat": 37.8193814, "long": -122.2619284 }, "geometry": { "type": "Point", "coordinates": [ -122.2619284, 37.8193814 ] } },
{ "type": "Feature", "properties": { "id": "OK-H9-1", "start_count": 1293, "end_count": 1686, "combined_count": 2979, "name": "Grand Ave at Santa Clara Ave", "lat": 37.8127441, "long": -122.2472152 }, "geometry": { "type": "Point", "coordinates": [ -122.2472152, 37.8127441 ] } },
{ "type": "Feature", "properties": { "id": "OK-H9-2", "start_count": 916, "end_count": 967, "combined_count": 1883, "name": "Lakeshore Ave at Trestle Glen Rd", "lat": 37.8110807, "long": -122.2432677 }, "geometry": { "type": "Point", "coordinates": [ -122.2432677, 37.8110807 ] } },
{ "type": "Feature", "properties": { "id": "OK-I3", "start_count": 334, "end_count": 339, "combined_count": 673, "name": "San Pablo Ave at 27th St", "lat": 37.8178269, "long": -122.2756976 }, "geometry": { "type": "Point", "coordinates": [ -122.2756976, 37.8178269 ] } },
{ "type": "Feature", "properties": { "id": "OK-I4", "start_count": 206, "end_count": 226, "combined_count": 432, "name": "27th St at MLK Jr Way", "lat": 37.8170154, "long": -122.2717615 }, "geometry": { "type": "Point", "coordinates": [ -122.2717615, 37.8170154 ] } },
{ "type": "Feature", "properties": { "id": "OK-I5", "start_count": 1391, "end_count": 1338, "combined_count": 2729, "name": "Telegraph Ave at 27th St", "lat": 37.816073115011406, "long": -122.26788640022278 }, "geometry": { "type": "Point", "coordinates": [ -122.267886400222778, 37.816073115011406 ] } },
{ "type": "Feature", "properties": { "id": "OK-I6", "start_count": 1610, "end_count": 1741, "combined_count": 3351, "name": "Bay Pl at Vernon St", "lat": 37.81231409135146, "long": -122.26077854633331 }, "geometry": { "type": "Point", "coordinates": [ -122.260778546333313, 37.81231409135146 ] } },
{ "type": "Feature", "properties": { "id": "OK-I8", "start_count": 2325, "end_count": 2518, "combined_count": 4843, "name": "Grand Ave at Perkins St", "lat": 37.80889393398715, "long": -122.25646018981932 }, "geometry": { "type": "Point", "coordinates": [ -122.256460189819322, 37.80889393398715 ] } },
{ "type": "Feature", "properties": { "id": "OK-I9", "start_count": 3226, "end_count": 3603, "combined_count": 6829, "name": "El Embarcadero at Grand Ave", "lat": 37.8088479, "long": -122.2496799 }, "geometry": { "type": "Point", "coordinates": [ -122.2496799, 37.8088479 ] } },
{ "type": "Feature", "properties": { "id": "OK-J3", "start_count": 797, "end_count": 779, "combined_count": 1576, "name": "24th St at Market St", "lat": 37.8160598, "long": -122.2782444 }, "geometry": { "type": "Point", "coordinates": [ -122.2782444, 37.8160598 ] } },
{ "type": "Feature", "properties": { "id": "OK-J4", "start_count": 376, "end_count": 435, "combined_count": 811, "name": "Isabella St at San Pablo Ave", "lat": 37.814988230424163, "long": -122.2748440504074 }, "geometry": { "type": "Point", "coordinates": [ -122.274844050407395, 37.814988230424163 ] } },
{ "type": "Feature", "properties": { "id": "OK-J5", "start_count": 1466, "end_count": 1517, "combined_count": 2983, "name": "Telegraph Ave at 23rd St", "lat": 37.8126783, "long": -122.2687726 }, "geometry": { "type": "Point", "coordinates": [ -122.2687726, 37.8126783 ] } },
{ "type": "Feature", "properties": { "id": "OK-J6-1", "start_count": 1851, "end_count": 2015, "combined_count": 3866, "name": "Grand Ave at Webster St", "lat": 37.8113768, "long": -122.2651925 }, "geometry": { "type": "Point", "coordinates": [ -122.2651925, 37.8113768 ] } },
{ "type": "Feature", "properties": { "id": "OK-J6-2", "start_count": 1176, "end_count": 1220, "combined_count": 2396, "name": "Snow Park", "lat": 37.807813182179032, "long": -122.26449608802795 }, "geometry": { "type": "Point", "coordinates": [ -122.264496088027954, 37.807813182179032 ] } },
{ "type": "Feature", "properties": { "id": "OK-K10", "start_count": 139, "end_count": 142, "combined_count": 281, "name": "21st St at 5th Ave", "lat": 37.800459411713945, "long": -122.24745869636536 }, "geometry": { "type": "Point", "coordinates": [ -122.247458696365356, 37.800459411713945 ] } },
{ "type": "Feature", "properties": { "id": "OK-K17", "start_count": 37, "end_count": 33, "combined_count": 70, "name": "Foothill Blvd at Harrington Ave", "lat": 37.77993, "long": -122.2177284 }, "geometry": { "type": "Point", "coordinates": [ -122.2177284, 37.77993 ] } },
{ "type": "Feature", "properties": { "id": "OK-K2", "start_count": 533, "end_count": 669, "combined_count": 1202, "name": "DeFremery Park", "lat": 37.8123315, "long": -122.2851712 }, "geometry": { "type": "Point", "coordinates": [ -122.2851712, 37.8123315 ] } },
{ "type": "Feature", "properties": { "id": "OK-K3", "start_count": 450, "end_count": 467, "combined_count": 917, "name": "Marston Campbell Park", "lat": 37.8098236, "long": -122.2801923 }, "geometry": { "type": "Point", "coordinates": [ -122.2801923, 37.8098236 ] } },
{ "type": "Feature", "properties": { "id": "OK-K4", "start_count": 345, "end_count": 357, "combined_count": 702, "name": "San Pablo Ave at MLK Jr Way", "lat": 37.8113514, "long": -122.2734217 }, "geometry": { "type": "Point", "coordinates": [ -122.2734217, 37.8113514 ] } },
{ "type": "Feature", "properties": { "id": "OK-K5-1", "start_count": 1778, "end_count": 1730, "combined_count": 3508, "name": "Telegraph Ave at 19th St", "lat": 37.8087021, "long": -122.2699271 }, "geometry": { "type": "Point", "coordinates": [ -122.2699271, 37.8087021 ] } },
{ "type": "Feature", "properties": { "id": "OK-K5-2", "start_count": 1889, "end_count": 1993, "combined_count": 3882, "name": "19th Street BART Station", "lat": 37.809368612134847, "long": -122.26795077323914 }, "geometry": { "type": "Point", "coordinates": [ -122.267950773239136, 37.809368612134847 ] } },
{ "type": "Feature", "properties": { "id": "OK-K6", "start_count": 557, "end_count": 569, "combined_count": 1126, "name": "Webster St at 19th St", "lat": 37.806969760955937, "long": -122.26658821105956 }, "geometry": { "type": "Point", "coordinates": [ -122.266588211059556, 37.806969760955937 ] } },
{ "type": "Feature", "properties": { "id": "OK-K7", "start_count": 1359, "end_count": 1214, "combined_count": 2573, "name": "Madison St at 17th St", "lat": 37.804037, "long": -122.262409 }, "geometry": { "type": "Point", "coordinates": [ -122.262409, 37.804037 ] } },
{ "type": "Feature", "properties": { "id": "OK-K9", "start_count": 1934, "end_count": 2284, "combined_count": 4218, "name": "2nd Ave at E 18th St", "lat": 37.800213566969802, "long": -122.25381016731262 }, "geometry": { "type": "Point", "coordinates": [ -122.253810167312622, 37.800213566969802 ] } },
{ "type": "Feature", "properties": { "id": "OK-L1", "start_count": 842, "end_count": 891, "combined_count": 1733, "name": "14th St at Mandela Pkwy", "lat": 37.8107432, "long": -122.2914153 }, "geometry": { "type": "Point", "coordinates": [ -122.2914153, 37.8107432 ] } },
{ "type": "Feature", "properties": { "id": "OK-L10", "start_count": 144, "end_count": 135, "combined_count": 279, "name": "6th Ave at E 12th St (Temporary Location)", "lat": 37.794396, "long": -122.253842 }, "geometry": { "type": "Point", "coordinates": [ -122.253842, 37.794396 ] } },
{ "type": "Feature", "properties": { "id": "OK-L11", "start_count": 150, "end_count": 134, "combined_count": 284, "name": "10th Ave at E 15th St", "lat": 37.7927143, "long": -122.2487796 }, "geometry": { "type": "Point", "coordinates": [ -122.2487796, 37.7927143 ] } },
{ "type": "Feature", "properties": { "id": "OK-L12", "start_count": 175, "end_count": 179, "combined_count": 354, "name": "San Antonio Park", "lat": 37.790139851853638, "long": -122.24237322807312 }, "geometry": { "type": "Point", "coordinates": [ -122.24237322807312, 37.790139851853638 ] } },
{ "type": "Feature", "properties": { "id": "OK-L13", "start_count": 925, "end_count": 892, "combined_count": 1817, "name": "21st St at 5th Ave", "lat": 37.800459411713945, "long": -122.24745869636536 }, "geometry": { "type": "Point", "coordinates": [ -122.247458696365356, 37.800459411713945 ] } },
{ "type": "Feature", "properties": { "id": "OK-L14", "start_count": 70, "end_count": 89, "combined_count": 159, "name": "23rd Ave at Foothill Blvd", "lat": 37.7851915, "long": -122.2343822 }, "geometry": { "type": "Point", "coordinates": [ -122.2343822, 37.7851915 ] } },
{ "type": "Feature", "properties": { "id": "OK-L15", "start_count": 2, "end_count": 3, "combined_count": 5, "name": "26th Ave at International Blvd", "lat": 37.781123, "long": -122.2329915 }, "geometry": { "type": "Point", "coordinates": [ -122.2329915, 37.781123 ] } },
{ "type": "Feature", "properties": { "id": "OK-L16", "start_count": 76, "end_count": 78, "combined_count": 154, "name": "Foothill Blvd at Fruitvale Ave", "lat": 37.7837569, "long": -122.2226033 }, "geometry": { "type": "Point", "coordinates": [ -122.2226033, 37.7837569 ] } },
{ "type": "Feature", "properties": { "id": "OK-L17", "start_count": 2, "end_count": 7, "combined_count": 9, "name": "Foothill Blvd at Harrington Ave", "lat": 37.77993, "long": -122.2177284 }, "geometry": { "type": "Point", "coordinates": [ -122.2177284, 37.77993 ] } },
{ "type": "Feature", "properties": { "id": "OK-L19", "start_count": 62, "end_count": 68, "combined_count": 130, "name": "Bond St at High St", "lat": 37.774152564302362, "long": -122.21239820122716 }, "geometry": { "type": "Point", "coordinates": [ -122.21239820122716, 37.774152564302362 ] } },
{ "type": "Feature", "properties": { "id": "OK-L2", "start_count": 64, "end_count": 67, "combined_count": 131, "name": "14th St at Mandela Pkwy", "lat": 37.8107432, "long": -122.2914153 }, "geometry": { "type": "Point", "coordinates": [ -122.2914153, 37.8107432 ] } },
{ "type": "Feature", "properties": { "id": "OK-L3", "start_count": 90, "end_count": 115, "combined_count": 205, "name": "14th St at Filbert St", "lat": 37.80874983465997, "long": -122.28328227996823 }, "geometry": { "type": "Point", "coordinates": [ -122.283282279968233, 37.80874983465997 ] } },
{ "type": "Feature", "properties": { "id": "OK-L4", "start_count": 577, "end_count": 563, "combined_count": 1140, "name": "MLK Jr Way at 14th St", "lat": 37.8061628, "long": -122.2760402 }, "geometry": { "type": "Point", "coordinates": [ -122.2760402, 37.8061628 ] } },
{ "type": "Feature", "properties": { "id": "OK-L5", "start_count": 1429, "end_count": 1531, "combined_count": 2960, "name": "Frank H Ogawa Plaza", "lat": 37.804562354930297, "long": -122.27173805236816 }, "geometry": { "type": "Point", "coordinates": [ -122.271738052368164, 37.804562354930297 ] } },
{ "type": "Feature", "properties": { "id": "OK-L6", "start_count": 666, "end_count": 628, "combined_count": 1294, "name": "13th St at Franklin St", "lat": 37.803189081131627, "long": -122.27057933807372 }, "geometry": { "type": "Point", "coordinates": [ -122.270579338073716, 37.803189081131627 ] } },
{ "type": "Feature", "properties": { "id": "OK-L6-2", "start_count": 537, "end_count": 528, "combined_count": 1065, "name": "13th St at Webster St", "lat": 37.802688402040665, "long": -122.26914636790752 }, "geometry": { "type": "Point", "coordinates": [ -122.269146367907524, 37.802688402040665 ] } },
{ "type": "Feature", "properties": { "id": "OK-L7", "start_count": 422, "end_count": 439, "combined_count": 861, "name": "Jackson St at 11th St", "lat": 37.800001631188778, "long": -122.26643800735472 }, "geometry": { "type": "Point", "coordinates": [ -122.266438007354722, 37.800001631188778 ] } },
{ "type": "Feature", "properties": { "id": "OK-L7-2", "start_count": 1916, "end_count": 1815, "combined_count": 3731, "name": "Lakeside Dr at 14th St", "lat": 37.8013189, "long": -122.2626418 }, "geometry": { "type": "Point", "coordinates": [ -122.2626418, 37.8013189 ] } },
{ "type": "Feature", "properties": { "id": "OK-L8", "start_count": 538, "end_count": 518, "combined_count": 1056, "name": "10th St at Fallon St", "lat": 37.7976728, "long": -122.2629973 }, "geometry": { "type": "Point", "coordinates": [ -122.2629973, 37.7976728 ] } },
{ "type": "Feature", "properties": { "id": "OK-L9", "start_count": 464, "end_count": 457, "combined_count": 921, "name": "4th Ave at E 12th St (Temporary Location)", "lat": 37.795913, "long": -122.255547 }, "geometry": { "type": "Point", "coordinates": [ -122.255547, 37.795913 ] } },
{ "type": "Feature", "properties": { "id": "OK-M1", "start_count": 119, "end_count": 131, "combined_count": 250, "name": "West Oakland BART Station", "lat": 37.8053183, "long": -122.2948365 }, "geometry": { "type": "Point", "coordinates": [ -122.2948365, 37.8053183 ] } },
{ "type": "Feature", "properties": { "id": "OK-M14", "start_count": 37, "end_count": 41, "combined_count": 78, "name": "26th Ave at International Blvd", "lat": 37.781123, "long": -122.2329915 }, "geometry": { "type": "Point", "coordinates": [ -122.2329915, 37.781123 ] } },
{ "type": "Feature", "properties": { "id": "OK-M16", "start_count": 41, "end_count": 41, "combined_count": 82, "name": "Farnam St at Fruitvale Ave", "lat": 37.778058, "long": -122.2254 }, "geometry": { "type": "Point", "coordinates": [ -122.2254, 37.778058 ] } },
{ "type": "Feature", "properties": { "id": "OK-M2", "start_count": 191, "end_count": 226, "combined_count": 417, "name": "Union St at 10th St", "lat": 37.8072393, "long": -122.2893702 }, "geometry": { "type": "Point", "coordinates": [ -122.2893702, 37.8072393 ] } },
{ "type": "Feature", "properties": { "id": "OK-M3", "start_count": 18, "end_count": 13, "combined_count": 31, "name": "Market St at 8th St", "lat": 37.8036865, "long": -122.282497 }, "geometry": { "type": "Point", "coordinates": [ -122.282497, 37.8036865 ] } },
{ "type": "Feature", "properties": { "id": "OK-M4", "start_count": 265, "end_count": 245, "combined_count": 510, "name": "Market St at 8th St", "lat": 37.8036865, "long": -122.282497 }, "geometry": { "type": "Point", "coordinates": [ -122.282497, 37.8036865 ] } },
{ "type": "Feature", "properties": { "id": "OK-M5", "start_count": 982, "end_count": 1070, "combined_count": 2052, "name": "Washington St at 8th St", "lat": 37.8007544, "long": -122.2748943 }, "geometry": { "type": "Point", "coordinates": [ -122.2748943, 37.8007544 ] } },
{ "type": "Feature", "properties": { "id": "OK-M6", "start_count": 922, "end_count": 987, "combined_count": 1909, "name": "Franklin St at 9th St", "lat": 37.8005161, "long": -122.2720799 }, "geometry": { "type": "Point", "coordinates": [ -122.2720799, 37.8005161 ] } },
{ "type": "Feature", "properties": { "id": "OK-M7", "start_count": 2557, "end_count": 2019, "combined_count": 4576, "name": "Lake Merritt BART Station", "lat": 37.7973195, "long": -122.2653199 }, "geometry": { "type": "Point", "coordinates": [ -122.2653199, 37.7973195 ] } },
{ "type": "Feature", "properties": { "id": "OK-N1", "start_count": 1948, "end_count": 2024, "combined_count": 3972, "name": "West Oakland BART Station", "lat": 37.8053183, "long": -122.2948365 }, "geometry": { "type": "Point", "coordinates": [ -122.2948365, 37.8053183 ] } },
{ "type": "Feature", "properties": { "id": "OK-N17", "start_count": 208, "end_count": 200, "combined_count": 408, "name": "Fruitvale BART Station", "lat": 37.7752321, "long": -122.2244982 }, "geometry": { "type": "Point", "coordinates": [ -122.2244982, 37.7752321 ] } },
{ "type": "Feature", "properties": { "id": "OK-N5", "start_count": 744, "end_count": 918, "combined_count": 1662, "name": "Jack London Square", "lat": 37.796248, "long": -122.279352 }, "geometry": { "type": "Point", "coordinates": [ -122.279352, 37.796248 ] } },
{ "type": "Feature", "properties": { "id": "OK-N6", "start_count": 927, "end_count": 1090, "combined_count": 2017, "name": "Webster St at 2nd St", "lat": 37.795194764385954, "long": -122.27396965026855 }, "geometry": { "type": "Point", "coordinates": [ -122.273969650268555, 37.795194764385954 ] } },
{ "type": "Feature", "properties": { "id": "OK-N7", "start_count": 252, "end_count": 279, "combined_count": 531, "name": "Webster St at 2nd St", "lat": 37.795194764385954, "long": -122.27396965026855 }, "geometry": { "type": "Point", "coordinates": [ -122.273969650268555, 37.795194764385954 ] } }
]
}
